{"type":"Feature","properties":{"id":"aguja","sourceUrl":"https://commons.wikimedia.org/wiki/File:Geranoaetus_melanoleucus_range_map.PNG","license":"Public domain","author":"Izvora","sourceImageSha256":"94fd746b97544d9c5f69e30975aba5f29a5c80ef306aed442263588a2d4f20a0","registration":{"proj_string":"+proj=robin +R=1 +lon_0=9","parameters_1000px":[1305.7322490343402,-1273.5256518122476,1799.1279803167145,296.93812389714384],"coast_rmse_capped15_px":4.387642860412598,"coast_median_px":2.9086360931396484,"coast_p90_px":6.827355861663818,"sample_count":870,"image_width":212,"image_height":319,"pixel_transform_native":[276.8152367952801,-269.9874381841965,381.41513182714345,62.95088226619449],"transform_definition":"pixel_x=sx*projected_x+tx; pixel_y=sy*projected_y+ty","validation":"Odd coastline samples withheld from affine fit. Normalized to 1000px width.","controls":[[-67,-55.95,121,309],[-34.8,-7.1,200,94],[-81.3,-4.7,13,81],[-71.7,12.4,81,9],[-77.2,8,42,35]],"review_bounds":[-85,-57,-30,14],"all_fits":[{"proj_string":"+proj=robin +R=1 +lon_0=6","parameters_1000px":[1314.9244468566037,-1269.7689372865987,1752.4694616785348,297.2957606014448],"coast_rmse_capped15_px":4.647659778594971,"coast_median_px":2.6045122146606445,"coast_p90_px":7.586226940155029,"sample_count":870},{"proj_string":"+proj=robin +R=1 +lon_0=12","parameters_1000px":[1297.8464663417103,-1274.1792875655408,1845.1013845605282,296.4726619253618],"coast_rmse_capped15_px":4.955411911010742,"coast_median_px":2.681426525115967,"coast_p90_px":8.915807723999023,"sample_count":870},{"proj_string":"+proj=robin +R=1 +lon_0=3","parameters_1000px":[1325.2024289488602,-1268.7929521601109,1705.1517191222965,297.17502765610925],"coast_rmse_capped15_px":5.5718607902526855,"coast_median_px":2.346977710723877,"coast_p90_px":10.616057395935059,"sample_count":870},{"proj_string":"+proj=robin +R=1 +lon_0=15","parameters_1000px":[1289.977549590303,-1274.7979336684136,1890.3655774030694,296.1753933273523],"coast_rmse_capped15_px":5.871227741241455,"coast_median_px":2.5229830741882324,"coast_p90_px":11.22382926940918,"sample_count":870},{"proj_string":"+proj=robin +R=1 +lon_0=0","parameters_1000px":[1334.9385942376396,-1268.7814710255373,1657.202417368709,297.24624785815547],"coast_rmse_capped15_px":6.598823547363281,"coast_median_px":2.978224277496338,"coast_p90_px":14.019994735717773,"sample_count":870},{"proj_string":"+proj=robin +R=1 +lon_0=21","parameters_1000px":[1273.2595620308348,-1276.8397601512306,1978.6789394148805,295.85929744160904],"coast_rmse_capped15_px":7.164449691772461,"coast_median_px":3.322230577468872,"coast_p90_px":17.100923538208008,"sample_count":870},{"proj_string":"+proj=robin +R=1 +lon_0=18","parameters_1000px":[1253.2467085927972,-1279.6904481081174,1900.4591645630476,294.81699165406155],"coast_rmse_capped15_px":7.711496353149414,"coast_median_px":4.613153457641602,"coast_p90_px":19.01692008972168,"sample_count":870},{"proj_string":"+proj=robin +R=1 +lon_0=24","parameters_1000px":[1264.5530610007447,-1279.4349471378587,2021.6889035282904,295.6736908155332],"coast_rmse_capped15_px":7.847365856170654,"coast_median_px":3.8865041732788086,"coast_p90_px":19.83978271484375,"sample_count":870},{"proj_string":"+proj=robin +R=1 +lon_0=27","parameters_1000px":[1255.716297296878,-1282.2593936262124,2063.911223398643,295.6491720599761],"coast_rmse_capped15_px":8.467086791992188,"coast_median_px":4.5417633056640625,"coast_p90_px":22.553346633911133,"sample_count":870},{"proj_string":"+proj=robin +R=1 +lon_0=30","parameters_1000px":[1247.2334625126282,-1284.004879447055,2105.330722088767,295.1192866347093],"coast_rmse_capped15_px":8.954959869384766,"coast_median_px":5.36435079574585,"coast_p90_px":25.584096908569336,"sample_count":870}],"status":"reviewed","coastlineReference":"Natural Earth 1:110m (world-registration-110m.geojson)"},"includedColors":["#008000"],"adaptation":"Inverse global map projection; current seasonal/subspecies colors combined; explicitly reviewed legends/arrows omitted; 3px border closing; contours simplified by 0.45 source pixels; components below 4 source pixels omitted; split at the antimeridian.","licenseUrl":"https://commons.wikimedia.org/wiki/Commons:Public_domain","originalFileSha256":"94fd746b97544d9c5f69e30975aba5f29a5c80ef306aed442263588a2d4f20a0","sourceImagePath":"data/ranges/reference-originals/aguja.png"},"geometry":{"type":"MultiPolygon","coordinates":[[[[-66.75257231036694,-54.51198991371785],[-67.33435549461485,-54.51198991371785],[-67.77343353405621,-54.745359117043236],[-68.07408795835593,-55.21296405916355],[-68.21507324476475,-54.979022339243606],[-69.09113967157474,-54.979022339243606],[-69.23070428766721,-54.745359117043236],[-70.10506673983382,-54.745359117043236],[-70.38184112210402,-54.278910221616684],[-71.2528445730647,-54.278910221616684],[-71.2386324971693,-53.81360158419191],[-71.81710586283391,-53.81360158419191],[-71.95473305801364,-53.581363864020275],[-72.53212510194884,-53.581363864020275],[-73.09431235259952,-53.11770002839446],[-72.65033340011347,-52.42416983402011],[-72.79108999947769,-52.19350062765496],[-73.3622266533109,-52.19350062765496],[-73.5025728695413,-51.96307837643206],[-74.35777251665736,-51.96307837643206],[-74.49463118428241,-51.27325329089109],[-74.77822608874985,-51.27325329089109],[-74.35848174979857,-50.585508137866725],[-74.50362827543209,-50.35670394519927],[-75.06705179406764,-50.35670394519927],[-74.6633671489571,-49.67157332823106],[-75.09194788045254,-49.44361015688331],[-74.83234786982823,-48.98828038330313],[-75.26203758252868,-48.76090591241794],[-75.28721453358747,-48.30671836403593],[-75.03906599735015,-47.85325377064386],[-74.24347111416274,-47.4004818479955],[-73.88930842531005,-46.722557540768314],[-74.04789732878166,-46.496897032383394],[-74.59712842596267,-46.496897032383394],[-75.02936248875862,-46.27138760354078],[-74.63942017845662,-46.04602565886019],[-73.96181604677037,-44.69673983379947],[-74.12264882074567,-44.47231436069849],[-73.90324409590612,-44.02382898914586],[-73.36212692847671,-44.02382898914586],[-72.98407699831806,-43.799764874635706],[-72.45889487470807,-42.681146638016614],[-72.5890678783798,-41.788171574919],[-73.12335095329016,-41.788171574919],[-73.491740446338,-42.0112635133885],[-73.69714629585064,-42.45774902540941],[-73.53278851190629,-42.681146638016614],[-73.74305362943657,-43.12826174201774],[-74.17510470507982,-42.90465019609197],[-73.86176666000016,-42.234455325192485],[-74.02668009056124,-42.0112635133885],[-73.62516990393941,-41.119474978045666],[-73.79326696973565,-40.89676255317643],[-73.41204027538078,-40.006792478531565],[-73.58394046881034,-39.78452702175417],[-73.22830180709158,-39.56232280155341],[-73.04904339748344,-39.11814384529464],[-73.49030647236326,-38.23063690293097],[-73.32177268123567,-37.78727091749896],[-73.59811281903015,-37.122653280130386],[-72.99590524886331,-36.9012197284316],[-72.38427918443664,-35.13131877439758],[-72.05258237131109,-34.910223230569464],[-71.83820077487697,-34.24716335198204],[-71.95628750390429,-33.80524382460805],[-71.63018046335365,-33.584315268744476],[-71.49510159834922,-33.14251240555194],[-71.68527791744047,-32.92163483542949],[-71.36319169900493,-31.817420441309736],[-71.68909851897459,-31.154972006410986],[-71.56949315401822,-30.71334604320116],[-71.70733506752066,-30.27170997547457],[-71.39606635755507,-30.05088408943385],[-71.12317566593295,-28.946656134580707],[-70.51384395807055,-28.504916064021508],[-70.00805504456633,-28.504916064021508],[-69.65637900881696,-28.063156668095832],[-68.50554068385607,-27.400488963142735],[-68.46021841210575,-27.179593841780495],[-67.9119971489642,-26.958696503756812],[-67.86847050270597,-26.737797385058972],[-67.28084089814026,-26.295995549757098],[-67.15997969705184,-25.633290342990843],[-66.87027703866097,-25.412389697346903],[-66.72270465914933,-24.528807078117843],[-66.4372486339523,-24.307915734342203],[-66.23894344405979,-22.982599691722882],[-65.61762247156906,-22.09907759079792],[-65.47212880112365,-20.994686491731322],[-65.69232021313503,-20.773808640876112],[-65.60752738882974,-20.11117372390468],[-66.01961295843506,-19.448550491167875],[-65.96367209923393,-19.006787259731112],[-66.34859734346598,-18.12325603094537],[-66.78903455250578,-17.68148853429052],[-67.03637558328509,-17.68148853429052],[-67.00934545775621,-17.460604424928054],[-67.67089116610968,-16.797951028244086],[-70.14083812761297,-16.797951028244086],[-70.41521176033567,-17.018835640609197],[-70.9093715175872,-17.018835640609197],[-71.43156743352783,-17.23972011660244],[-72.36379039296594,-16.797951028244086],[-72.80236143987719,-16.356181519582208],[-73.26870295883764,-16.13529668587775],[-73.76219407610036,-16.13529668587775],[-74.69480948761604,-15.693527016203072],[-75.13508983440167,-15.251757552149064],[-75.38152029981232,-15.251757552149064],[-76.26590928271288,-14.368227999575689],[-76.46426031420673,-13.926461149174948],[-76.39622405091642,-13.263811669849096],[-76.84458460422297,-12.822045783441165],[-77.46169111747989,-11.496749466316784],[-77.91566304871097,-11.054984251314746],[-78.10879932936183,-10.392336408543601],[-78.56607054799711,-9.950569215134312],[-78.53471591059059,-9.508804405203211],[-79.18337316522795,-8.183509205711164],[-79.64659502351336,-7.741743941417143],[-79.85425067937966,-7.079095920148072],[-80.78653383430172,-6.1955650846729995],[-81.50881715544683,-5.974682365416445],[-81.25392143386826,-5.7537996464125305],[-81.23355644705345,-5.312034217978134],[-81.68394724834835,-4.428503788074473],[-81.4223222926076,-3.986738234131465],[-80.66631496157585,-3.3240899617821236],[-80.17105823309996,-3.103207218186614],[-80.14629913067483,-2.219676301321902],[-79.3968967246453,-1.3361454553276657],[-79.38904550627134,-0.673497350370877],[-79.14271476111172,-0.2317319545208564],[-78.169429147445,0.6517988351562857],[-77.93310617890546,1.3144469395285279],[-77.2133698952955,1.9770950675077914],[-76.7254826367643,1.9770950675077914],[-76.71355770276126,1.3144469395285279],[-77.19584816218402,0.8726815347253231],[-77.19387527313837,0.6517988351562857],[-77.68022200046993,0.4309161368879246],[-77.92330379849507,-0.2317319545208564],[-78.41348971133914,-0.673497350370877],[-78.42487443299756,-1.5570281617248325],[-78.92650428139031,-2.219676301321902],[-78.94422542151023,-2.882324480783613],[-79.44608330541531,-3.3240899617821236],[-79.504667989002,-4.870269377366154],[-78.79095059058098,-5.312034217978134],[-77.81390824799199,-5.312034217978134],[-77.57930124933657,-5.532916929865135],[-77.62030087242277,-6.416447801978316],[-77.1423168656145,-6.63733051512852],[-77.17642212447288,-7.299978607609672],[-76.6992317233098,-7.520861282100652],[-76.47923702516934,-7.962626583355269],[-76.50505114976109,-8.40439180628096],[-75.79781052395806,-8.846156933246787],[-75.85571054720214,-9.729686828775314],[-75.39675895505871,-10.171453755382833],[-75.42924042765557,-10.613219036669356],[-75.20088096519115,-10.834101648134828],[-75.23563733936508,-11.275866854583823],[-75.02663805584542,-11.717632094888348],[-74.5735979857008,-12.159397436046214],[-74.08258809705617,-12.159397436046214],[-73.79966777553867,-11.717632094888348],[-73.55427371947731,-11.717632094888348],[-71.95113589040282,-13.04292868891412],[-71.45965187483014,-13.04292868891412],[-70.56025078890629,-13.926461149174948],[-69.62018471955493,-14.368227999575689],[-69.12790882598767,-14.368227999575689],[-68.90421333740386,-14.589111609156141],[-68.16558671527415,-14.589111609156141],[-67.94199249332321,-14.80999535282344],[-67.44942997214615,-14.80999535282344],[-67.0028844758502,-15.251757552149064],[-66.51002354502889,-15.251757552149064],[-66.31090654474971,-15.693527016203072],[-65.5711504027321,-15.693527016203072],[-64.65705463800215,-16.356181519582208],[-63.66974472262335,-16.356181519582208],[-63.15213505495181,-16.13529668587775],[-61.53867971802123,-14.80999535282344],[-61.49763247569521,-14.368227999575689],[-60.96623531029308,-13.926461149174948],[-60.94727647221167,-13.7055778916046],[-60.28690274589052,-14.589111609156141],[-60.32805946066716,-15.030872975470173],[-60.10283144435196,-15.251757552149064],[-60.168553693562735,-15.914411840985942],[-59.22685010341878,-16.356181519582208],[-59.27307149699848,-16.797951028244086],[-58.84999303682089,-17.460604424928054],[-58.89846940645722,-17.902372413394595],[-58.304339081944654,-19.22766910010622],[-57.83335847880337,-19.448550491167875],[-57.88355034018047,-19.89031180018599],[-57.238888217879136,-20.773808640876112],[-57.264192764491156,-20.994686491731322],[-56.817478015562656,-21.436442212012516],[-56.319643587095925,-21.436442212012516],[-55.84709266552039,-21.657320315029125],[-55.39996078337984,-22.09907759079792],[-52.40942565512933,-22.09907759079792],[-52.13592471650064,-21.878198735691498],[-50.14302642171867,-21.878198735691498],[-48.51496415219423,-20.5529306404842],[-48.471508445578486,-20.11117372390468],[-48.20162028088215,-19.89031180018599],[-48.1373381347861,-19.22766910010622],[-47.88936250192858,-19.22766910010622],[-47.35153429713505,-18.785905001334594],[-47.26927082380154,-17.902372413394595],[-46.73459095725026,-17.460604424928054],[-46.35532264001452,-15.914411840985942],[-46.090905329601554,-15.693527016203072],[-45.96021110015447,-13.926461149174948],[-45.45345098747078,-13.7055778916046],[-45.217526372192275,-9.287921946621854],[-44.96356319486531,-9.067039455235093],[-44.92129756620556,-7.962626583355269],[-44.66885271884451,-7.741743941417143],[-44.6394710473201,-6.85821322191973],[-44.1436975482068,-6.63733051512852],[-44.1241429482237,-5.974682365416445],[-43.86758157525748,-5.532916929865135],[-42.401854632906215,-5.532916929865135],[-42.15186274349375,-5.312034217978134],[-37.99943278749053,-5.312034217978134],[-36.06617729926543,-6.1955650846729995],[-36.12805497922888,-8.40439180628096],[-36.38715481054184,-8.846156933246787],[-37.913991031319874,-10.392336408543601],[-37.932476866005615,-10.834101648134828],[-38.43252450803662,-11.054984251314746],[-38.45255772299702,-11.496749466316784],[-39.74678575545913,-12.822045783441165],[-40.0298924207584,-13.484694734620957],[-40.80797986638132,-14.147344515706976],[-40.99546398187413,-16.797951028244086],[-41.78952888395612,-17.460604424928054],[-41.881358816906044,-18.56502235620927],[-42.74001870897028,-19.89031180018599],[-43.27592052633184,-20.332052373759545],[-43.33557403566025,-20.994686491731322],[-44.57920070787729,-20.994686491731322],[-45.097433802139776,-21.215564309845096],[-46.20129914803321,-22.319956997148953],[-46.45061046967824,-22.319956997148953],[-46.994962536352865,-22.76171793080234],[-47.01828053283269,-22.982599691722882],[-47.565595803891796,-23.424366385831952],[-47.66648018165351,-24.307915734342203],[-47.442425185279546,-24.528807078117843],[-48.30506680285164,-25.412389697346903],[-48.55437572249732,-27.179593841780495],[-48.335930886655404,-27.400488963142735],[-48.404672398086,-27.84227081216111],[-48.69246688474086,-28.063156668095832],[-48.76492067738854,-28.504916064021508],[-49.30811979158279,-28.725788732734095],[-49.63807126316177,-29.167517834164734],[-49.757817486883106,-29.830064367112975],[-50.43501740006867,-30.71334604320116],[-51.03326912707484,-31.154972006410986],[-51.12459344714306,-31.596600864383852],[-51.379991615393735,-31.596600864383852],[-51.985611656653155,-32.03824561725171],[-52.74635011841003,-33.14251240555194],[-53.36449310000244,-33.584315268744476],[-54.09642521266999,-34.46815759489844],[-54.9272967674675,-34.68917700772313],[-55.12903599647848,-34.46815759489844],[-55.645341388382725,-34.46815759489844],[-55.96081959681702,-34.68917700772313],[-56.161646780286965,-34.46815759489844],[-56.6779521721912,-34.46815759489844],[-56.99434242616651,-34.68917700772313],[-57.29411946528079,-35.79473975599144],[-56.440137842265585,-36.45849713768887],[-56.50284177772748,-36.679835122030966],[-57.217660730050724,-37.34413810547259],[-57.35044170752121,-37.78727091749896],[-58.01100032832841,-38.23063690293097],[-58.535722570499075,-38.23063690293097],[-58.86855557465103,-38.45241321796687],[-59.656457062014965,-38.45241321796687],[-59.99150019430539,-38.67425489805867],[-61.56895877408921,-38.67425489805867],[-61.90709809042419,-38.89616431438871],[-62.378255730128245,-40.229156970076836],[-62.27762844937849,-40.6741400528316],[-62.89294903771121,-40.89676255317643],[-63.69053327663984,-40.89676255317643],[-63.87092823015122,-40.6741400528316],[-64.40202815707546,-40.6741400528316],[-64.75397892854467,-40.89676255317643],[-65.0189311707322,-41.5651775034051],[-64.66523631665453,-42.0112635133885],[-63.59535702820805,-42.0112635133885],[-63.41751695360454,-42.234455325192485],[-63.50798488659921,-42.45774902540941],[-64.31239236627695,-42.45774902540941],[-64.67316600502087,-42.681146638016614],[-65.54109280996146,-44.69673983379947],[-66.08436527685235,-44.69673983379947],[-67.10326057022002,-45.14598158856686],[-67.51919364734077,-46.04602565886019],[-67.18250861401899,-46.496897032383394],[-66.90789306542847,-46.496897032383394],[-66.57082383765834,-46.94837274721647],[-65.46926907521527,-46.94837274721647],[-66.00883054017679,-48.07989760120371],[-66.28621453874727,-48.07989760120371],[-67.06693984191745,-48.53371985845169],[-67.65439221555634,-49.67157332823106],[-67.93475121289238,-49.67157332823106],[-68.74318345365096,-50.12811552848625],[-68.99717495603247,-50.585508137866725],[-68.52127702420016,-51.73289905506188],[-68.0863084378062,-51.96307837643206],[-68.06391049953078,-52.886265409613664],[-67.62931852163454,-53.11770002839446],[-67.18931893751704,-53.81360158419191],[-66.75361981305522,-54.04611558204921],[-66.17405412928181,-54.04611558204921],[-65.58900594187114,-54.51198991371785],[-66.17078912611905,-54.51198991371785],[-66.7549625334148,-54.979022339243606],[-66.75257231036694,-54.51198991371785]]],[[[-71.09610525552796,7.9409280745689355],[-71.3407369095647,7.9409280745689355],[-72.28471086178898,7.27828009405847],[-72.25261859356489,6.615631998760939],[-72.7212356179148,6.173866567510328],[-72.69264043170288,5.5112184131335695],[-74.10610614761494,4.185922484069418],[-74.09065293278296,3.74415694803721],[-74.80182745247468,3.0815086989234928],[-74.79547949593214,2.860625962105039],[-75.03348838876965,2.6397432309950184],[-75.5214663004425,2.6397432309950184],[-75.7715049733198,2.860625962105039],[-75.53390201488496,3.0815086989234928],[-75.55517043211037,3.74415694803721],[-74.6109809085316,4.6276880535139915],[-74.63761617487066,5.290335701823268],[-74.40263626800822,5.5112184131335695],[-74.44203898093191,6.394749285104943],[-73.74071811832,7.057397405441581],[-72.78506839904033,7.4991627699212415],[-72.09905688130678,8.382693301753692],[-71.14558596224116,8.824458433844576],[-70.45130718207966,9.487105915112316],[-69.96149459698475,9.487105915112316],[-69.93462211550367,9.04534095872016],[-71.09610525552796,7.9409280745689355]]]]}}
