{"type":"Feature","properties":{"id":"andenkondor","sourceUrl":"https://commons.wikimedia.org/wiki/File:AndeanMap.png","license":"Public domain","author":"Hey jude, don't let me down","sourceImageSha256":"3ba8a6ea6b50271006c29ae60d71ae163f0d3211e8083303fe2201bd9b3a7cdc","registration":{"proj_string":"+proj=robin +R=1 +lon_0=10","parameters_1000px":[852.1581492334828,-816.3229531827341,1556.2147440778351,475.3658069022039],"coast_rmse_capped15_px":2.3495497703552246,"coast_median_px":0.6159012317657471,"coast_p90_px":2.997798204421997,"sample_count":1464,"image_width":330,"image_height":410,"pixel_transform_native":[281.21218924704937,-269.38657455030227,513.5508655456856,156.87071627772727],"transform_definition":"pixel_x=sx*projected_x+tx; pixel_y=sy*projected_y+ty","validation":"Odd coastline samples withheld from affine fit. Normalized to 1000px width.","controls":[[-81,25,147,44],[-79.5,8.9,140,117],[-34.8,-7.1,326,182],[-81.3,-4.7,138,171],[-67,-55.95,240,402]],"all_fits":[{"proj_string":"+proj=robin +R=1 +lon_0=20","parameters_1000px":[850.5746844106715,-818.0310004632563,1676.2172052321669,475.4416969067947],"coast_rmse_capped15_px":3.0509040355682373,"coast_median_px":1.0590403079986572,"coast_p90_px":4.342294692993164,"sample_count":1464},{"proj_string":"+proj=robin +R=1 +lon_0=0","parameters_1000px":[853.0538912894212,-814.4667494871348,1434.7984302339635,475.1720673349219],"coast_rmse_capped15_px":4.016270160675049,"coast_median_px":1.4201481342315674,"coast_p90_px":5.656184673309326,"sample_count":1458},{"proj_string":"+proj=robin +R=1 +lon_0=-10","parameters_1000px":[853.0795426575519,-815.2312424327835,1311.988534197795,475.58274482795804],"coast_rmse_capped15_px":5.700371265411377,"coast_median_px":2.130434989929199,"coast_p90_px":10.82333755493164,"sample_count":1449}],"status":"reviewed","coastlineReference":"Natural Earth 1:110m (world-registration-110m.geojson)"},"includedColors":["#fcd752"],"adaptation":"Inverse global map projection; current seasonal/subspecies colors combined; explicitly reviewed legends/arrows omitted; 3px border closing; contours simplified by 0.45 source pixels; components below 4 source pixels omitted; split at the antimeridian.","licenseUrl":"https://commons.wikimedia.org/wiki/Commons:Public_domain","originalFileSha256":"3ba8a6ea6b50271006c29ae60d71ae163f0d3211e8083303fe2201bd9b3a7cdc","sourceImagePath":"data/ranges/reference-originals/andenkondor.png"},"geometry":{"type":"MultiPolygon","coordinates":[[[[-68.25066137471403,-53.49220408676036],[-67.97487391359552,-53.95778151985201],[-67.68982683923133,-53.95778151985201],[-67.4145719810898,-54.424479899219094],[-67.12843513275648,-54.424479899219094],[-66.85350509160831,-54.89233479809363],[-65.56526253543561,-55.126687380241016],[-67.86775770728373,-55.126687380241016],[-68.31011074718059,-55.361362154317625],[-69.17525375370145,-55.361362154317625],[-69.72598711235833,-54.89233479809363],[-70.58773171858333,-54.89233479809363],[-70.97908064395538,-54.190988385882875],[-70.82534465723764,-53.95778151985201],[-69.65996564100382,-53.02771277595359],[-69.0941001055766,-53.02771277595359],[-68.25066137471403,-53.49220408676036]]],[[[-79.21653297884573,-1.7996232577836277],[-79.22644878120008,-2.24237404135961],[-79.4722421332275,-2.463749439667758],[-79.52271886095238,-4.013377390949389],[-79.29095832748096,-4.234752841189351],[-79.30885968801181,-4.6775037675778295],[-78.84690984441256,-5.120254043135849],[-78.88725264793995,-6.005755603364947],[-78.6573991162906,-6.227130998824736],[-78.67954177560028,-6.669881780696725],[-78.23343439178296,-7.33400789760589],[-78.25833898159112,-7.7767585790618075],[-77.40687690589547,-9.547760415118013],[-76.52335665924359,-10.65463845866372],[-76.33521375071548,-11.318764303008763],[-75.66732431942758,-11.982890238572363],[-75.18408012151777,-11.982890238572363],[-74.98196451329514,-12.425641025370354],[-74.09848139077158,-13.311143293893377],[-73.85650679157521,-13.311143293893377],[-73.19726353915775,-13.97527086892337],[-72.71292615635413,-13.97527086892337],[-72.49373068154442,-14.196646938639642],[-72.00925838076574,-14.196646938639642],[-71.45807607849848,-13.532519054981362],[-70.48992434373562,-13.532519054981362],[-68.00661179343633,-15.303523649562802],[-67.76401685698342,-15.303523649562802],[-67.32771519585252,-15.746278512706114],[-67.08496678873898,-15.746278512706114],[-65.13096829245336,-17.73867394219668],[-64.67086938842098,-17.96005043508801],[-64.2925834225984,-18.84555338231572],[-64.51646219239504,-20.616519180916935],[-64.7896577767212,-20.837889791812138],[-64.96520660904272,-22.166115132903613],[-65.24091854668904,-22.387487399788498],[-65.33434705298016,-23.051608912228847],[-65.61221698598315,-23.272984712291382],[-66.00434414889332,-25.70821806783274],[-66.29140383727908,-25.929612452630586],[-67.47638548187366,-31.242182735838774],[-67.3435856528119,-31.68479877101789],[-66.77035881640478,-32.34876174167162],[-65.5099723341853,-32.34876174167162],[-65.1892106594079,-33.01281070450193],[-66.13880579110025,-33.67698991585261],[-66.33646277442536,-34.3413437188833],[-67.44461094510787,-35.44913290900947],[-68.03594150461888,-37.223461449460906],[-67.85615352089053,-37.44546451925714],[-68.85753650534346,-40.11444493472193],[-69.2087305665635,-40.33734604355423],[-70.79347210771387,-43.916732110198666],[-70.10165658257675,-45.266343800175754],[-69.24402079252836,-45.71724003930949],[-68.16788719304671,-45.71724003930949],[-67.73651091992105,-45.94289541701121],[-67.68214390259047,-46.39463851392828],[-67.03621970166981,-47.299955299562065],[-66.60319027305187,-47.5266872330826],[-66.82709332557748,-47.98066041365212],[-66.78191570664848,-48.43533786491041],[-69.39247681895081,-50.72037761375259],[-69.65961942529431,-51.179936686279476],[-69.65321370360861,-51.640417891117075],[-69.37029274653304,-52.10185277431967],[-70.07391572273,-52.33293786611796],[-71.3575622472855,-53.02771277595359],[-71.90874893425894,-52.56427347958315],[-72.47256586717651,-52.56427347958315],[-73.18642746114068,-52.795863730604445],[-73.02207347533104,-52.10185277431967],[-73.29225298806534,-51.640417891117075],[-73.98724970475755,-51.410060064221604],[-73.84099994520965,-50.72037761375259],[-74.26053554560674,-50.03270039516308],[-74.268473920454,-49.575314751380425],[-73.89766565983396,-48.43533786491041],[-73.94923814743426,-47.5266872330826],[-74.40250728332803,-46.846982090272526],[-75.09523296264685,-46.62073342896754],[-74.97621996593206,-46.39463851392828],[-73.66338012893921,-45.94289541701121],[-73.3212750460303,-45.266343800175754],[-72.94079604475726,-45.04109587176048],[-72.71848825311623,-44.590971225049486],[-73.23748729188898,-43.46783225201572],[-72.70858149009707,-42.34753573116289],[-73.8394236434242,-40.78340636037901],[-73.64471995901977,-40.33734604355423],[-73.80973914042494,-40.11444493472193],[-73.1704924282833,-38.55635092619661],[-73.51376562814558,-38.111812690367834],[-72.93488633696532,-36.55775827346005],[-72.59965676385842,-36.335951421964985],[-71.5065516055951,-33.01281070450193],[-71.69201550031373,-32.791448765167765],[-71.43070253680098,-31.906112935742673],[-71.61878401313805,-31.68479877101789],[-71.31266305261168,-30.57826488024076],[-71.50420626871865,-30.356954037723284],[-71.11422849740119,-28.807602597831853],[-71.31078303771294,-28.58623917385155],[-70.87351360400801,-26.593795362128226],[-70.58137828319303,-26.372401538778664],[-70.37070695835114,-25.26543180976671],[-70.746590844975,-24.60126835262058],[-70.63515368588645,-23.93711964672304],[-70.35321914624998,-23.715739961922182],[-70.21569338533061,-22.830234171857335],[-69.93698551179158,-22.608860373575872],[-69.80864308798712,-21.72337224949312],[-70.02243157365909,-21.50200139780062],[-69.86901122114412,-20.39514833627423],[-70.0832796407356,-20.173777140303738],[-69.99280227246183,-19.50967653508779],[-70.1769907877627,-19.06692820552012],[-70.81933629275672,-18.40280257657735],[-70.78979275789098,-18.18142665704967],[-71.6472905517748,-17.295920269644125],[-71.89061369272096,-17.295920269644125],[-73.20801256238494,-16.189033552358335],[-75.50073214763101,-15.082146362947125],[-75.47492235817361,-14.860775899943885],[-75.90945460877282,-14.41802312809432],[-76.29883475231271,-13.532519054981362],[-76.25414830598683,-13.089767618819305],[-76.45313918826393,-12.647016492988785],[-77.33903634177598,-11.761514902530953],[-77.30106473383591,-11.318764303008763],[-78.77986306649261,-8.440884462147356],[-78.7528928683726,-7.998133894188751],[-80.28942157626662,-5.120254043135849],[-80.27033084009051,-4.6775037675778295],[-80.02080681984626,-4.456128299917588],[-79.9870283054012,-3.5706265141593523],[-80.2196183839048,-3.3492510867218135],[-80.19884865023653,-2.6851248429143206],[-80.43288670993165,-2.463749439667758],[-80.42192024400086,-2.0209986475461434],[-78.9578016260426,-0.24999560559917916],[-78.71840923659823,0.41413051466019296],[-77.76402685554994,1.0782566423904234],[-77.2989640146085,1.9637581783595333],[-76.82901203282157,2.4065089681864578],[-76.83480142813943,2.627884370113573],[-76.36714978737253,3.0706351902137703],[-76.37405237635717,3.292010609274316],[-76.13382474612946,3.292010609274316],[-76.58349908780124,2.1851335710830218],[-77.05434202581621,1.7423827895722612],[-77.2838527669205,1.0782566423904234],[-77.99819653376288,0.41413051466019296],[-79.21653297884573,-1.7996232577836277]]],[[[-75.42780598892854,3.7347614676349634],[-76.13382474612946,3.292010609274316],[-75.66807486257568,3.7347614676349634],[-75.42780598892854,3.7347614676349634]]],[[[-72.43139304458529,6.834016696636075],[-71.69895980637698,6.612641312712594],[-72.14035840537754,5.727139737805724],[-72.62134303572911,5.727139737805724],[-72.6613954011157,6.612641312712594],[-72.43139304458529,6.834016696636075]]],[[[-73.34991818627144,10.154647377320824],[-73.38201220258196,10.59739801471428],[-72.6420092265792,10.376022708901607],[-72.61094930612762,9.933270184424726],[-72.83709489721431,9.71189511941882],[-73.34991818627144,10.154647377320824]]]]}}
