{"type":"Feature","properties":{"id":"falklandkarakara","sourceUrl":"https://commons.wikimedia.org/wiki/File:Phalcoboenus_australis_map.svg","license":"CC BY-SA 4.0","author":"Cephas","sourceImageSha256":"70f28216fede408469bcde91cfce61fc663fd0209e51902eb91fb30433d704e3","registration":{"proj_string":"+proj=eqc +R=1 +lon_0=0","parameters_1000px":[2376.477638689522,-2631.233153629356,3172.5555108003155,-900.8734970278568],"coast_rmse_capped15_px":3.1752002239227295,"coast_median_px":1.036727786064148,"coast_p90_px":4.501243591308594,"sample_count":142,"image_width":1418,"image_height":2412,"pixel_transform_native":[3369.845291661742,-3731.088611846427,4498.683714314847,-1277.438618785501],"transform_definition":"pixel_x=sx*projected_x+tx; pixel_y=sy*projected_y+ty","validation":"Odd coastline samples withheld from affine fit. Normalized to 1000px width.","controls":[[-57.7,-51.68,1102,2074],[-67.29,-55.98,553,2341],[-65.1,-54.65,669,2287],[-68.4,-52,464,2107],[-64.3,-42.5,723,1495]],"review_bounds":[-80,-57,-55,-49],"all_fits":[],"status":"reviewed","coastlineReference":"Natural Earth 1:110m (world-registration-110m.geojson)"},"includedColors":["#008000"],"adaptation":"Inverse global map projection; current seasonal/subspecies colors combined; explicitly reviewed legends/arrows omitted; 3px border closing; contours simplified by 0.45 source pixels; components below 4 source pixels omitted; split at the antimeridian.","licenseUrl":"https://creativecommons.org/licenses/by-sa/4.0","originalFileSha256":"f788567da8ec43bb8a282b944ce2e70f26b91652fc2d8055df329cae9c8999b7","sourceImagePath":"data/ranges/reference-originals/falklandkarakara-authoring.png"},"geometry":{"type":"MultiPolygon","coordinates":[[[[-69.1777766714319,-55.565890508549955],[-69.16077417590047,-55.565890508549955],[-69.14377168036904,-55.59660314256843],[-69.16077417590047,-55.59660314256843],[-69.1777766714319,-55.565890508549955]]],[[[-66.8654372791577,-55.366258387429816],[-66.88243977468913,-55.381614704439066],[-67.00145724340912,-55.381614704439066],[-67.00145724340912,-55.366258387429816],[-66.9334472612834,-55.33554575341134],[-66.84843478362627,-55.33554575341134],[-66.83143228809483,-55.35090207042058],[-66.83143228809483,-55.366258387429816],[-66.8654372791577,-55.366258387429816]]],[[[-68.58268932783193,-55.50446524051299],[-68.59969182336337,-55.51982155752223],[-68.59969182336337,-55.55053419154071],[-68.6847043010205,-55.55053419154071],[-68.71870929208335,-55.51982155752223],[-68.7527142831462,-55.51982155752223],[-68.76971677867763,-55.53517787453147],[-68.76971677867763,-55.59660314256843],[-68.82072426527192,-55.59660314256843],[-68.87173175186619,-55.55053419154071],[-68.90573674292905,-55.53517787453147],[-68.90573674292905,-55.51982155752223],[-68.87173175186619,-55.50446524051299],[-68.7527142831462,-55.50446524051299],[-68.73571178761478,-55.48910892350375],[-68.73571178761478,-55.44303997247602],[-68.7527142831462,-55.42768365546679],[-68.80372176974049,-55.42768365546679],[-68.82072426527192,-55.44303997247602],[-68.85472925633476,-55.44303997247602],[-68.83772676080335,-55.42768365546679],[-68.83772676080335,-55.381614704439066],[-68.80372176974049,-55.366258387429816],[-68.80372176974049,-55.30483311939286],[-68.82072426527192,-55.28947680238362],[-68.85472925633476,-55.28947680238362],[-68.87173175186619,-55.30483311939286],[-68.9227392384605,-55.30483311939286],[-68.95674422952334,-55.35090207042058],[-68.9907492205862,-55.35090207042058],[-69.05875920271191,-55.28947680238362],[-69.09276419377477,-55.28947680238362],[-69.10976668930618,-55.320189436402096],[-69.16077417590047,-55.30483311939286],[-69.21178166249476,-55.21269521733741],[-69.31379663568333,-55.21269521733741],[-69.33079913121476,-55.228051534346655],[-69.33079913121476,-55.25876416836513],[-69.31379663568333,-55.274120485374375],[-69.27979164462046,-55.274120485374375],[-69.26278914908903,-55.30483311939286],[-69.34780162674618,-55.320189436402096],[-69.3648041222776,-55.33554575341134],[-69.38180661780903,-55.320189436402096],[-69.43281410440332,-55.320189436402096],[-69.44981659993475,-55.33554575341134],[-69.44981659993475,-55.366258387429816],[-69.4158116088719,-55.3969710214483],[-69.3648041222776,-55.3969710214483],[-69.2967941401519,-55.44303997247602],[-69.2967941401519,-55.45839628948527],[-69.26278914908903,-55.48910892350375],[-69.24578665355762,-55.48910892350375],[-69.26278914908903,-55.50446524051299],[-69.26278914908903,-55.53517787453147],[-69.21178166249476,-55.565890508549955],[-69.24578665355762,-55.565890508549955],[-69.27979164462046,-55.58124682555919],[-69.2967941401519,-55.565890508549955],[-69.2967941401519,-55.50446524051299],[-69.31379663568333,-55.48910892350375],[-69.34780162674618,-55.48910892350375],[-69.38180661780903,-55.51982155752223],[-69.39880911334046,-55.50446524051299],[-69.44981659993475,-55.50446524051299],[-69.4158116088719,-55.47375260649451],[-69.4158116088719,-55.44303997247602],[-69.43281410440332,-55.42768365546679],[-69.48382159099761,-55.42768365546679],[-69.51782658206045,-55.44303997247602],[-69.51782658206045,-55.366258387429816],[-69.5348290775919,-55.35090207042058],[-69.5348290775919,-55.320189436402096],[-69.51782658206045,-55.30483311939286],[-69.48382159099761,-55.30483311939286],[-69.46681909546618,-55.28947680238362],[-69.46681909546618,-55.25876416836513],[-69.48382159099761,-55.2434078513559],[-69.48382159099761,-55.16662626630969],[-69.50082408652904,-55.13591363229121],[-69.43281410440332,-55.13591363229121],[-69.4158116088719,-55.15126994930044],[-69.31379663568333,-55.15126994930044],[-69.27979164462046,-55.089844681263486],[-69.22878415802619,-55.089844681263486],[-69.1777766714319,-55.12055731528197],[-69.14377168036904,-55.12055731528197],[-69.12676918483761,-55.089844681263486],[-69.05875920271191,-55.089844681263486],[-69.04175670718047,-55.10520099827272],[-69.02475421164904,-55.10520099827272],[-69.04175670718047,-55.12055731528197],[-69.04175670718047,-55.15126994930044],[-69.02475421164904,-55.16662626630969],[-68.97374672505477,-55.16662626630969],[-68.97374672505477,-55.18198258331893],[-68.93974173399191,-55.21269521733741],[-68.87173175186619,-55.2434078513559],[-68.82072426527192,-55.2434078513559],[-68.78671927420905,-55.25876416836513],[-68.76971677867763,-55.28947680238362],[-68.6847043010205,-55.28947680238362],[-68.66770180548906,-55.274120485374375],[-68.65069930995763,-55.28947680238362],[-68.54868433676906,-55.28947680238362],[-68.53168184123763,-55.30483311939286],[-68.49767685017478,-55.30483311939286],[-68.48067435464336,-55.28947680238362],[-68.36165688592337,-55.28947680238362],[-68.32765189486051,-55.30483311939286],[-68.32765189486051,-55.320189436402096],[-68.29364690379764,-55.35090207042058],[-68.25964191273479,-55.35090207042058],[-68.24263941720336,-55.366258387429816],[-68.27664440826624,-55.366258387429816],[-68.29364690379764,-55.381614704439066],[-68.4466693635805,-55.381614704439066],[-68.46367185911193,-55.3969710214483],[-68.46367185911193,-55.412327338457544],[-68.46367185911193,-55.42768365546679],[-68.4466693635805,-55.44303997247602],[-68.39566187698621,-55.44303997247602],[-68.37865938145478,-55.45839628948527],[-68.31064939932908,-55.45839628948527],[-68.32765189486051,-55.47375260649451],[-68.36165688592337,-55.47375260649451],[-68.46367185911193,-55.51982155752223],[-68.49767685017478,-55.55053419154071],[-68.49767685017478,-55.51982155752223],[-68.51467934570621,-55.50446524051299],[-68.58268932783193,-55.50446524051299]]],[[[-66.559392359592,-55.30483311939286],[-66.52538736852914,-55.30483311939286],[-66.4913823774663,-55.274120485374375],[-66.40636989980915,-55.28947680238362],[-66.440374890872,-55.30483311939286],[-66.50838487299771,-55.30483311939286],[-66.52538736852914,-55.320189436402096],[-66.57639485512344,-55.320189436402096],[-66.559392359592,-55.30483311939286]]],[[[-67.18848469425483,-55.043775730235765],[-67.15447970319197,-55.059132047245],[-67.03546223447198,-55.18198258331893],[-67.03546223447198,-55.228051534346655],[-67.05246473000341,-55.25876416836513],[-67.1714821987234,-55.366258387429816],[-67.23949218084911,-55.3969710214483],[-67.25649467638054,-55.381614704439066],[-67.34150715403769,-55.381614704439066],[-67.35850964956911,-55.366258387429816],[-67.39251464063197,-55.366258387429816],[-67.37551214510054,-55.33554575341134],[-67.37551214510054,-55.28947680238362],[-67.44352212722625,-55.2434078513559],[-67.52853460488339,-55.2434078513559],[-67.56253959594623,-55.25876416836513],[-67.61354708254053,-55.30483311939286],[-67.61354708254053,-55.33554575341134],[-67.63054957807196,-55.35090207042058],[-67.69855956019767,-55.30483311939286],[-67.76656954232338,-55.30483311939286],[-67.80057453338624,-55.28947680238362],[-67.8345795244491,-55.25876416836513],[-67.9025895065748,-55.25876416836513],[-67.9535969931691,-55.30483311939286],[-68.0216069752948,-55.30483311939286],[-68.03860947082623,-55.320189436402096],[-68.05561196635765,-55.30483311939286],[-68.08961695742052,-55.30483311939286],[-68.08961695742052,-55.2434078513559],[-68.12362194848336,-55.21269521733741],[-68.10661945295195,-55.10520099827272],[-68.14062444401479,-55.043775730235765],[-68.17462943507765,-55.043775730235765],[-68.1916319306091,-55.059132047245],[-68.29364690379764,-55.059132047245],[-68.29364690379764,-55.02841941322652],[-68.2086344261405,-55.02841941322652],[-68.1916319306091,-55.01306309621728],[-67.74956704679195,-55.01306309621728],[-67.69855956019767,-55.043775730235765],[-67.66455456913481,-55.043775730235765],[-67.64755207360338,-55.02841941322652],[-67.5965445870091,-55.02841941322652],[-67.57954209147768,-55.01306309621728],[-67.4775271182891,-55.01306309621728],[-67.4605246227577,-55.02841941322652],[-67.2904996674434,-55.02841941322652],[-67.27349717191197,-55.043775730235765],[-67.18848469425483,-55.043775730235765]]],[[[-66.81442979256342,-55.18198258331893],[-66.84843478362627,-55.15126994930044],[-66.91644476575198,-55.12055731528197],[-67.00145724340912,-55.10520099827272],[-67.00145724340912,-55.089844681263486],[-66.9844547478777,-55.10520099827272],[-66.91644476575198,-55.10520099827272],[-66.89944227022056,-55.12055731528197],[-66.83143228809483,-55.12055731528197],[-66.79742729703199,-55.18198258331893],[-66.81442979256342,-55.18198258331893]]],[[[-68.42966686804907,-55.13591363229121],[-68.42966686804907,-55.16662626630969],[-68.48067435464336,-55.18198258331893],[-68.51467934570621,-55.15126994930044],[-68.54868433676906,-55.15126994930044],[-68.5656868323005,-55.16662626630969],[-68.5656868323005,-55.19733890032817],[-68.54868433676906,-55.21269521733741],[-68.5656868323005,-55.228051534346655],[-68.6336968144262,-55.228051534346655],[-68.65069930995763,-55.21269521733741],[-68.73571178761478,-55.21269521733741],[-68.87173175186619,-55.13591363229121],[-68.95674422952334,-55.13591363229121],[-68.97374672505477,-55.10520099827272],[-68.9907492205862,-55.10520099827272],[-68.95674422952334,-55.07448836425424],[-68.7527142831462,-55.07448836425424],[-68.70170679655192,-55.043775730235765],[-68.53168184123763,-55.043775730235765],[-68.51467934570621,-55.02841941322652],[-68.39566187698621,-55.043775730235765],[-68.36165688592337,-55.07448836425424],[-68.31064939932908,-55.07448836425424],[-68.31064939932908,-55.13591363229121],[-68.36165688592337,-55.13591363229121],[-68.37865938145478,-55.12055731528197],[-68.41266437251764,-55.12055731528197],[-68.42966686804907,-55.13591363229121]]],[[[-69.19477916696333,-55.01306309621728],[-69.19477916696333,-55.043775730235765],[-69.22878415802619,-55.02841941322652],[-69.21178166249476,-55.02841941322652],[-69.19477916696333,-55.01306309621728]]],[[[-69.38180661780903,-54.99770677920804],[-69.34780162674618,-55.01306309621728],[-69.31379663568333,-55.01306309621728],[-69.2967941401519,-55.02841941322652],[-69.33079913121476,-55.02841941322652],[-69.34780162674618,-55.059132047245],[-69.4158116088719,-55.059132047245],[-69.44981659993475,-55.043775730235765],[-69.38180661780903,-54.99770677920804]]],[[[-68.65069930995763,-54.78271834107867],[-68.61669431889477,-54.78271834107867],[-68.61669431889477,-54.95163782818032],[-68.6336968144262,-54.95163782818032],[-68.66770180548906,-54.92092519416183],[-68.73571178761478,-54.890212560143354],[-68.82072426527192,-54.87485624313411],[-68.83772676080335,-54.890212560143354],[-68.83772676080335,-54.92092519416183],[-68.80372176974049,-54.95163782818032],[-68.73571178761478,-54.9823504621988],[-68.78671927420905,-54.9823504621988],[-68.80372176974049,-54.99770677920804],[-68.90573674292905,-54.99770677920804],[-68.9227392384605,-55.01306309621728],[-69.09276419377477,-55.01306309621728],[-69.10976668930618,-54.99770677920804],[-69.1777766714319,-54.99770677920804],[-69.19477916696333,-55.01306309621728],[-69.19477916696333,-54.9823504621988],[-69.21178166249476,-54.96699414518956],[-69.26278914908903,-54.96699414518956],[-69.27979164462046,-54.95163782818032],[-69.31379663568333,-54.95163782818032],[-69.27979164462046,-54.936281511171074],[-69.22878415802619,-54.890212560143354],[-69.1777766714319,-54.87485624313411],[-69.14377168036904,-54.844143609115626],[-68.93974173399191,-54.752005707060185],[-68.71870929208335,-54.752005707060185],[-68.65069930995763,-54.78271834107867]]],[[[-64.5020904002892,-54.87485624313411],[-64.45108291369493,-54.87485624313411],[-64.4340804181635,-54.844143609115626],[-64.36607043603779,-54.844143609115626],[-64.34906794050636,-54.859499926124876],[-64.3150629494435,-54.859499926124876],[-64.29806045391209,-54.844143609115626],[-64.29806045391209,-54.798074658087906],[-64.28105795838064,-54.81343097509715],[-64.17904298519208,-54.81343097509715],[-64.16204048966065,-54.82878729210639],[-64.04302302094067,-54.81343097509715],[-64.02602052540922,-54.82878729210639],[-63.97501303881494,-54.82878729210639],[-63.95801054328352,-54.81343097509715],[-63.872998065626376,-54.81343097509715],[-63.85599557009495,-54.798074658087906],[-63.8219905790321,-54.82878729210639],[-63.8219905790321,-54.844143609115626],[-63.872998065626376,-54.844143609115626],[-63.90700305668923,-54.87485624313411],[-63.90700305668923,-54.844143609115626],[-63.92400555222067,-54.82878729210639],[-63.95801054328352,-54.82878729210639],[-63.97501303881494,-54.844143609115626],[-64.04302302094067,-54.844143609115626],[-64.07702801200351,-54.87485624313411],[-64.16204048966065,-54.87485624313411],[-64.17904298519208,-54.890212560143354],[-64.19604548072351,-54.890212560143354],[-64.19604548072351,-54.859499926124876],[-64.21304797625494,-54.844143609115626],[-64.28105795838064,-54.844143609115626],[-64.38307293156922,-54.9055688771526],[-64.46808540922636,-54.890212560143354],[-64.48508790475778,-54.92092519416183],[-64.51909289582063,-54.92092519416183],[-64.57010038241492,-54.96699414518956],[-64.60410537347778,-54.96699414518956],[-64.60410537347778,-54.936281511171074],[-64.62110786900921,-54.92092519416183],[-64.6721153556035,-54.9055688771526],[-64.6721153556035,-54.890212560143354],[-64.65511286007207,-54.890212560143354],[-64.62110786900921,-54.859499926124876],[-64.57010038241492,-54.890212560143354],[-64.51909289582063,-54.890212560143354],[-64.5020904002892,-54.87485624313411]]],[[[-65.2842051947349,-54.936281511171074],[-65.2842051947349,-54.96699414518956],[-65.30120769026632,-54.9823504621988],[-65.33521268132918,-54.9823504621988],[-65.36921767239204,-54.95163782818032],[-65.43722765451776,-54.95163782818032],[-65.45423015004917,-54.96699414518956],[-65.45423015004917,-54.99770677920804],[-65.57324761876917,-54.99770677920804],[-65.5902501143006,-55.02841941322652],[-65.62425510536346,-55.043775730235765],[-65.64125760089489,-55.02841941322652],[-65.64125760089489,-54.99770677920804],[-65.67526259195775,-54.96699414518956],[-65.74327257408345,-54.96699414518956],[-65.7602750696149,-54.95163782818032],[-65.86229004280344,-54.95163782818032],[-65.87929253833488,-54.96699414518956],[-65.91329752939774,-54.96699414518956],[-65.94730252046058,-55.01306309621728],[-65.98130751152344,-55.02841941322652],[-66.0153125025863,-55.02841941322652],[-66.03231499811773,-55.043775730235765],[-66.30435492662058,-55.043775730235765],[-66.37236490874629,-55.089844681263486],[-66.38936740427772,-55.12055731528197],[-66.4913823774663,-55.12055731528197],[-66.50838487299771,-55.10520099827272],[-66.57639485512344,-55.10520099827272],[-66.72941731490629,-55.01306309621728],[-66.76342230596913,-55.01306309621728],[-66.78042480150056,-54.99770677920804],[-66.89944227022056,-54.99770677920804],[-66.96745225234628,-54.96699414518956],[-67.13747720766055,-54.96699414518956],[-67.15447970319197,-54.95163782818032],[-67.34150715403769,-54.95163782818032],[-67.35850964956911,-54.936281511171074],[-67.76656954232338,-54.936281511171074],[-67.78357203785481,-54.92092519416183],[-67.9025895065748,-54.92092519416183],[-67.91959200210623,-54.9055688771526],[-68.0216069752948,-54.9055688771526],[-68.03860947082623,-54.890212560143354],[-68.14062444401479,-54.890212560143354],[-68.15762693954622,-54.87485624313411],[-68.2086344261405,-54.87485624313411],[-68.22563692167193,-54.859499926124876],[-68.27664440826624,-54.859499926124876],[-68.29364690379764,-54.87485624313411],[-68.29364690379764,-54.9055688771526],[-68.42966686804907,-54.9055688771526],[-68.46367185911193,-54.92092519416183],[-68.48067435464336,-54.9055688771526],[-68.51467934570621,-54.9055688771526],[-68.51467934570621,-54.81343097509715],[-68.37865938145478,-54.81343097509715],[-68.36165688592337,-54.82878729210639],[-67.56253959594623,-54.82878729210639],[-67.54553710041482,-54.81343097509715],[-67.32450465850624,-54.81343097509715],[-67.30750216297483,-54.798074658087906],[-67.1714821987234,-54.798074658087906],[-67.15447970319197,-54.78271834107867],[-67.00145724340912,-54.78271834107867],[-66.9844547478777,-54.76736202406943],[-66.79742729703199,-54.76736202406943],[-66.78042480150056,-54.752005707060185],[-66.64440483724914,-54.752005707060185],[-66.62740234171771,-54.73664939005094],[-66.559392359592,-54.73664939005094],[-66.54238986406057,-54.7212930730417],[-66.50838487299771,-54.7212930730417],[-66.40636989980915,-54.67522412201398],[-66.28735243108915,-54.58308621995853],[-66.18533745790057,-54.62915517098626],[-66.1343299713063,-54.62915517098626],[-66.06631998918058,-54.65986780500474],[-66.03231499811773,-54.65986780500474],[-66.0153125025863,-54.67522412201398],[-65.98130751152344,-54.67522412201398],[-65.96430501599201,-54.69058043902322],[-65.93030002492917,-54.69058043902322],[-65.91329752939774,-54.705936756032465],[-65.86229004280344,-54.705936756032465],[-65.81128255620916,-54.73664939005094],[-65.70926758302059,-54.73664939005094],[-65.69226508748916,-54.752005707060185],[-65.50523763664347,-54.752005707060185],[-65.48823514111203,-54.73664939005094],[-65.33521268132918,-54.73664939005094],[-65.31821018579775,-54.7212930730417],[-65.14818523048348,-54.7212930730417],[-65.13118273495203,-54.73664939005094],[-65.1651877260149,-54.752005707060185],[-65.18219022154634,-54.82878729210639],[-65.21619521260918,-54.859499926124876],[-65.23319770814061,-54.9055688771526],[-65.25020020367204,-54.9055688771526],[-65.2842051947349,-54.936281511171074]]],[[[-60.948568834220765,-52.00322496240606],[-60.948568834220765,-51.98786864539682],[-60.931566338689336,-52.00322496240606],[-60.948568834220765,-52.00322496240606]]],[[[-59.43534673192368,-51.91108706035062],[-59.40134174086083,-51.895730743341375],[-59.40134174086083,-51.83430547530441],[-59.38433924532939,-51.80359284128593],[-59.29932676767226,-51.80359284128593],[-59.28232427214083,-51.78823652427669],[-59.28232427214083,-51.75752389025821],[-59.23131678554654,-51.75752389025821],[-59.19731179448369,-51.72681125623973],[-59.19731179448369,-51.69609862222124],[-59.16330680342084,-51.68074230521201],[-59.112299316826544,-51.68074230521201],[-59.06129183023227,-51.65002967119352],[-59.01028434363798,-51.65002967119352],[-59.01028434363798,-51.68074230521201],[-58.99328184810655,-51.69609862222124],[-58.99328184810655,-51.75752389025821],[-58.976279352575126,-51.77288020726745],[-58.92527186598085,-51.77288020726745],[-58.92527186598085,-51.81894915829517],[-58.9082693704494,-51.83430547530441],[-58.80625439726085,-51.8650181093229],[-58.738244415135135,-51.92644337735986],[-58.60222445088371,-51.92644337735986],[-58.58522195535228,-51.9417996943691],[-58.58522195535228,-51.95715601137834],[-58.61922694641514,-51.97251232838758],[-58.61922694641514,-52.0185812794153],[-58.670234433009426,-51.97251232838758],[-58.738244415135135,-51.97251232838758],[-58.75524691066656,-51.98786864539682],[-58.80625439726085,-51.98786864539682],[-58.8402593883237,-52.03393759642454],[-58.85726188385513,-52.03393759642454],[-58.87426437938655,-52.00322496240606],[-58.89126687491798,-52.00322496240606],[-58.94227436151227,-51.95715601137834],[-59.027286839169406,-51.9417996943691],[-59.04428933470084,-51.92644337735986],[-59.112299316826544,-51.92644337735986],[-59.1463043078894,-51.9417996943691],[-59.16330680342084,-51.92644337735986],[-59.21431429001512,-51.92644337735986],[-59.24831928107797,-51.95715601137834],[-59.24831928107797,-51.98786864539682],[-59.23131678554654,-52.00322496240606],[-59.1463043078894,-52.00322496240606],[-59.12930181235797,-52.03393759642454],[-59.09529682129512,-52.049293913433786],[-59.09529682129512,-52.11071918147075],[-59.06129183023227,-52.12607549847999],[-59.06129183023227,-52.141431815489234],[-59.027286839169406,-52.17214444950771],[-59.06129183023227,-52.15678813249847],[-59.1463043078894,-52.15678813249847],[-59.19731179448369,-52.09536286446151],[-59.23131678554654,-52.080006547452264],[-59.2653217766094,-52.080006547452264],[-59.28232427214083,-52.06465023044303],[-59.33333175873511,-52.06465023044303],[-59.40134174086083,-52.09536286446151],[-59.40134174086083,-52.17214444950771],[-59.367336749797964,-52.2028570835262],[-59.316329263203684,-52.21821340053543],[-59.33333175873511,-52.24892603455392],[-59.38433924532939,-52.24892603455392],[-59.43534673192368,-52.187500766516955],[-59.48635421851796,-52.187500766516955],[-59.48635421851796,-52.15678813249847],[-59.50335671404939,-52.141431815489234],[-59.537361705112254,-52.141431815489234],[-59.537361705112254,-52.12607549847999],[-59.571366696175104,-52.09536286446151],[-59.554364200643676,-52.09536286446151],[-59.537361705112254,-52.080006547452264],[-59.537361705112254,-52.06465023044303],[-59.50335671404939,-52.03393759642454],[-59.50335671404939,-52.00322496240606],[-59.520359209580825,-51.98786864539682],[-59.50335671404939,-51.98786864539682],[-59.46935172298654,-51.9417996943691],[-59.43534673192368,-51.92644337735986],[-59.43534673192368,-51.91108706035062]]],[[[-60.897561347626485,-51.88037442633213],[-60.931566338689336,-51.895730743341375],[-60.965571329752194,-51.88037442633213],[-60.982573825283616,-51.849661792313654],[-61.03358131187791,-51.83430547530441],[-61.03358131187791,-51.78823652427669],[-60.982573825283616,-51.78823652427669],[-60.982573825283616,-51.81894915829517],[-60.965571329752194,-51.83430547530441],[-60.914563843157914,-51.83430547530441],[-60.8465538610322,-51.80359284128593],[-60.863556356563635,-51.81894915829517],[-60.863556356563635,-51.88037442633213],[-60.897561347626485,-51.88037442633213]]],[[[-60.982573825283616,-51.78823652427669],[-60.948568834220765,-51.74216757324896],[-60.931566338689336,-51.74216757324896],[-60.948568834220765,-51.77288020726745],[-60.982573825283616,-51.78823652427669]]],[[[-59.24831928107797,-51.342903331008706],[-59.24831928107797,-51.40432859904566],[-59.316329263203684,-51.40432859904566],[-59.33333175873511,-51.41968491605491],[-59.33333175873511,-51.48111018409187],[-59.35033425426654,-51.49646650110112],[-59.35033425426654,-51.527179135119596],[-59.38433924532939,-51.51182281811035],[-59.41834423639226,-51.51182281811035],[-59.45234922745511,-51.54253545212884],[-59.48635421851796,-51.54253545212884],[-59.537361705112254,-51.58860440315656],[-59.537361705112254,-51.61931703717504],[-59.571366696175104,-51.65002967119352],[-59.571366696175104,-51.665385988202765],[-59.639376678300806,-51.69609862222124],[-59.67338166936367,-51.72681125623973],[-59.6903841648951,-51.72681125623973],[-59.70738666042653,-51.75752389025821],[-59.809401633615096,-51.849661792313654],[-59.809401633615096,-51.8650181093229],[-59.84340662467795,-51.895730743341375],[-59.877411615740805,-51.895730743341375],[-59.91141660680367,-51.92644337735986],[-59.97942658892937,-51.88037442633213],[-60.030434075523665,-51.88037442633213],[-60.04743657105509,-51.895730743341375],[-60.04743657105509,-51.92644337735986],[-60.115446553180796,-51.92644337735986],[-60.13244904871223,-51.91108706035062],[-60.18345653530651,-51.91108706035062],[-60.25146651743221,-51.95715601137834],[-60.23446402190079,-52.03393759642454],[-60.28547150849508,-52.080006547452264],[-60.319476499557936,-52.09536286446151],[-60.35348149062079,-52.080006547452264],[-60.38748648168365,-52.080006547452264],[-60.404488977215074,-52.09536286446151],[-60.47249895934078,-52.049293913433786],[-60.50650395040365,-52.049293913433786],[-60.52350644593507,-52.06465023044303],[-60.52350644593507,-52.09536286446151],[-60.489501454872205,-52.12607549847999],[-60.47249895934078,-52.12607549847999],[-60.47249895934078,-52.15678813249847],[-60.5405089414665,-52.187500766516955],[-60.57451393252935,-52.187500766516955],[-60.57451393252935,-52.141431815489234],[-60.62552141912364,-52.09536286446151],[-60.62552141912364,-52.06465023044303],[-60.64252391465507,-52.049293913433786],[-60.77854387890649,-52.049293913433786],[-60.79554637443792,-52.06465023044303],[-60.81254886996934,-52.049293913433786],[-60.8465538610322,-52.049293913433786],[-60.914563843157914,-52.00322496240606],[-60.863556356563635,-52.00322496240606],[-60.82955136550077,-52.03393759642454],[-60.79554637443792,-52.03393759642454],[-60.77854387890649,-52.00322496240606],[-60.710533896780774,-52.00322496240606],[-60.67652890571792,-51.97251232838758],[-60.67652890571792,-51.9417996943691],[-60.693531401249345,-51.92644337735986],[-60.67652890571792,-51.92644337735986],[-60.64252391465507,-51.95715601137834],[-60.57451393252935,-51.95715601137834],[-60.55751143699793,-51.9417996943691],[-60.50650395040365,-51.97251232838758],[-60.47249895934078,-51.97251232838758],[-60.43849396827793,-51.9417996943691],[-60.38748648168365,-51.9417996943691],[-60.319476499557936,-51.88037442633213],[-60.319476499557936,-51.849661792313654],[-60.33647899508936,-51.83430547530441],[-60.37048398615221,-51.83430547530441],[-60.37048398615221,-51.74216757324896],[-60.30247400402651,-51.81894915829517],[-60.268469012963656,-51.81894915829517],[-60.23446402190079,-51.77288020726745],[-60.23446402190079,-51.72681125623973],[-60.20045903083794,-51.74216757324896],[-60.13244904871223,-51.74216757324896],[-60.09844405764937,-51.711454939230485],[-60.09844405764937,-51.65002967119352],[-60.030434075523665,-51.65002967119352],[-60.013431579992236,-51.63467335418428],[-60.013431579992236,-51.6039607201658],[-60.030434075523665,-51.58860440315656],[-60.08144156211794,-51.58860440315656],[-60.18345653530651,-51.527179135119596],[-60.21746152636936,-51.527179135119596],[-60.268469012963656,-51.48111018409187],[-60.35348149062079,-51.46575386708263],[-60.37048398615221,-51.45039755007339],[-60.4214914727465,-51.45039755007339],[-60.4214914727465,-51.43504123306415],[-60.33647899508936,-51.43504123306415],[-60.319476499557936,-51.41968491605491],[-60.319476499557936,-51.38897228203643],[-60.21746152636936,-51.43504123306415],[-60.115446553180796,-51.43504123306415],[-60.09844405764937,-51.45039755007339],[-60.04743657105509,-51.45039755007339],[-59.97942658892937,-51.41968491605491],[-59.94542159786652,-51.41968491605491],[-59.92841910233509,-51.40432859904566],[-59.92841910233509,-51.373615965027184],[-59.94542159786652,-51.35825964801794],[-59.91141660680367,-51.35825964801794],[-59.860409120209376,-51.327547013999464],[-59.792399138083674,-51.35825964801794],[-59.775396642552245,-51.38897228203643],[-59.537361705112254,-51.38897228203643],[-59.520359209580825,-51.40432859904566],[-59.367336749797964,-51.40432859904566],[-59.316329263203684,-51.373615965027184],[-59.316329263203684,-51.342903331008706],[-59.35033425426654,-51.327547013999464],[-59.33333175873511,-51.29683437998098],[-59.23131678554654,-51.327547013999464],[-59.24831928107797,-51.342903331008706]]],[[[-60.55751143699793,-51.63467335418428],[-60.5405089414665,-51.63467335418428],[-60.489501454872205,-51.665385988202765],[-60.38748648168365,-51.665385988202765],[-60.33647899508936,-51.63467335418428],[-60.30247400402651,-51.63467335418428],[-60.37048398615221,-51.68074230521201],[-60.43849396827793,-51.68074230521201],[-60.455496463809354,-51.69609862222124],[-60.489501454872205,-51.69609862222124],[-60.55751143699793,-51.65002967119352],[-60.55751143699793,-51.63467335418428]]],[[[-58.94227436151227,-51.46575386708263],[-58.9082693704494,-51.45039755007339],[-58.9082693704494,-51.41968491605491],[-58.92527186598085,-51.40432859904566],[-58.9592768570437,-51.40432859904566],[-59.027286839169406,-51.373615965027184],[-59.01028434363798,-51.35825964801794],[-58.99328184810655,-51.373615965027184],[-58.94227436151227,-51.373615965027184],[-58.89126687491798,-51.327547013999464],[-58.80625439726085,-51.327547013999464],[-58.78925190172942,-51.31219069699022],[-58.78925190172942,-51.25076542895326],[-58.80625439726085,-51.235409111944016],[-58.721241919603706,-51.25076542895326],[-58.670234433009426,-51.28147806297174],[-58.534214468757995,-51.28147806297174],[-58.517211973226566,-51.25076542895326],[-58.39819450450657,-51.25076542895326],[-58.38119200897514,-51.2661217459625],[-58.34718701791229,-51.2661217459625],[-58.279177035786574,-51.327547013999464],[-58.279177035786574,-51.342903331008706],[-58.31318202684944,-51.35825964801794],[-58.36418951344372,-51.35825964801794],[-58.39819450450657,-51.31219069699022],[-58.449201991100864,-51.31219069699022],[-58.483206982163715,-51.342903331008706],[-58.483206982163715,-51.373615965027184],[-58.466204486632286,-51.38897228203643],[-58.466204486632286,-51.43504123306415],[-58.449201991100864,-51.45039755007339],[-58.415197000038,-51.45039755007339],[-58.38119200897514,-51.43504123306415],[-58.38119200897514,-51.49646650110112],[-58.36418951344372,-51.51182281811035],[-58.31318202684944,-51.51182281811035],[-58.296179531318,-51.527179135119596],[-58.262174540255145,-51.527179135119596],[-58.245172044723724,-51.51182281811035],[-58.245172044723724,-51.54253545212884],[-58.194164558129444,-51.6039607201658],[-58.14315707153515,-51.6039607201658],[-58.12615457600373,-51.58860440315656],[-58.1091520804723,-51.51182281811035],[-58.12615457600373,-51.49646650110112],[-58.12615457600373,-51.46575386708263],[-58.16015956706658,-51.43504123306415],[-58.194164558129444,-51.43504123306415],[-58.21116705366087,-51.40432859904566],[-58.21116705366087,-51.373615965027184],[-58.16015956706658,-51.342903331008706],[-58.04114209834658,-51.342903331008706],[-58.024139602815154,-51.327547013999464],[-57.88811963856374,-51.327547013999464],[-57.87111714303231,-51.31219069699022],[-57.82010965643803,-51.342903331008706],[-57.82010965643803,-51.373615965027184],[-57.75209967431231,-51.43504123306415],[-57.75209967431231,-51.46575386708263],[-57.80310716090659,-51.46575386708263],[-57.82010965643803,-51.45039755007339],[-57.88811963856374,-51.45039755007339],[-57.92212462962659,-51.41968491605491],[-57.973132116220874,-51.41968491605491],[-58.07514708940945,-51.46575386708263],[-58.07514708940945,-51.51182281811035],[-58.00713710728373,-51.54253545212884],[-57.87111714303231,-51.54253545212884],[-57.85411464750088,-51.557891769138074],[-57.76910216984374,-51.557891769138074],[-57.75209967431231,-51.573248086147316],[-57.71809468324946,-51.573248086147316],[-57.75209967431231,-51.58860440315656],[-57.82010965643803,-51.58860440315656],[-57.83711215196946,-51.6039607201658],[-57.83711215196946,-51.63467335418428],[-57.80310716090659,-51.65002967119352],[-57.90512213409516,-51.65002967119352],[-57.93912712515802,-51.68074230521201],[-58.194164558129444,-51.68074230521201],[-58.21116705366087,-51.69609862222124],[-58.21116705366087,-51.72681125623973],[-58.279177035786574,-51.75752389025821],[-58.279177035786574,-51.80359284128593],[-58.31318202684944,-51.80359284128593],[-58.33018452238087,-51.81894915829517],[-58.517211973226566,-51.81894915829517],[-58.534214468757995,-51.83430547530441],[-58.55121696428943,-51.81894915829517],[-58.70423942407228,-51.81894915829517],[-58.738244415135135,-51.78823652427669],[-58.82325689279227,-51.77288020726745],[-58.85726188385513,-51.72681125623973],[-58.89126687491798,-51.72681125623973],[-58.9082693704494,-51.711454939230485],[-58.9082693704494,-51.665385988202765],[-58.94227436151227,-51.63467335418428],[-58.92527186598085,-51.61931703717504],[-58.92527186598085,-51.573248086147316],[-58.94227436151227,-51.557891769138074],[-58.99328184810655,-51.557891769138074],[-59.07829432576369,-51.51182281811035],[-59.04428933470084,-51.48111018409187],[-58.99328184810655,-51.54253545212884],[-58.9592768570437,-51.54253545212884],[-58.92527186598085,-51.51182281811035],[-58.92527186598085,-51.48111018409187],[-58.94227436151227,-51.46575386708263]]],[[[-60.38748648168365,-51.342903331008706],[-60.319476499557936,-51.38897228203643],[-60.4214914727465,-51.342903331008706],[-60.38748648168365,-51.342903331008706]]],[[[-59.94542159786652,-51.35825964801794],[-59.97942658892937,-51.35825964801794],[-59.96242409339794,-51.342903331008706],[-59.94542159786652,-51.35825964801794]]],[[[-60.489501454872205,-51.327547013999464],[-60.43849396827793,-51.327547013999464],[-60.4214914727465,-51.342903331008706],[-60.50650395040365,-51.342903331008706],[-60.5405089414665,-51.327547013999464],[-60.5405089414665,-51.29683437998098],[-60.489501454872205,-51.327547013999464]]],[[[-59.41834423639226,-51.235409111944016],[-59.46935172298654,-51.235409111944016],[-59.45234922745511,-51.20469647792554],[-59.41834423639226,-51.22005279493477],[-59.41834423639226,-51.235409111944016]]]]}}
