{"type":"Feature","properties":{"id":"gaensegeier","sourceUrl":"https://commons.wikimedia.org/wiki/File:Gyps_fulvus_distribution_map.png","author":"The Engineer; revisions by Wikimedia Commons contributors","license":"CC BY-SA 3.0","licenseUrl":"https://creativecommons.org/licenses/by-sa/3.0/","sourceImageSha256":"87e208162dbc0c6ab88ffb9efdae7d44c1cc71885253595fb7e71a80e3912586","registration":{"proj_string":"+proj=robin +R=1 +lon_0=10","parameters_1000px":[485.3110410139552,-467.436663743422,220.49191825282958,625.3713953081199],"coast_rmse_capped15_px":3.667585611343384,"coast_median_px":0.5794557332992554,"coast_p90_px":5.008862495422363,"sample_count":6558,"image_width":579,"image_height":403,"pixel_transform_native":[280.9950927470801,-270.6458283074413,127.66482066838833,362.0900378834014],"transform_definition":"pixel_x=sx*projected_x+tx; pixel_y=sy*projected_y+ty","validation":"Odd coastline samples withheld from affine fit. Normalized to 1000px width.","controls":[[-5.6,36,78,194],[10.6,57.7,161,85],[77.55,8.08,438,379],[51.3,12,310,321],[-17.5,14.7,19,293]],"review_bounds":[-20,-10,110,70],"excluded_pixel_rectangles":[[63,202,73,219]]},"includedColors":["#008000"],"adaptation":"Inverse map projection; present seasonal range colors combined; 3px border closing; contours simplified by 0.45 source pixels; components below 4 source pixels omitted; split at the antimeridian."},"geometry":{"type":"MultiPolygon","coordinates":[[[[35.59026882511167,32.63024451134736],[35.23828564859172,31.52877265265355],[34.73520615410698,31.52877265265355],[34.77349531051426,31.969339726903836],[35.04511821457781,32.189632484327674],[35.126220038551786,33.070902657676854],[35.400223031802945,33.29125306740782],[35.46476628990848,33.95240906905081],[35.74074659214281,34.17283473067674],[35.78578535046714,34.613756287659],[36.04024570195164,34.613756287659],[36.2716285312947,34.39328326163683],[36.15968416600357,33.29125306740782],[36.36927986938839,32.85056701146844],[35.86380740960418,32.85056701146844],[35.59026882511167,32.63024451134736]]],[[[24.615514063620907,35.05480263139978],[24.373549668964642,35.27536071784224],[23.863262852112385,35.27536071784224],[23.3651225223041,35.49595062488729],[25.408126512047765,35.49595062488729],[25.649266711095287,35.27536071784224],[26.159553527947548,35.27536071784224],[25.89008181015996,35.05480263139978],[24.615514063620907,35.05480263139978]]],[[[2.645422744548264,36.599457391794225],[2.895167680029484,36.82028623061612],[3.922440895371736,36.82028623061612],[4.184851999773793,36.599457391794225],[7.776853595300029,36.599457391794225],[7.781062809459309,36.157934085908785],[8.038981587045209,35.937235023683286],[7.787217100508659,35.49595062488729],[6.771565612074223,35.05480263139978],[3.9675165696883146,35.05480263139978],[2.935082624867456,35.49595062488729],[0.8920786351237915,35.49595062488729],[1.1311230159832277,35.937235023683286],[1.3869696297262628,35.937235023683286],[1.8834393991345149,36.378674110164965],[1.875708116935499,36.599457391794225],[2.645422744548264,36.599457391794225]]],[[[22.250496204374866,38.51365389946907],[22.216897325391955,37.925194620529844],[21.958803926404173,37.925194620529844],[22.242010944266845,38.367557942073745],[22.250496204374866,38.51365389946907]]],[[[22.254864539887418,38.58886622658754],[22.250496204374866,38.51365389946907],[22.254788751097188,38.58883465030049],[22.254864539887418,38.58886622658754]]],[[[8.777402914749963,41.02775672577918],[9.039491679176665,41.02775672577918],[9.30240148536022,40.805623152792904],[9.307129447907458,39.47463007962779],[8.788437638087968,39.253073201686114],[8.257309276803575,40.58357826565617],[8.777402914749963,41.02775672577918]]],[[[0.09290277976524308,41.69470915875196],[-0.1578315955688705,41.47229776102246],[-0.1217022920322961,40.805623152792904],[-0.37139909013717975,40.58357826565617],[-0.6328751012565963,40.58357826565617],[-1.4576602961717136,41.24998094060315],[-1.9824608161686577,41.24998094060315],[-2.986159201331345,40.58357826565617],[-3.144656758844297,39.03158991823542],[-2.599024770206185,38.58883465030049],[-2.572903901946976,38.14634538032887],[-2.2895472585110124,37.7041033246104],[-3.578710533037034,37.7041033246104],[-4.066345500372337,37.262089802965804],[-4.580985275217758,37.262089802965804],[-5.564866616654562,36.599457391794225],[-6.093472954215219,36.82028623061612],[-6.1249045997540215,37.262089802965804],[-6.398456003631701,37.48306916071901],[-7.428755364030221,37.48306916071901],[-7.000220914603659,38.58883465030049],[-6.257978369879801,39.03158991823542],[-6.311223291091149,39.69626293283932],[-7.130462765633229,40.13974676271242],[-7.652217415726413,40.13974676271242],[-7.734189244132218,41.02775672577918],[-7.251138853672639,41.47229776102246],[-7.35763194188391,42.585340246256386],[-6.893181930637411,43.254404491237345],[-6.3835677159732,43.47764450763584],[-5.320817996545439,43.47764450763584],[-5.035762522666348,43.254404491237345],[-2.1169605958546747,43.254404491237345],[-1.6162344311756751,43.70099723685959],[-0.8181387843806309,43.70099723685959],[-0.27275682926358336,43.47764450763584],[-0.23342854556832648,42.80825439816155],[0.04379989674320939,42.585340246256386],[0.57247359950229,42.585340246256386],[0.8482667224504254,42.36253065630808],[1.904292180086243,42.36253065630808],[1.397573870536391,41.917217113653535],[1.4080686353868082,41.69470915875196],[0.8930287389650218,41.47229776102246],[0.6189691220138691,41.69470915875196],[0.09290277976524308,41.69470915875196]]],[[[19.340390047449624,42.585340246256386],[19.076053196070085,42.585340246256386],[18.56903441947038,43.03127513553977],[18.039021313212885,43.03127513553977],[17.78396163240674,43.254404491237345],[16.98792474327628,43.254404491237345],[16.465551251723628,43.47764450763584],[15.170898949107793,44.595576677331444],[14.642211344178564,44.819524108398],[14.106628613204073,44.819524108398],[13.843981187242962,45.043611044298714],[14.117667388187677,45.267812092817245],[14.380281584792407,45.043611044298714],[15.452882379891296,45.043611044298714],[15.705768459281273,44.595576677331444],[17.033610909797428,44.371752373298726],[18.591050690579145,43.47764450763584],[19.919487839863848,43.47764450763584],[20.410852554303155,42.80825439816155],[21.204863365836673,42.80825439816155],[21.42657144054844,42.139823613927796],[22.172950513276323,41.47229776102246],[24.53738626597758,41.47229776102246],[25.381754602400417,42.139823613927796],[26.43647011222761,42.139823613927796],[26.65925306332088,41.69470915875196],[26.59943889576565,41.02775672577918],[26.31814441676337,40.805623152792904],[25.569566483670815,41.24998094060315],[24.7823657036754,41.24998094060315],[23.96211847241524,40.805623152792904],[22.914995830482738,40.805623152792904],[22.34867496463152,40.13974676271242],[22.307451764372857,39.47463007962779],[22.79968999978489,39.03158991823542],[22.78605241041052,38.8101778562717],[22.254864539887418,38.58886622658754],[22.267718329795642,38.8101778562717],[22.021359597026013,39.03158991823542],[20.983585726680843,39.03158991823542],[20.227400193738397,39.47463007962779],[20.02372977717733,40.58357826565617],[19.773627904685235,40.805623152792904],[19.844498175807644,42.139823613927796],[19.340390047449624,42.585340246256386]]],[[[33.718984910316024,45.267812092817245],[34.52451850711583,45.267812092817245],[34.75969669167131,45.043611044298714],[33.923189659260245,44.819524108398],[33.418945697797696,45.043611044298714],[33.718984910316024,45.267812092817245]]],[[[4.190574031352956,45.043611044298714],[3.6457306297903376,45.267812092817245],[3.8977185499237876,45.71661090689074],[4.443756737201511,45.492144222230785],[4.190574031352956,45.043611044298714]]],[[[38.66128698870421,13.460907538846039],[38.67659399833548,13.901599262526384],[38.92689087778176,14.121945281450722],[39.16929124152864,14.121945281450722],[40.34117612581116,13.020216178630374],[40.08432792457994,12.579525115368158],[39.600404901565796,12.579525115368158],[38.66128698870421,13.460907538846039]]],[[[37.998220081913644,15.223671488762728],[37.5299239766418,15.664366254681719],[37.54772642272019,16.105061241668523],[37.79997696183868,16.32540874039135],[38.04312152263225,16.32540874039135],[38.51069506485493,15.884713736075833],[38.492562192995585,15.444018828554574],[38.240975330088304,15.223671488762728],[37.998220081913644,15.223671488762728]]],[[[46.72623137590696,15.003324266374378],[46.69401188864782,14.342291416183203],[46.19890179018814,14.121945281450722],[44.744499607706864,14.121945281450722],[44.04657492831724,14.782984066328936],[43.38126758835257,16.105061241668523],[43.42630505394629,16.98645088465671],[43.19443721727381,17.206798045216587],[43.217848449840446,17.647491848635568],[42.5339022511529,18.52887651478474],[41.87286664718212,19.850942434359087],[41.92105971771986,20.732198011537676],[42.618747499869066,20.071267257622065],[42.826466661844144,19.410255603145785],[43.52222135760679,18.74922188745645],[44.83965287976066,16.105061241668523],[45.76638802350258,15.223671488762728],[46.24086859987415,15.003324266374378],[46.72623137590696,15.003324266374378]]],[[[41.920962200133445,20.73229039150126],[41.933114494967036,20.952630940217865],[41.92105971771986,20.732198011537676],[41.920962200133445,20.73229039150126]]],[[[47.50468066469767,23.59674641848079],[47.0285360078174,23.817095300158627],[47.30840182965322,24.257797537819176],[47.7843103625685,24.037445634605902],[47.50468066469767,23.59674641848079]]],[[[42.806699833414946,26.681765845390068],[42.52310960044329,26.24103833646048],[42.04525666263439,26.461402488511826],[42.32906175182307,26.90212797421546],[42.806699833414946,26.681765845390068]]],[[[37.864241781366516,26.90212797421546],[37.58541346368166,26.461402488511826],[37.10485924968213,26.681765845390068],[37.38380112660937,27.1224884421324],[37.864241781366516,26.90212797421546]]],[[[37.002351570821304,28.664928861235413],[36.71926054659073,28.224250720903477],[36.23787137586184,28.444592135823658],[36.52101165675071,28.88526046478195],[37.002351570821304,28.664928861235413]]],[[[43.43716608877519,42.80825439816155],[44.409316849927855,42.36253065630808],[45.465342307563674,42.36253065630808],[47.611188323542386,41.24998094060315],[48.923189623534746,41.24998094060315],[49.093061878795275,40.805623152792904],[49.002597348037156,40.36162011596436],[49.219039444430365,40.13974676271242],[48.744036758414076,39.03158991823542],[48.443589400846946,38.8101778562717],[48.36302966290139,38.367557942073745],[48.54242402214591,37.925194620529844],[48.980134617788615,37.48306916071901],[51.35462423142082,36.378674110164965],[52.636261144174355,36.378674110164965],[53.787677979398474,37.04116293117117],[53.8306291697375,37.262089802965804],[57.17578770623274,37.262089802965804],[58.04329398930677,37.7041033246104],[59.38234677963284,37.925194620529844],[60.25973125752703,38.367557942073745],[61.55285099607329,38.367557942073745],[61.86555405067444,38.58883465030049],[63.160023504909,38.58883465030049],[63.4752777386784,38.8101778562717],[64.51194589990814,38.8101778562717],[66.56645975643352,40.58357826565617],[67.08941177867234,40.58357826565617],[67.41770811261406,40.805623152792904],[68.20305009406343,40.805623152792904],[68.53364120403785,41.02775672577918],[68.67352031640101,41.47229776102246],[69.34302392927437,41.917217113653535],[69.86973284445837,41.917217113653535],[71.49221476295952,42.80825439816155],[71.99422409182407,43.47764450763584],[73.47167555801741,44.595576677331444],[75.33822074497212,45.267812092817245],[75.78485902233093,45.71661090689074],[76.86789885206161,46.390853341985895],[78.77882774255987,47.06643385606941],[79.86480131992127,47.06643385606941],[79.47522913489072,46.16596194079505],[78.84054053773603,45.94121564131675],[78.3842434120734,45.492144222230785],[78.20002889317632,45.043611044298714],[77.48319688431853,44.595576677331444],[77.3049722588745,44.148049092257736],[76.24522296953509,43.47764450763584],[75.37980253991209,42.585340246256386],[75.13682199629852,41.917217113653535],[74.45325215633743,41.47229776102246],[73.9622246246922,40.805623152792904],[72.95887602367011,40.13974676271242],[72.55759982985003,39.69626293283932],[71.84302128932723,37.262089802965804],[71.97929141179591,36.82028623061612],[73.02402147777644,35.937235023683286],[73.16334477230592,35.49595062488729],[74.06874262933601,35.05480263139978],[74.20929842462722,34.613756287659],[74.71821912759623,34.613756287659],[75.16989329734278,34.39328326163683],[76.21341735603129,33.511619859179696],[76.46678323476748,33.511619859179696],[76.80707665212547,32.85056701146844],[78.15889969168951,32.189632484327674],[78.50312217427981,31.52877265265355],[80.26390040497641,31.52877265265355],[80.46187197058859,31.30849510859543],[81.21591795374262,31.30849510859543],[81.41362270621622,31.088219408928392],[83.61943591696723,30.867943940610605],[83.81631901483013,30.64766709061715],[86.07342899618573,30.64766709061715],[86.96591214543423,30.207102792879702],[87.46677190586136,30.207102792879702],[87.66248716830457,29.986826529560954],[88.41324788452988,29.986826529560954],[88.60887015237537,29.76652701687706],[89.1090296974796,29.76652701687706],[90.00040860844403,29.325906577363455],[90.39347939382401,28.88526046478195],[90.83996900295959,28.664928861235413],[91.33846546066455,28.664928861235413],[91.73343779553545,28.224250720903477],[91.9823707242637,28.224250720903477],[92.3790123680629,27.783555552416725],[92.18621808858786,26.90212797421546],[91.89211007598443,26.681765845390068],[89.66095506495854,26.681765845390068],[89.36914838485494,26.461402488511826],[88.13030305181252,26.461402488511826],[87.55112570396227,26.020673822131386],[86.27356224766702,25.800309378427016],[85.98699498870725,25.57994543824846],[85.4925055836612,25.57994543824846],[85.2071672039526,25.359582434486917],[83.72445000965797,25.359582434486917],[82.66436327228521,24.91886382014813],[82.06888965022878,24.257797537819176],[81.57583308539792,24.257797537819176],[81.05053094666081,24.037445634605902],[79.94283279627551,23.15605254948479],[79.91347672354779,22.935707330209297],[78.8732283018459,22.49501974225451],[78.38186486707433,22.49501974225451],[78.1086580230981,22.274677141650937],[74.67050346001169,22.274677141650937],[74.20527567151575,22.49501974225451],[73.54716393469477,23.15605254948479],[72.61691964051329,23.59674641848079],[72.12452279785023,23.59674641848079],[71.65918877481832,23.817095300158627],[70.5384379686584,24.69850651457186],[68.56437332343015,24.69850651457186],[68.29021127270983,24.478151125803265],[67.55028489225015,24.478151125803265],[66.92032180765233,25.359582434486917],[65.98903902891969,25.800309378427016],[65.49429456016975,25.800309378427016],[64.69624601621042,25.359582434486917],[63.46064835429824,25.359582434486917],[63.24048235658824,25.57994543824846],[61.262524736403975,25.57994543824846],[60.98945303047388,25.359582434486917],[60.49521396570901,25.359582434486917],[60.57339304156703,26.020673822131386],[60.35278709545312,26.24103833646048],[60.40803380928582,26.681765845390068],[60.027428414144175,27.563202663990083],[59.372157060862094,28.224250720903477],[59.40318094706658,28.444592135823658],[58.9361957098406,28.664928861235413],[58.06619265274345,29.546220222221415],[55.945390188593336,30.427387245821986],[55.51037364394529,30.867943940610605],[54.757452333060776,30.867943940610605],[52.87902645540829,31.749053654279646],[51.62036025903993,31.749053654279646],[51.40081730867859,31.969339726903836],[49.637313460388434,31.969339726903836],[49.416378706948386,32.189632484327674],[45.63446805106139,32.189632484327674],[44.2041029960437,32.85056701146844],[43.07867592545508,33.95240906905081],[43.13602819589142,34.39328326163683],[42.93984176203296,34.834255436273985],[42.262909427432994,35.49595062488729],[42.41401183787445,36.599457391794225],[42.18836816687062,36.82028623061612],[42.28318877519825,37.48306916071901],[42.057669385184106,37.7041033246104],[40.283435254536826,37.925194620529844],[39.99500814594248,37.7041033246104],[38.448012216511245,37.7041033246104],[37.512945573682686,36.378674110164965],[36.74396342603057,36.378674110164965],[36.53836548248823,36.82028623061612],[36.0247288748171,36.82028623061612],[35.79293684262703,37.04116293117117],[34.7646659205258,37.04116293117117],[34.53163761303422,37.262089802965804],[32.70812407632335,37.04116293117117],[31.980195171213072,37.48306916071901],[30.434746130615295,37.48306916071901],[30.19736725954472,37.7041033246104],[30.25935332325369,38.367557942073745],[30.021605476504494,38.58883465030049],[30.152265393767976,39.917974150142214],[31.26719825531225,40.58357826565617],[31.79015027755108,40.58357826565617],[32.07731894739213,40.805623152792904],[32.86266092884151,40.805623152792904],[33.15165800643318,41.02775672577918],[35.772545650700195,41.02775672577918],[36.23524246658117,40.58357826565617],[37.54262252217825,40.58357826565617],[37.772077563804494,40.36162011596436],[40.12265147213226,40.36162011596436],[40.418858644491834,40.58357826565617],[41.203286677850095,40.58357826565617],[41.501422724784646,40.805623152792904],[41.729845004721945,42.139823613927796],[41.50524684142936,42.36253065630808],[41.58447419519699,42.80825439816155],[41.134377046900134,43.254404491237345],[40.14993999388003,43.70099723685959],[40.682834848961704,43.70099723685959],[40.98923881123555,43.92446474098593],[41.521996640626114,43.92446474098593],[41.74696237802176,43.70099723685959],[42.27902614255179,43.70099723685959],[42.46110519545089,43.254404491237345],[42.99179645487119,43.254404491237345],[43.43716608877519,42.80825439816155]],[[62.20380504199342,34.39328326163683],[61.9043841016255,34.17283473067674],[61.14233640717455,34.17283473067674],[60.590668087212265,33.95240906905081],[59.998001116915695,33.511619859179696],[59.95613303762314,33.29125306740782],[59.408827065902834,33.070902657676854],[58.90293941949969,33.070902657676854],[58.61006809989379,32.85056701146844],[58.49296428107716,32.189632484327674],[58.920624197976394,31.749053654279646],[64.96222194054451,31.749053654279646],[67.15663722982117,32.63024451134736],[67.39414481805599,33.732004652713165],[66.5754878800921,34.613756287659],[66.06656717712309,34.613756287659],[65.86156943043363,34.834255436273985],[65.35219770446918,34.834255436273985],[65.04872577118508,34.613756287659],[64.28534471673157,34.613756287659],[63.98346421429627,34.39328326163683],[62.20380504199342,34.39328326163683]]],[[[39.65734423775915,43.92446474098593],[40.14993999388003,43.70099723685959],[39.88473920216666,43.70099723685959],[39.65734423775915,43.92446474098593]]]]}}
