{"type":"Feature","properties":{"id":"gaukler","sourceUrl":"https://commons.wikimedia.org/wiki/File:Gaukler_Terathopius_ecaudatus_world.png","license":"Public domain","author":"Jonathan Hornung","sourceImageSha256":"98a305753317ee15c1fbea99aaa332ac5a56c5a048b5d3e1faf7b37b94672c91","registration":{"proj_string":"+proj=robin +R=1 +lon_0=10","parameters_1000px":[210.6121409748036,-201.1189296300121,430.4005722906792,270.71358456801835],"coast_rmse_capped15_px":3.051617383956909,"coast_median_px":0.1320105791091919,"coast_p90_px":2.3408560752868652,"sample_count":11746,"image_width":1334,"image_height":628,"pixel_transform_native":[280.956596060388,-268.29265212643617,574.1543634357661,361.1319218137365],"transform_definition":"pixel_x=sx*projected_x+tx; pixel_y=sy*projected_y+ty","validation":"Odd coastline samples withheld from affine fit. Normalized to 1000px width.","controls":[[-163.70535177100163,62.12970200925265,8.768433999107957,86.06274796571793],[-94.53118354392947,22.118534284456018,148.5678496752193,261.6884868685182],[-87.39035620343094,42.829638931104185,206.3998410249941,168.75357073226084],[-73.8342467775213,10.088031922495379,227.00335087951765,315.78500611151054],[-87.87436988209934,68.28691833064931,275.7055032745061,61.776784076660164],[-58.3800508417402,-37.519815422965024,308.85310319528406,529.8291701521092],[-64.98526918136231,66.87384929076295,341.8982985292753,67.22945841097754],[-56.146895180882524,77.65848597677855,396.44372362202466,27.99885877311251],[-3.271766876287877,45.36001915110341,524.8466398527878,157.55467155204715],[9.620104025250681,65.81166258430952,573.0468610300937,71.38739097073113],[19.147887697283117,31.35665218126833,610.612411473048,220.16587936206244],[27.645492708342868,40.474704066372254,641.7395432460411,179.25796985869934],[38.691669429117795,20.00611392563631,691.4971493774607,271.20674265672284],[61.82802041965648,72.9334370357902,723.6553756751616,44.50113524222882],[58.91958483905882,22.158110015907035,773.4223614119178,261.5333987952876],[100.64295808742317,6.6262012964544255,950.56558522295,331.37711254429973],[120.20183356287643,39.15603735225934,998.6356075369,185.16363289777223],[119.91333344756701,-18.66038167890305,1024.4780997925272,445.07725604512956],[125.3837791310902,7.317138896527748,1053.0885546473858,328.2741598942596],[134.16111313511718,-13.462655127940938,1086.728237135222,421.7088032676545],[145.05536077700907,-9.022227247421052,1134.0732285309984,401.7447823298253]],"review_bounds":null,"all_fits":[],"status":"reviewed","coastlineReference":"Natural Earth 1:110m (world-registration-110m.geojson)"},"includedColors":["#00c400"],"adaptation":"Inverse global map projection; current seasonal/subspecies colors combined; explicitly reviewed legends/arrows omitted; 3px border closing; contours simplified by 0.45 source pixels; components below 4 source pixels omitted; split at the antimeridian.","licenseUrl":"https://commons.wikimedia.org/wiki/Commons:Public_domain","originalFileSha256":"98a305753317ee15c1fbea99aaa332ac5a56c5a048b5d3e1faf7b37b94672c91","sourceImagePath":"data/ranges/reference-originals/gaukler.png"},"geometry":{"type":"MultiPolygon","coordinates":[[[[-15.152642333958111,18.03386640767787],[-13.664091526684167,17.367028578552866],[-12.20265897606097,17.367028578552866],[-11.951338273071158,17.144748883537716],[-9.516476838026893,17.144748883537716],[-9.266261730634131,16.922469032356364],[-6.832250402090157,16.922469032356364],[-6.594643115973775,17.144748883537716],[-3.916295537425086,17.144748883537716],[-3.677635764092299,17.367028578552866],[-1.9726311216985637,17.367028578552866],[-1.7332401728461218,17.589308085509348],[2.6526203814721026,17.589308085509348],[2.8937239374260444,17.81158737251497],[4.356203352193049,17.81158737251497],[4.601891738946868,17.589308085509348],[5.332868497999905,17.589308085509348],[6.066636346256402,17.144748883537716],[6.553608633265255,17.144748883537716],[7.041614170610476,16.922469032356364],[8.504537917824939,15.811068550205661],[8.747530080667351,15.811068550205661],[9.719850160729218,14.921955140713791],[9.96253788851996,14.921955140713791],[10.205104228221956,14.477397036533567],[11.174613421930166,14.032839458340309],[11.659426265963948,14.032839458340309],[12.385344737747033,13.588282337855823],[14.564607540504701,13.366003927917642],[14.80557484544179,13.143725606802642],[16.74275628273666,13.143725606802642],[16.983135840699568,12.921447365976242],[19.888172444824868,12.921447365976242],[20.132823798002683,13.143725606802642],[22.554300594621267,13.143725606802642],[22.799758199819596,13.366003927917642],[24.253020080875167,13.366003927917642],[24.499059895648728,13.588282337855823],[27.648625836703165,13.588282337855823],[27.895726946832102,13.81056084515183],[28.865085613339943,13.81056084515183],[29.112688651180086,14.032839458340309],[32.02156571538278,14.032839458340309],[32.27023284076084,14.255118185955972],[33.24013119081194,14.255118185955972],[33.489345641251546,14.477397036533567],[34.459522366794445,14.477397036533567],[34.70930172426596,14.699676018607892],[35.1945321682562,14.699676018607892],[35.93802969493837,15.144228428069917],[36.42355311974093,15.144228428069917],[36.68304158015259,15.588788431778037],[37.16886955502256,15.588788431778037],[37.91571502145115,16.033348703824927],[38.40185826305072,16.033348703824927],[38.90731805104948,16.477908989065938],[39.150552206604075,16.477908989065938],[39.13107312545006,16.033348703824927],[39.83148447429861,15.366508380435134],[40.07432162593567,15.366508380435134],[42.185084026185194,13.588282337855823],[42.17658328056052,13.366003927917642],[42.8782314186001,12.69916919690388],[43.10437510805552,12.25461303988314],[43.08184528647765,11.587779129144662],[43.30930235517949,11.143223305612079],[43.77875041881103,10.698667495992533],[44.73135006491623,10.254111632010558],[46.428522922758425,10.476389575064065],[46.65603065398466,10.03183365829755],[46.61212799584401,8.47588725430527],[46.36537662193964,8.253609361179606],[46.34928139582969,7.58677555416317],[46.10324122119756,7.364497583430872],[46.093470373690494,6.919941602851467],[45.84336129817956,6.47538558509167],[44.859476431157574,5.363995495938057],[44.82566723809248,3.141215494119062],[45.29656528932412,2.252103370343953],[42.8822931955648,0.2516013142924061],[42.882147906577075,0.02932331659573103],[42.162196031230884,-0.6375106779354793],[42.162924302004335,-0.8597886780902149],[40.01409421039115,-2.8602908115706773],[40.016382511580254,-3.082568849313263],[39.302520535117296,-3.749403001713457],[39.067476685731876,-4.193959140449107],[39.07329674316563,-4.638515313085546],[38.835725409230605,-4.86079341323952],[38.84520519983964,-5.527626871890867],[38.607803585071466,-5.749904889148215],[38.62547494918519,-6.861294968421877],[38.87017147869594,-7.083572967152644],[38.890833944926456,-8.194962751661903],[40.401661776953304,-10.862298794791469],[40.41432924602954,-11.30685460159178],[40.17915522879555,-11.52913251536612],[40.21399253825997,-12.64052252935744],[40.46350760000102,-12.862800680920913],[40.49520239297266,-13.751914067542995],[40.74594550179279,-13.974192651963573],[40.763324229619485,-14.41875016586552],[40.090948922008224,-15.752421352722116],[39.15785900807054,-16.64154188515554],[37.005979587738295,-17.530661074136802],[36.5378270468142,-17.975219526979412],[36.32299770199513,-18.64205506161703],[34.67931280885768,-20.19797197284164],[34.45320577531126,-20.642519148541215],[34.47200395916075,-21.08706543729964],[35.5234635567878,-22.642984210507596],[35.555780125874186,-23.309816903869162],[35.320674208945874,-23.532096722879604],[35.34319083590212,-23.976660457077656],[34.63818375561901,-24.64351808492163],[32.7089744973287,-25.532686343926976],[32.485228624570034,-25.97728009579816],[32.57444580708721,-27.533339893998274],[32.85073854758808,-27.9779085067014],[32.36708030698023,-28.20018727513823],[31.426672345073307,-29.0892550700023],[31.220385008248417,-29.755993848840053],[30.955800333595104,-29.53375438746424],[30.913640308397387,-28.866996100799057],[30.650742312629006,-28.644731516077083],[30.624429599208522,-28.20018727513823],[30.35030011378069,-27.755625898288223],[29.580896993895266,-27.311050937998992],[27.345794575748286,-27.311050937998992],[27.107614085293253,-27.533339893998274],[24.871182926377553,-27.533339893998274],[23.653826768121704,-28.20018727513823],[22.65802636368073,-28.20018727513823],[22.40134699345046,-27.9779085067014],[21.65496188244063,-27.9779085067014],[21.399171686535347,-27.755625898288223],[20.653244317598237,-27.755625898288223],[20.14379789505245,-27.311050937998992],[19.64710846879757,-27.311050937998992],[19.64146892997887,-27.088759474516806],[17.873882479791146,-25.532686343926976],[17.869877422089388,-25.31039081688224],[14.877714638449593,-22.642984210507596],[14.384347592201667,-22.420708503788962],[14.130439552322182,-21.309338546633406],[12.157455367540392,-18.197498356366665],[12.15434883269753,-17.30838151446501],[11.910127083536027,-17.086101775149157],[11.906886164198072,-15.974701500153596],[12.390689011916258,-15.307861220571528],[12.628139450334636,-13.751914067542995],[13.111131696425655,-13.307357201089161],[14.072125344471461,-11.52913251536612],[14.070389799679152,-11.084576697578374],[13.584280662450077,-10.195465008445444],[13.582954414555072,-9.750907455616654],[13.341010941409346,-9.528629736496358],[13.338767759285696,-8.639518525941327],[13.579344970293226,-8.41724065101353],[13.578256149140309,-7.972684830132333],[12.611970264041359,-6.639016960988579],[12.61131768863866,-6.1944609289980175],[12.370260873043419,-5.9721829089325675],[12.369444307049005,-5.305348859406429],[11.887327923615926,-4.416237222305137],[12.36820972129134,-4.193959140449107],[16.216752707156644,-4.193959140449107],[17.18032585197585,-4.638515313085546],[25.360117173958848,-4.638515313085546],[25.602328324659652,-4.86079341323952],[28.489614961293316,-4.86079341323952],[29.446119221068617,-4.193959140449107],[29.682965379469273,-3.749403001713457],[29.67647980459817,-2.8602908115706773],[29.915459517549664,-2.6380127796081947],[29.911741535741637,-1.9711787139095431],[29.670371289245733,-1.7489007005756527],[29.66694974188781,-0.6375106779354793],[29.906921235223408,-0.4152326790690309],[29.909169700533486,1.3629913193859782],[29.669686843011714,1.5852693268710005],[29.910969035177896,1.8075473375595497],[29.9144658185803,2.4743813933381684],[29.676867277298868,2.9189374547765414],[27.762838344889836,4.252605795032289],[26.561784089238543,4.474883879199336],[26.32289093352243,4.697161972409279],[25.360536284933147,4.697161972409279],[25.12153716099166,4.919440075111297],[23.677853431681097,4.919440075111297],[23.435826987754574,4.697161972409279],[22.714061001312608,4.697161972409279],[22.472195502830964,4.474883879199336],[21.509939364852713,4.474883879199336],[20.310368209667192,5.141717488402455],[16.460130365555358,5.141717488402455],[16.220176044168447,5.363995495938057],[14.776177705328655,5.363995495938057],[14.536023128683281,5.58627350989991],[10.925619908906711,5.58627350989991],[8.999592107439106,6.47538558509167],[8.517974209520931,6.47538558509167],[8.27694597519044,6.697663597496164],[4.664351982140677,6.697663597496164],[4.424222077216436,6.47538558509167],[3.700171967257158,6.919941602851467],[3.2184299399113243,6.919941602851467],[2.97847478538412,6.697663597496164],[2.2559559867741674,6.697663597496164],[1.2947870728310722,6.253107567883891],[0.8132289924275772,6.253107567883891],[0.09326560750630897,5.808551528042104],[-1.109057490348519,5.58627350989991],[-1.34847041171564,5.363995495938057],[-1.8298031913289012,5.363995495938057],[-2.0691392592328217,5.141717488402455],[-2.550418989746799,5.141717488402455],[-2.553218778259149,5.58627350989991],[-2.7953907289104625,5.808551528042104],[-3.2768334516465885,5.808551528042104],[-4.243130851809133,6.253107567883891],[-4.728392399788712,6.697663597496164],[-8.117970087652978,8.253609361179606],[-8.600123598357335,8.253609361179606],[-9.329420013925136,8.69816512241454],[-12.94670655679974,8.69816512241454],[-12.954273705535275,9.142720774600313],[-13.20353904632875,9.58727629976983],[-14.186815126604401,10.476389575064065],[-14.690023267994077,11.365501211372024],[-15.432026788476675,12.032335034865767],[-15.915735233043728,12.032335034865767],[-16.666871490418522,12.921447365976242],[-16.438312588680777,13.366003927917642],[-16.474755724207782,14.477397036533567],[-16.992409008770718,15.366508380435134],[-16.289256416900432,16.033348703824927],[-16.0636011042885,16.477908989065938],[-15.86545751453818,17.589308085509348],[-15.631015316289353,17.81158737251497],[-15.659122446496756,18.47842359490984],[-15.152642333958111,18.03386640767787]]]]}}
