{"type":"Feature","properties":{"id":"gerfalke","sourceUrl":"https://commons.wikimedia.org/wiki/File:Falco_rusticolus_distr.png","author":"Scops (Zuordnung laut Dateiseite)","license":"CC BY-SA 3.0","licenseUrl":"http://creativecommons.org/licenses/by-sa/3.0/","sourceImageSha256":"aefbf53a2bfb58b35fbfe8ad0c1bb56ae122726f91010b59b3910c890e3b28ac","registration":{"proj_string":"+proj=robin +R=1 +lon_0=9.802113491225182","parameters_1000px":[232.3844211183744,-233.42213804459584,492.2267412304704,314.4599253834788],"pixel_transform_native":[297.45205903151924,-298.7803366970827,630.0502287750021,402.50870449085284],"central_meridian":9.802113491225182,"coast_error":{"median_px_at1000":0.727928638458252,"p90_px_at1000":4.614751815795898,"rmse_capped15_px_at1000":3.060678482055664,"sample_count":10785},"heldout_coast_error":{"median_px_at1000":0.7220174074172974,"p90_px_at1000":4.955607891082764,"rmse_capped15_px_at1000":3.194365978240967,"sample_count":5353},"image_width":1280,"image_height":320,"control_method":"4-degree checkerboard coastal blocks held out; Natural Earth 1:110m coast sampled every <=0.2 degree; nearest 1px raster land-boundary contour","notes":"single projection plus independent x/y scales and translation; no local warp","projection_candidates_initial":{"proj_string":"+proj=robin +R=1 +lon_0=0","parameters_1000px":[231.11114298663844,-231.31278570286025,463.69853881103717,311.52899608740677],"coast_rmse_capped15_px":3.6816749572753906,"coast_median_px":1.1787164211273193,"coast_p90_px":5.3514580726623535,"sample_count":13297,"image_width":1280,"image_height":320,"pixel_transform_native":[295.82226302289723,-296.0803656996611,593.5341296781276,398.75711499188066],"transform_definition":"pixel_x=sx*projected_x+tx; pixel_y=sy*projected_y+ty; invert with pyproj inverse after removing scale/translation","all_fits":[{"proj_string":"+proj=wintri +R=1 +lon_0=0","parameters_1000px":[199.1166335122697,-205.00144601326195,461.6957120240849,306.16186500134665],"coast_rmse_capped15_px":5.098156452178955,"coast_median_px":2.2784667015075684,"coast_p90_px":8.954779624938965,"sample_count":12523},{"proj_string":"+proj=eqearth +R=1 +lon_0=0","parameters_1000px":[236.03711831624022,-222.4456331770806,462.5052646928496,318.80242353318727],"coast_rmse_capped15_px":5.7466721534729,"coast_median_px":3.0771334171295166,"coast_p90_px":10.045513153076172,"sample_count":13285},{"proj_string":"+proj=moll +R=1 +lon_0=0","parameters_1000px":[242.6550202561693,-223.73808723011055,465.14279431323104,316.6494351987031],"coast_rmse_capped15_px":6.6777753829956055,"coast_median_px":3.5060858726501465,"coast_p90_px":12.39020824432373,"sample_count":13289},{"proj_string":"+proj=merc +R=1 +lon_0=0","parameters_1000px":[174.17184775864965,-161.2866685687432,469.745827500859,286.084222851565],"coast_rmse_capped15_px":6.960690021514893,"coast_median_px":3.138701915740967,"coast_p90_px":14.656230926513672,"sample_count":7626},{"proj_string":"+proj=gall +R=1 +lon_0=0","parameters_1000px":[240.58653028266173,-198.370702749474,466.29897057822865,282.89004686712076],"coast_rmse_capped15_px":7.122777938842773,"coast_median_px":3.152355670928955,"coast_p90_px":15.750422477722168,"sample_count":9679},{"proj_string":"+proj=mill +R=1 +lon_0=0","parameters_1000px":[172.21339545485668,-160.382684721763,465.25668221874537,279.3280814094506],"coast_rmse_capped15_px":7.155314922332764,"coast_median_px":3.098414182662964,"coast_p90_px":15.914168357849121,"sample_count":8957},{"proj_string":"+proj=eqc +R=1 +lon_0=0","parameters_1000px":[170.32543914747782,-200.5906818692123,469.49350339290544,298.13745809642677],"coast_rmse_capped15_px":7.184642791748047,"coast_median_px":3.4005842208862305,"coast_p90_px":15.30659008026123,"sample_count":11598}]},"thin_blue_radius":2.2},"includedColors":["#FF8000","#006600","#0080FF"],"adaptation":"Current seasonal colors combined after removing thin blue vagrancy-annotation components (max interior radius <=2.2 source px; three substantial winter bands retained); inverse Robinson registration; 3px printed-border closing; 0.45px contour simplification; antimeridian split."},"geometry":{"type":"MultiPolygon","coordinates":[[[[-90.63222660717395,69.4515970842836],[-89.45763489642653,68.97757774705467],[-88.52137006080646,68.97757774705467],[-87.94399278075993,68.74155746976196],[-87.73208904208145,68.27142956470503],[-88.04167206607272,68.27142956470503],[-88.14443917245934,67.80376695982599],[-87.63914903964795,67.33847146997996],[-87.0848968839926,67.1066818024953],[-86.47371921192742,67.1066818024953],[-86.1072956763258,67.33847146997996],[-85.50890195517583,68.50617905554836],[-84.88808486067863,68.50617905554836],[-84.83155733840226,68.74155746976196],[-85.83149672113571,69.92834647048089],[-86.42000941042251,70.16777670681674],[-88.00234867208529,70.16777670681674],[-88.8864815804615,70.64881029869831],[-88.85692264869486,70.89042348860607],[-89.44693988149686,71.37587639328258],[-89.38197895725025,72.35588390485842],[-88.72096089776241,72.60282401243668],[-89.03799176138844,73.09908237464562],[-88.05303879535217,73.09908237464562],[-87.39105515600826,73.59856320339661],[-84.74679484573038,73.59856320339661],[-84.09767745572219,73.34841604749354],[-82.45060298483894,73.34841604749354],[-82.43306707423724,73.59856320339661],[-81.44146945788304,73.59856320339661],[-80.80352851395568,73.34841604749354],[-77.17996467801252,73.34841604749354],[-76.56192085826216,73.09908237464562],[-75.99989818990156,72.60282401243668],[-75.07581014938556,72.35588390485842],[-74.22257604744324,71.86434420582198],[-73.89946658534248,71.86434420582198],[-73.06869048795281,71.37587639328258],[-71.46297976309555,71.37587639328258],[-69.78855758377195,70.64881029869831],[-68.83366138393747,70.64881029869831],[-66.57170266447541,69.21425311199124],[-67.4019188611993,68.74155746976196],[-66.99002643466635,68.27142956470503],[-65.97136349523925,67.80376695982599],[-64.73952595761591,67.80376695982599],[-63.931902024690466,67.57082930394283],[-63.74223657182244,67.33847146997996],[-62.94337883741836,67.1066818024953],[-62.75917899993629,66.87544887748396],[-61.78974571069593,66.41460867017808],[-61.61249833064305,66.18497962929195],[-61.9150382273103,66.18497962929195],[-62.166259816715865,65.72725080510028],[-62.59247167446004,65.49913045838252],[-63.1931314251982,65.49913045838252],[-63.26695060055214,64.81761290649612],[-64.8150283768591,65.2714927560302],[-65.1768561117597,65.72725080510028],[-66.1505967806517,66.18497962929195],[-67.05821647065342,66.18497962929195],[-67.28427351829042,65.72725080510028],[-66.728797161015,65.0443278719975],[-65.00088655867518,64.365572703315],[-64.1442319082052,63.243112027343926],[-64.73099071226437,63.243112027343926],[-64.68807772408785,62.79705369704118],[-65.10492860391814,62.574627679067305],[-65.56426032827237,62.79705369704118],[-66.14838206439538,62.79705369704118],[-66.27056914743557,62.574627679067305],[-65.76967844328875,61.90969354251258],[-66.63815259428806,61.90969354251258],[-67.09570348958577,62.130953221706385],[-68.25620529086645,62.130953221706385],[-71.29527323386684,63.019879870687774],[-71.66376469126634,63.46675608103289],[-73.31067469724059,64.365572703315],[-75.98167802749374,64.365572703315],[-76.07782719594539,64.14022011060896],[-77.26217297012215,64.14022011060896],[-77.7623469143292,64.365572703315],[-77.8777679762196,64.81761290649612],[-77.28140808333522,64.81761290649612],[-77.09890714155323,65.2714927560302],[-76.49969354327547,65.2714927560302],[-75.99439415567414,65.0443278719975],[-75.09772347877164,65.0443278719975],[-75.00165954758106,65.2714927560302],[-73.80323235102553,65.2714927560302],[-74.01663409400001,66.18497962929195],[-73.6180863285577,66.41460867017808],[-72.70821397333756,66.41460867017808],[-72.01424473376203,67.33847146997996],[-72.43851056776178,67.80376695982599],[-74.02378570697735,68.50617905554836],[-74.87176392285771,68.74155746976196],[-75.10157408358535,68.97757774705467],[-76.19705603345054,69.4515970842836],[-77.94224263618305,69.92834647048089],[-78.88895312637737,69.92834647048089],[-78.95448757894282,69.68962348953765],[-79.5838549186231,69.68962348953765],[-80.15123377996981,69.92834647048089],[-80.78237410676601,69.92834647048089],[-80.84258959798365,69.68962348953765],[-81.78664060750405,69.68962348953765],[-81.8456010405597,69.4515970842836],[-81.09663480757305,68.74155746976196],[-82.03036544028035,68.74155746976196],[-82.1595946102386,68.27142956470503],[-80.9731201633409,67.1066818024953],[-81.35289707673931,66.87544887748396],[-81.96252717761809,66.87544887748396],[-82.79029109735006,66.18497962929195],[-84.00045068401903,66.18497962929195],[-84.07167649544795,65.95586379974993],[-84.60553047735353,66.18497962929195],[-85.51315016735525,66.18497962929195],[-85.58065770334437,65.95586379974993],[-85.11721232714122,65.49913045838252],[-84.58907712002522,65.2714927560302],[-82.13289991643926,64.59136814133473],[-80.90076389694684,63.915303982049714],[-80.60536311594095,63.915303982049714],[-80.48518438935129,63.46675608103289],[-81.36732635915978,63.46675608103289],[-82.67316858298217,63.915303982049714],[-83.55937092599983,63.915303982049714],[-85.05298494171308,63.019879870687774],[-85.48398888493276,63.46675608103289],[-85.99704600755238,63.69081803462274],[-86.5864881984397,63.69081803462274],[-86.66017817801077,63.46675608103289],[-87.10418029807049,63.915303982049714],[-87.62519849416897,64.14022011060896],[-88.21737138125737,64.14022011060896],[-88.28578342209403,63.915303982049714],[-89.76278732712348,63.915303982049714],[-89.82842024831983,63.69081803462274],[-90.41786243920714,63.69081803462274],[-90.77684070378372,63.46675608103289],[-90.68149498156195,62.79705369704118],[-91.84973845380797,62.79705369704118],[-93.62526400952991,61.688811535478656],[-94.24323557246764,60.58987932398499],[-94.52903500573208,60.58987932398499],[-94.73204662606524,59.06579294633749],[-94.31641834427187,58.633232406011366],[-93.83119159902245,58.417413904851905],[-92.99103561182056,58.417413904851905],[-93.06929692612623,58.201897894010706],[-92.27909317951331,57.342780279859575],[-91.80887946112023,57.12871825722644],[-90.4247229481075,57.12871825722644],[-89.95979571884106,56.91493564808554],[-89.40717505135918,56.91493564808554],[-87.75638523173812,56.275227542798255],[-87.12659138909125,55.85008584417805],[-86.57904927781689,55.85008584417805],[-85.85823699928149,55.63790348911759],[-84.97150983120554,55.2142984426712],[-83.06541896152856,55.2142984426712],[-82.62906244478796,55.0028689284977],[-82.08542995691117,55.0028689284977],[-82.03429891690449,54.580757814994186],[-82.3687911277044,53.94933463023147],[-82.05718600026806,53.52952964101112],[-82.17163826780023,53.31996066328587],[-81.27740532873223,52.06701953294924],[-80.0572005739624,51.44328769683385],[-79.00018832740228,51.44328769683385],[-78.37346194451999,52.4838350891913],[-78.95436881705697,53.31996066328587],[-78.83452598964428,53.52952964101112],[-79.59652527298326,54.580757814994186],[-79.21036110474824,54.79170277942658],[-78.39634727282656,54.79170277942658],[-76.8401267205541,55.63790348911759],[-76.2593997156243,56.70142875636287],[-76.30632651537779,57.12871825722644],[-76.80083000394416,57.771757557747456],[-78.32193604947167,58.633232406011366],[-77.12333396547936,59.934723389677245],[-77.85117190682023,60.8089528595433],[-77.56477027350375,60.8089528595433],[-77.36168699607484,61.248158916174944],[-77.9283165572789,61.90969354251258],[-77.44199598269358,62.352596074019665],[-76.56970093565991,62.352596074019665],[-76.08959244951097,62.130953221706385],[-72.89821249598913,62.130953221706385],[-72.07239003110512,61.46830177643269],[-70.69113107390802,60.8089528595433],[-69.54552454064208,60.8089528595433],[-69.78367176372564,60.37115200555167],[-69.69701402576105,59.49961213441151],[-69.21871015160869,58.8493574022735],[-67.63445783055874,58.201897894010706],[-66.79594665158399,58.201897894010706],[-66.25592309023644,58.633232406011366],[-65.69471318515573,58.633232406011366],[-65.28243322409432,58.8493574022735],[-65.3018334774039,59.2825431398414],[-64.78010176496149,60.15276590437247],[-64.47379742242798,59.717004132737905],[-63.890371677231116,59.2825431398414],[-63.03313212265755,58.8493574022735],[-62.32293336492159,57.771757557747456],[-61.22352100978253,56.91493564808554],[-61.49983134352349,56.91493564808554],[-61.78493362052066,56.48819392653428],[-61.521937209459466,56.0625260282674],[-60.31740855902429,55.42597549826887],[-59.79649795396275,55.0028689284977],[-58.98104922214757,55.0028689284977],[-57.92742621590556,54.580757814994186],[-57.38569873947863,54.580757814994186],[-56.925483199512165,53.73931990425008],[-55.89727108673018,53.31996066328587],[-55.947422776339145,52.901474003251934],[-55.6282863084512,52.27532589864194],[-57.12652480778606,53.11060982352329],[-58.042117387225716,53.31996066328587],[-59.973034965677705,54.37005033140099],[-60.243428635887305,54.37005033140099],[-61.03071885849758,54.79170277942658],[-63.045261492064284,55.42597549826887],[-64.40918795858428,55.42597549826887],[-65.49867799375424,55.85008584417805],[-66.31999116066578,55.85008584417805],[-67.69789820766852,56.275227542798255],[-68.52221959221932,56.275227542798255],[-69.64034891385847,56.70142875636287],[-70.74352404748612,56.70142875636287],[-71.8770256737371,57.12871825722644],[-72.43068827894218,57.12871825722644],[-73.73819802261247,57.771757557747456],[-76.24398782552022,57.771757557747456],[-76.35670370059812,57.55712545345546],[-76.02949521277523,57.12871825722644],[-75.94111205317657,56.275227542798255],[-76.37728883420488,55.0028689284977],[-76.3461604144216,54.580757814994186],[-76.04846962062445,54.159577026472284],[-75.98892098838355,52.901474003251934],[-76.2426535590487,52.4838350891913],[-76.10435255581142,52.27532589864194],[-77.41143751997119,50.614306789694155],[-78.20165739085095,50.200905647239715],[-79.77291841101821,50.200905647239715],[-81.09922220286985,51.02842661002352],[-81.5203049451902,51.6510033753372],[-84.00552027320133,52.901474003251934],[-86.08551101354782,53.52952964101112],[-87.3854351829051,54.159577026472284],[-87.65536293438795,54.159577026472284],[-91.23315722364892,55.85008584417805],[-91.78069933492326,55.85008584417805],[-92.70231353904295,56.275227542798255],[-94.46178942048033,56.70142875636287],[-98.10036399997475,58.201897894010706],[-98.52549263237718,58.633232406011366],[-100.47086840431678,59.717004132737905],[-102.38476872430294,61.248158916174944],[-108.10112816582613,63.69081803462274],[-111.58301992908287,64.59136814133473],[-112.17797184853022,64.59136814133473],[-112.76482170995621,64.81761290649612],[-119.92114042456886,64.81761290649612],[-120.81568026389542,64.81761290649612],[-124.09565967475956,64.81761290649612],[-124.07701023747714,64.59136814133473],[-129.13410155277958,64.59136814133473],[-129.10496648475117,64.365572703315],[-130.5888572237807,64.365572703315],[-130.55773280807728,64.14022011060896],[-132.03816502579826,64.14022011060896],[-132.00509901096535,63.915303982049714],[-132.59590057297714,63.915303982049714],[-132.85770018309267,63.69081803462274],[-132.79501198312826,63.243112027343926],[-133.9367690951242,63.019879870687774],[-133.90650345466497,62.79705369704118],[-134.49062519078797,62.79705369704118],[-134.46054094320525,62.574627679067305],[-135.04336121496397,62.574627679067305],[-135.56530976514534,62.130953221706385],[-135.46125606621365,61.248158916174944],[-135.9907034700673,60.8089528595433],[-137.70911326996622,60.8089528595433],[-137.68474942866567,60.58987932398499],[-138.8279471617235,60.58987932398499],[-138.8026441410148,60.37115200555167],[-139.65825123660105,60.37115200555167],[-139.60849699580677,59.934723389677245],[-140.1765439324461,59.934723389677245],[-140.1526789355328,59.717004132737905],[-141.8806847423641,59.934723389677245],[-142.47873557314253,60.15276590437247],[-143.04795633364205,60.15276590437247],[-143.0167786156428,59.934723389677245],[-143.8688490206018,59.934723389677245],[-145.07709617531384,60.37115200555167],[-145.36229854050924,60.37115200555167],[-146.30116226946086,60.8089528595433],[-147.7331704360433,60.8089528595433],[-147.601722417638,60.15276590437247],[-148.1709431781375,60.15276590437247],[-148.12920104539685,59.934723389677245],[-149.26529491867552,59.934723389677245],[-149.7476625712861,59.49961213441151],[-151.4010032879437,59.2825431398414],[-151.35879026921842,59.06579294633749],[-152.01057843123024,59.49961213441151],[-152.6241051024864,59.717004132737905],[-153.47442961386957,59.717004132737905],[-153.61259101123446,59.06579294633749],[-153.2434583777463,58.633232406011366],[-153.80466828282698,58.633232406011366],[-154.24043950330264,57.986680415618835],[-155.07731981539567,57.986680415618835],[-155.55439691529648,57.55712545345546],[-156.11017020101366,57.55712545345546],[-156.5505861504094,56.91493564808554],[-157.10320681789133,56.91493564808554],[-157.03237261467947,56.48819392653428],[-158.40878069262973,56.48819392653428],[-158.30706585475733,55.85008584417805],[-159.40215007730606,55.85008584417805],[-159.3694995743623,55.63790348911759],[-160.22346324421758,55.85008584417805],[-160.0218932773587,56.275227542798255],[-158.95934392380985,56.48819392653428],[-158.99753473769715,56.70142875636287],[-158.4459471708833,56.70142875636287],[-158.01263737941366,57.342780279859575],[-157.45792392624992,57.342780279859575],[-157.5429458754162,57.771757557747456],[-158.19366515983197,58.201897894010706],[-159.75307948443904,58.8493574022735],[-160.59656739747783,58.8493574022735],[-160.53918714379546,58.633232406011366],[-161.6616069539569,58.633232406011366],[-161.4400553105166,58.8493574022735],[-162.47656428347204,59.49961213441151],[-163.11144074287918,59.717004132737905],[-163.678323750468,59.717004132737905],[-164.75605937379711,60.37115200555167],[-164.91726843503255,60.8089528595433],[-165.75023623285793,61.46830177643269],[-164.96226570173928,62.352596074019665],[-164.38073567038347,62.352596074019665],[-164.57289460112318,62.79705369704118],[-163.9887728650002,62.79705369704118],[-164.08664794423402,63.019879870687774],[-162.33034432195578,63.019879870687774],[-162.23034025827184,63.46675608103289],[-161.5461933820277,63.243112027343926],[-160.6660551759389,63.243112027343926],[-160.56148315479578,63.69081803462274],[-161.35072293667358,64.14022011060896],[-162.04734089120694,64.365572703315],[-164.5337407598967,64.59136814133473],[-164.42156607365416,64.365572703315],[-165.01512236926598,64.365572703315],[-166.021120558515,64.59136814133473],[-166.1390321231088,64.81761290649612],[-167.40759817826984,65.49913045838252],[-166.33289162523366,65.72725080510028],[-166.46205044659337,65.95586379974993],[-165.2548654802762,65.95586379974993],[-165.38368288750743,66.18497962929195],[-164.17352330083847,66.18497962929195],[-164.30203106549803,66.41460867017808],[-163.69544949535126,66.41460867017808],[-162.53869930606263,65.95586379974993],[-161.33151433974547,65.95586379974993],[-161.45066423083327,66.18497962929195],[-164.51836650510634,67.80376695982599],[-165.74701108788153,68.27142956470503],[-165.5943071453166,68.50617905554836],[-163.42144731457634,68.50617905554836],[-163.11046863187255,68.97757774705467],[-162.1742037962525,68.97757774705467],[-162.33226745046588,69.21425311199124],[-161.706381406113,69.21425311199124],[-161.88390610007932,69.92834647048089],[-159.9904851196907,69.92834647048089],[-160.1570190039084,70.16777670681674],[-158.89114759457817,70.16777670681674],[-159.0584975029669,70.40793025310987],[-157.1542343128206,70.40793025310987],[-157.32070923526578,70.64881029869831],[-156.04751430215313,70.64881029869831],[-156.0675294326223,71.13277656977812],[-154.7743193690405,70.64881029869831],[-152.54622823609338,70.64881029869831],[-150.9794512862642,70.16777670681674],[-149.713579876934,70.16777670681674],[-148.94552940075695,69.92834647048089],[-147.99881891056265,69.92834647048089],[-147.24084393425267,69.68962348953765],[-145.0380582453717,69.68962348953765],[-145.1586874399797,69.92834647048089],[-144.40869090569143,69.68962348953765],[-143.464639896171,69.68962348953765],[-143.58083662298915,69.92834647048089],[-142.63412613279488,69.92834647048089],[-140.8415155592554,69.4515970842836],[-139.2724752795029,69.4515970842836],[-137.1204727700111,68.74155746976196],[-135.25301150459651,68.74155746976196],[-134.7932814989392,69.21425311199124],[-133.77417044911016,68.97757774705467],[-133.1499938920301,68.97757774705467],[-132.68250610454223,69.4515970842836],[-129.8582336009876,69.4515970842836],[-129.9332420930451,69.68962348953765],[-128.04514007400425,69.68962348953765],[-128.11789861648197,69.92834647048089],[-127.48675828968572,69.92834647048089],[-127.63815486555302,70.40793025310987],[-125.46492081768048,69.4515970842836],[-124.83730470577946,69.4515970842836],[-124.89830337560292,69.68962348953765],[-124.26893603592264,69.68962348953765],[-124.01548649230656,69.92834647048089],[-123.32488502640223,69.68962348953765],[-121.43678300736138,69.68962348953765],[-117.51212948315779,68.74155746976196],[-115.64466821774319,68.74155746976196],[-115.67305029378865,68.97757774705467],[-116.71652795975932,69.68962348953765],[-116.80092323434802,70.16777670681674],[-117.90712696117559,70.89042348860607],[-117.96603577126038,71.13277656977812],[-118.73923267270804,71.61972991657424],[-119.45790074154853,71.86434420582198],[-120.4272291278508,71.86434420582198],[-120.27658579875622,71.37587639328258],[-121.88229652361346,71.37587639328258],[-121.80820319929687,71.13277656977812],[-123.08892567530903,71.13277656977812],[-123.893124063615,71.61972991657424],[-124.62765213516053,71.86434420582198],[-124.72253943799484,72.10972643830185],[-124.07430631533754,72.10972643830185],[-124.2747002607581,72.60282401243668],[-123.62233807061139,72.60282401243668],[-123.83966322800391,73.09908237464562],[-123.18302791731307,73.09908237464562],[-122.96863496856696,73.34841604749354],[-123.6804535352213,74.10133020958736],[-120.0192955755916,74.10133020958736],[-119.23474183312206,73.84953187042956],[-116.5813701956213,73.84953187042956],[-114.31845122298648,73.09908237464562],[-113.25655942790996,72.85055428668701],[-111.2274564578239,72.60282401243668],[-110.51609196886851,72.35588390485842],[-109.54067136833228,72.35588390485842],[-109.98415953282138,72.85055428668701],[-108.94418879231043,72.60282401243668],[-107.86847824890543,72.10972643830185],[-107.22024512624813,72.10972643830185],[-107.69347960625939,72.85055428668701],[-107.42378046073246,73.09908237464562],[-106.38451964822396,72.85055428668701],[-105.73003966920623,72.85055428668701],[-106.16847536555777,73.34841604749354],[-104.52140089467451,73.34841604749354],[-105.07555969018853,72.85055428668701],[-104.98870856582988,72.35588390485842],[-104.59486548491392,71.86434420582198],[-103.89833640521216,71.37587639328258],[-104.19826915412956,71.13277656977812],[-103.52822331125684,70.64881029869831],[-102.56535619529343,70.40793025310987],[-100.6676607979123,69.68962348953765],[-102.241079147113,69.68962348953765],[-102.24312467734279,69.4515970842836],[-101.62907775948752,68.97757774705467],[-102.25325431656758,68.97757774705467],[-102.26119581560523,68.74155746976196],[-104.43990062525558,68.74155746976196],[-105.06204882342782,68.97757774705467],[-105.68622538050785,68.97757774705467],[-105.68487480219864,68.74155746976196],[-105.06873838559258,68.27142956470503],[-103.85036777715692,67.80376695982599],[-102.9264896239394,67.80376695982599],[-102.3269995279229,67.57082930394283],[-98.33390938758671,67.57082930394283],[-97.97298039977889,68.03729633251957],[-99.13237153116732,68.97757774705467],[-98.19610669554724,68.97757774705467],[-97.83550776935107,69.68962348953765],[-95.98834674906071,69.21425311199124],[-94.23333254589814,68.27142956470503],[-93.30458347392431,68.27142956470503],[-93.23513303276796,68.74155746976196],[-93.79774559382564,69.21425311199124],[-94.39792327858007,69.4515970842836],[-95.63272208047012,69.68962348953765],[-96.23051283273178,70.16777670681674],[-95.90043502978138,70.40793025310987],[-96.19928198042076,70.89042348860607],[-96.83320921584023,71.37587639328258],[-97.47943068521687,71.61972991657424],[-98.12366710908026,71.61972991657424],[-98.11777779572604,71.37587639328258],[-98.76006208566892,71.37587639328258],[-99.09002174487529,71.61972991657424],[-101.08702616368498,72.35588390485842],[-101.73730656404246,72.35588390485842],[-102.09438579576995,72.60282401243668],[-101.80315979509996,72.85055428668701],[-100.43674576332748,72.35588390485842],[-99.46132516279127,72.35588390485842],[-99.54415673244216,73.09908237464562],[-100.2818241686129,73.59856320339661],[-99.2902265522587,73.59856320339661],[-98.59193279949481,73.34841604749354],[-97.27852846855794,73.34841604749354],[-97.22179994197595,72.85055428668701],[-95.87091000819363,71.86434420582198],[-95.22460320169507,71.61972991657424],[-94.25824856590003,71.61972991657424],[-94.25536269768986,71.86434420582198],[-95.24458279922952,72.60282401243668],[-94.91840170415615,72.60282401243668],[-94.96836896355167,73.34841604749354],[-94.30953917519835,73.34841604749354],[-94.69105418623991,73.84953187042956],[-94.00170593170297,73.59856320339661],[-93.01010831534875,73.59856320339661],[-93.03269691280192,73.84953187042956],[-93.7598519536462,74.35396651788678],[-95.52626013647391,74.8617869293553],[-95.92053801168274,75.1169875346859],[-93.55651303263615,75.1169875346859],[-93.17105145868751,74.8617869293553],[-93.09181848143083,74.35396651788678],[-92.36935400342674,73.84953187042956],[-91.68797816020981,73.59856320339661],[-91.02691308264035,73.59856320339661],[-91.3448051276085,73.34841604749354],[-91.33148013081652,72.85055428668701],[-93.94940004688736,72.85055428668701],[-93.60734955044515,72.10972643830185],[-93.9322532355891,71.86434420582198],[-93.30064562115427,71.37587639328258],[-92.67176687002006,71.13277656977812],[-92.68771882176924,70.89042348860607],[-92.0919086494888,70.40793025310987],[-91.48349504774342,70.16777670681674],[-90.63222660717395,69.4515970842836]],[[-111.85731177170861,67.80376695982599],[-113.4884323440085,68.97757774705467],[-114.13904203529421,69.21425311199124],[-114.76492807964708,69.21425311199124],[-114.7367854581686,68.97757774705467],[-113.73706305734815,68.27142956470503],[-114.3562291053307,68.27142956470503],[-114.33761650464511,68.03729633251957],[-113.6919483888797,67.57082930394283],[-113.0679148707956,67.33847146997996],[-111.84898370872455,67.57082930394283],[-111.85731177170861,67.80376695982599]],[[-111.23466214867283,67.57082930394283],[-110.00601902856938,67.57082930394283],[-110.0095554652736,67.80376695982599],[-109.39169746851768,67.57082930394283],[-107.55324276283588,67.33847146997996],[-107.54873278836251,67.57082930394283],[-108.47415164949656,68.27142956470503],[-109.09995154607002,68.50617905554836],[-110.65199428231304,68.50617905554836],[-110.64123281743545,68.27142956470503],[-111.27281137681027,68.50617905554836],[-112.51444556580469,68.50617905554836],[-112.49873096138307,68.27142956470503],[-111.85731177170861,67.80376695982599],[-111.23466214867283,67.57082930394283]]],[[[-176.0531525438219,67.57082930394283],[-175.554173093588,66.87544887748396],[-173.72528279095164,66.87544887748396],[-173.8646790516932,66.64476149468327],[-172.04038443647553,66.64476149468327],[-172.181429595305,66.41460867017808],[-171.27155724008486,66.41460867017808],[-171.412003786833,66.18497962929195],[-170.80692399349851,66.18497962929195],[-170.78146918055288,65.72725080510028],[-171.94688990364392,65.2714927560302],[-173.21463232623887,64.59136814133473],[-173.03623907145976,64.365572703315],[-174.2233516626834,64.365572703315],[-174.1070602054099,64.59136814133473],[-174.99948808458095,64.59136814133473],[-174.88305521420517,64.81761290649612],[-175.77759505353174,64.81761290649612],[-176.02164399644326,65.49913045838252],[-179.02494275013407,65.49913045838252],[-180.0,65.13435334140222],[-180.0,68.50617905554836],[-179.1783684158705,68.50617905554836],[-178.84786646017378,68.03729633251957],[-177.92156630329458,68.03729633251957],[-178.06405904854233,67.80376695982599],[-176.83222151091897,67.80376695982599],[-176.97463488389948,67.57082930394283],[-176.0531525438219,67.57082930394283]]],[[[-179.96330119376455,68.74155746976196],[-180.0,68.68251079730099],[-180.0,68.74155746976196],[-179.96330119376455,68.74155746976196]]],[[[-177.95679576541036,71.13277656977812],[-178.78579244695086,70.89042348860607],[-178.91733762241947,71.13277656977812],[-177.95679576541036,71.13277656977812]]],[[[-179.55769886042555,71.13277656977812],[-180.0,71.00272874697612],[-180.0,71.13277656977812],[-179.55769886042555,71.13277656977812]]],[[[-97.27427322278822,73.34841604749354],[-97.27852846855794,73.34841604749354],[-97.30703131955029,73.59856320339661],[-96.97649878076557,73.59856320339661],[-97.27427322278822,73.34841604749354]]],[[[-91.02691308264035,73.59856320339661],[-91.04266818467636,73.84953187042956],[-90.36584800507087,73.59856320339661],[-91.02691308264035,73.59856320339661]]],[[[-115.5081735523545,75.1169875346859],[-115.37730470638758,74.8617869293553],[-115.84589140650402,75.1169875346859],[-115.5081735523545,75.1169875346859]]],[[[-101.40827296539688,75.3731057005176],[-101.83908940706927,75.63023735947142],[-101.15845459504561,75.63023735947142],[-101.40827296539688,75.3731057005176]]],[[[-99.71325225360067,75.3731057005176],[-100.47781978302197,75.63023735947142],[-100.81813718903378,75.63023735947142],[-100.91218527069246,75.88848636557535],[-99.54555394096994,75.88848636557535],[-99.64029217575408,76.14796085543676],[-97.58213839688639,76.14796085543676],[-97.07464572290374,75.63023735947142],[-97.75528053492735,75.63023735947142],[-97.94684513657981,75.1169875346859],[-98.95999869902836,75.1169875346859],[-98.89084396188301,74.8617869293553],[-99.71325225360067,75.3731057005176]]],[[[-119.02005038951596,75.88848636557535],[-118.01947594099961,75.3731057005176],[-119.3617082219466,75.88848636557535],[-120.04502388680785,75.88848636557535],[-120.06191358559825,76.40877378903164],[-118.68422947705137,76.40877378903164],[-118.5067018153747,76.14796085543676],[-119.19275307499726,76.14796085543676],[-119.02005038951596,75.88848636557535]]],[[[-109.68503140005447,76.9348946022634],[-110.5429251384436,77.20045825334446],[-111.93802682038616,77.20045825334446],[-112.46457027542598,77.4678734733707],[-110.01258280826333,77.4678734733707],[-110.19414971795794,77.20045825334446],[-107.40368408687446,75.88848636557535],[-106.6035330912348,75.63023735947142],[-105.2422634671875,75.63023735947142],[-103.60126131745575,74.8617869293553],[-104.79831438898927,75.3731057005176],[-105.47632267370774,75.3731057005176],[-105.37663792786911,75.1169875346859],[-106.72750934446717,75.1169875346859],[-106.62938676032394,74.8617869293553],[-110.33042896827394,74.8617869293553],[-110.2252786346336,74.60744923156163],[-111.90140369307176,74.60744923156163],[-111.79675570346193,74.35396651788678],[-113.13282264789272,74.35396651788678],[-114.03147117622396,74.8617869293553],[-114.83273784405549,75.1169875346859],[-114.49501998990597,75.1169875346859],[-114.6294345174072,75.3731057005176],[-116.1055224066957,76.14796085543676],[-116.96212434136771,76.40877378903164],[-118.68422947705137,76.40877378903164],[-118.36742243614796,76.9348946022634],[-117.14010645920676,76.67104354815035],[-116.10257363673102,76.67104354815035],[-116.28364858748554,76.9348946022634],[-115.2400192056841,76.40877378903164],[-113.21186723819523,75.88848636557535],[-112.18689374090332,75.88848636557535],[-111.70829418141217,75.63023735947142],[-110.1046878859623,75.1169875346859],[-108.07838076106522,75.1169875346859],[-108.90198418065877,76.14796085543676],[-108.69601969008632,76.40877378903164],[-109.68503140005447,76.9348946022634]]],[[[-121.41165521653039,75.88848636557535],[-121.93695811348752,76.14796085543676],[-120.72833955166914,75.88848636557535],[-121.41165521653039,75.88848636557535]]],[[[-90.04639914708183,77.4678734733707],[-90.04836163622443,77.4659119845977],[-90.27541631727802,77.60713215774851],[-90.04639914708183,77.4678734733707]]],[[[-101.68107864375777,78.28275412134289],[-102.39104910020252,78.28275412134289],[-103.78739597485351,78.8382550325961],[-102.35431693365607,78.8382550325961],[-101.47880101769138,78.55915474662139],[-100.05235227005527,78.55915474662139],[-98.92839711158135,77.73728785091588],[-99.98386156828586,77.73728785091588],[-101.68107864375777,78.28275412134289]]],[[[-83.1723570284383,62.574627679067305],[-82.29812662080023,62.574627679067305],[-82.21172980777824,62.79705369704118],[-82.00671648492087,62.574627679067305],[-82.38500124921777,62.352596074019665],[-83.25729629625143,62.352596074019665],[-83.34272870751516,62.130953221706385],[-83.54806131192933,62.352596074019665],[-83.1723570284383,62.574627679067305]]],[[[37.318047879545446,66.18497962929195],[35.20026860287474,66.18497962929195],[34.83604268679126,65.95586379974993],[34.65442893724922,65.2714927560302],[34.89387955460141,65.0443278719975],[34.77515225496421,64.59136814133473],[34.47767629524054,64.59136814133473],[33.69831865206475,65.0443278719975],[33.75560853983258,65.2714927560302],[33.02526523731554,65.95586379974993],[31.927106876978183,66.41460867017808],[30.926301281486325,67.33847146997996],[30.007189263493036,67.33847146997996],[29.2949662327606,66.87544887748396],[29.39444791816418,67.33847146997996],[28.88012690175783,67.80376695982599],[25.800533057699475,67.80376695982599],[25.451884962834626,67.57082930394283],[24.530402622757045,67.57082930394283],[23.84385059583587,67.1066818024953],[23.573405137540014,67.33847146997996],[22.96066379221115,67.33847146997996],[20.402057044189785,66.41460867017808],[18.863114182843617,66.18497962929195],[16.645275045955643,64.81761290649612],[15.12921334891983,64.365572703315],[13.292174048334484,62.79705369704118],[13.000113180272976,62.79705369704118],[12.404393861775247,62.352596074019665],[11.805312260310474,61.46830177643269],[11.517072733535851,61.46830177643269],[10.359357002324934,60.58987932398499],[10.073557569060473,60.58987932398499],[8.094180131580853,59.2825431398414],[6.976364659562202,58.8493574022735],[6.132876746523411,58.8493574022735],[5.835841251304399,59.2825431398414],[5.811518783864257,59.934723389677245],[5.518662156726142,60.15276590437247],[5.794955013057976,60.37115200555167],[5.7695711691704155,61.02837767871264],[5.473342173231987,61.248158916174944],[5.454662860316532,61.688811535478656],[6.3136760896527715,61.90969354251258],[7.15889581904284,62.79705369704118],[7.743017555165852,62.79705369704118],[8.611154561306714,63.46675608103289],[9.49329653111521,63.46675608103289],[10.08203110707742,63.69081803462274],[10.974319279637127,64.365572703315],[11.567875575248943,64.365572703315],[12.48352580097206,65.2714927560302],[12.80491705150329,65.95586379974993],[13.42636898750207,66.41460867017808],[13.435430707699657,66.64476149468327],[14.676185514858311,67.1066818024953],[14.71399521908943,67.80376695982599],[14.418105301566518,68.03729633251957],[14.442650258875815,68.50617905554836],[15.404026693022061,68.97757774705467],[16.028203250102113,68.97757774705467],[16.322594538222013,68.74155746976196],[16.945081626693547,68.74155746976196],[17.29702727881035,69.21425311199124],[18.548799367516107,69.21425311199124],[18.912133741339936,69.68962348953765],[19.568937853831777,69.92834647048089],[21.77792899761852,69.92834647048089],[22.163882759289002,70.40793025310987],[23.750768751077583,70.40793025310987],[24.15156445699943,70.89042348860607],[24.42786746656323,70.64881029869831],[25.382763666397715,70.64881029869831],[26.06696254353662,70.89042348860607],[26.337659866232187,70.64881029869831],[27.61085479934482,70.64881029869831],[27.982360630073813,70.89042348860607],[28.247452265901146,70.64881029869831],[29.202348465735625,70.64881029869831],[30.35662810029121,70.16777670681674],[30.98956380495632,70.16777670681674],[31.184796865105298,69.68962348953765],[32.758215214305984,69.68962348953765],[33.25712140980876,69.21425311199124],[34.195950476338076,69.21425311199124],[34.44141168396362,68.97757774705467],[36.313941355203774,68.97757774705467],[38.50190938042625,68.03729633251957],[39.11944281834573,68.03729633251957],[39.3507459715562,67.80376695982599],[40.27462412477371,67.80376695982599],[40.80992396412759,67.57082930394283],[41.26241424969324,67.1066818024953],[41.02583042917956,66.41460867017808],[41.25106653621961,66.18497962929195],[43.973925606224796,66.18497962929195],[44.36202906498672,66.41460867017808],[44.53571875473028,66.87544887748396],[44.012713773986505,67.1066818024953],[44.36847704066131,68.03729633251957],[43.84069615420838,68.27142956470503],[45.698194298156004,68.27142956470503],[46.433811812890404,67.80376695982599],[45.81789304407873,67.80376695982599],[45.417335664515484,67.57082930394283],[45.23506911811684,67.1066818024953],[45.96868467908163,66.64476149468327],[47.18488108922675,66.64476149468327],[48.08305895069438,67.33847146997996],[50.96110570600759,68.27142956470503],[52.19943780197268,68.27142956470503],[53.36057630227828,68.74155746976196],[53.864535759448984,68.50617905554836],[53.940245328413255,68.03729633251957],[54.86654548529248,68.03729633251957],[55.726987042940635,68.50617905554836],[58.210255420929485,68.50617905554836],[58.651716554286324,68.74155746976196],[59.14148106267531,68.50617905554836],[59.76229815717253,68.50617905554836],[60.20793427546516,68.74155746976196],[60.48316433915899,69.21425311199124],[60.30944830502099,69.4515970842836],[61.07974549991837,69.68962348953765],[61.25087247287251,69.4515970842836],[63.76133692047659,69.4515970842836],[64.7139747023461,68.97757774705467],[66.27441609504623,68.97757774705467],[66.74202478268778,69.21425311199124],[67.38336682320043,70.16777670681674],[66.92878838966337,70.89042348860607],[67.0983620124977,71.13277656977812],[67.41854263150074,71.13277656977812],[68.41144845960052,71.61972991657424],[69.15068911774141,72.60282401243668],[69.99783469705022,72.85055428668701],[70.19607108114452,73.09908237464562],[70.85270639183538,73.09908237464562],[70.7815945931082,72.60282401243668],[72.0863189734016,72.60282401243668],[72.66444641114838,72.10972643830185],[71.90107129754333,71.13277656977812],[72.03651662042921,70.89042348860607],[72.67498264927494,70.89042348860607],[73.18179377355548,71.13277656977812],[73.56533985050747,71.61972991657424],[74.20957627437085,71.61972991657424],[74.73088598100342,71.86434420582198],[75.13896233319355,72.35588390485842],[75.02194882906181,72.60282401243668],[75.46410253337228,72.35588390485842],[75.05399544310418,71.86434420582198],[75.1759309101659,71.61972991657424],[77.108640181756,71.61972991657424],[77.85031139240665,72.10972643830185],[79.7950107603785,72.10972643830185],[80.34120553605344,72.35588390485842],[80.79675435084253,72.85055428668701],[80.37391839685282,73.09908237464562],[80.60976963260313,73.34841604749354],[84.8921632568996,73.34841604749354],[86.06988861850031,73.84953187042956],[86.88702823769302,74.60744923156163],[87.22225324938066,74.60744923156163],[88.47341035395151,75.1169875346859],[89.48656391640006,75.1169875346859],[90.12906746757372,75.3731057005176],[92.16309232172917,75.3731057005176],[94.17443704719844,75.88848636557535],[95.54106837692098,75.88848636557535],[95.5450060797892,75.63023735947142],[97.24659310984833,75.63023735947142],[97.9326732039354,75.88848636557535],[98.95764670122729,75.88848636557535],[100.7119648090426,76.40877378903164],[101.47071859773912,76.9348946022634],[102.21008135779881,77.20045825334446],[105.3490601421696,77.20045825334446],[104.89191755060267,76.67104354815035],[106.62113892139558,76.67104354815035],[106.1750857110162,76.14796085543676],[107.20416260045005,76.14796085543676],[107.94480637891381,76.40877378903164],[111.38901665028108,76.40877378903164],[111.94064433359132,75.88848636557535],[112.9656178308832,75.88848636557535],[113.12681370686597,75.1169875346859],[111.99445748869601,74.35396651788678],[111.96498604821763,74.10133020958736],[112.63065113178664,74.10133020958736],[112.25059826997139,73.59856320339661],[112.91166334754088,73.59856320339661],[112.89242926191491,73.34841604749354],[118.16306756874131,73.34841604749354],[118.10211315485229,72.85055428668701],[119.41107311288773,72.85055428668701],[119.3825777590381,72.60282401243668],[121.66584542455158,72.60282401243668],[122.35623301846744,72.85055428668701],[123.10429098139107,73.34841604749354],[125.08078034645096,73.34841604749354],[125.02511952383114,73.09908237464562],[126.33839014521286,73.09908237464562],[127.05726971151087,73.34841604749354],[126.99502545590371,73.09908237464562],[127.97997842193999,73.09908237464562],[128.515648421092,72.60282401243668],[128.41249495967486,72.10972643830185],[129.06072808233216,72.10972643830185],[128.3254358788938,71.61972991657424],[128.28743440914738,71.37587639328258],[128.92971869909027,71.37587639328258],[128.85999318769922,70.89042348860607],[129.81769223096782,70.89042348860607],[129.784748181634,70.64881029869831],[130.4213456481903,70.64881029869831],[131.09462428865928,70.89042348860607],[132.190854422074,71.61972991657424],[132.73538890812122,71.13277656977812],[134.6564726221395,71.13277656977812],[135.35256159851932,71.37587639328258],[135.9948458884622,71.37587639328258],[135.93719509815165,71.13277656977812],[137.2179175741638,71.13277656977812],[137.92169875829094,71.37587639328258],[139.10834148352006,72.10972643830185],[139.75657460617734,72.10972643830185],[140.4921425691208,72.35588390485842],[141.769319946448,73.09908237464562],[141.88093994946016,73.34841604749354],[142.86918463199012,73.34841604749354],[141.56289222402626,72.60282401243668],[141.46756316965704,72.35588390485842],[145.36924557180197,72.35588390485842],[145.26655614876427,72.10972643830185],[148.5077217620507,72.10972643830185],[148.3998433399749,71.86434420582198],[149.36917172627713,71.86434420582198],[148.84053168732027,71.37587639328258],[149.4828159772632,71.37587639328258],[149.3847810962794,71.13277656977812],[151.30586481029763,71.13277656977812],[151.42906204454886,70.64881029869831],[154.29375064405227,70.64881029869831],[155.0371003703742,70.89042348860607],[156.6332654424885,70.89042348860607],[156.5218417769994,70.64881029869831],[158.74993290994652,70.64881029869831],[158.63607805310696,70.40793025310987],[159.58820964818008,70.40793025310987],[159.1589859294314,69.4515970842836],[164.17991482463952,69.4515970842836],[164.06730467956044,69.21425311199124],[166.25790583479554,69.21425311199124],[167.00418732819415,69.4515970842836],[167.63180344009515,69.4515970842836],[167.70310662055454,68.97757774705467],[168.63937145617462,68.97757774705467],[169.38733605655992,69.21425311199124],[170.72704612152472,69.92834647048089],[171.0426162849228,69.92834647048089],[170.90434627412634,69.68962348953765],[174.99523398204815,69.68962348953765],[174.84938872695685,69.4515970842836],[176.73223706265992,69.4515970842836],[176.58502556661804,69.21425311199124],[178.1497406775002,69.21425311199124],[178.00201981237538,68.97757774705467],[179.2503729265355,68.97757774705467],[179.10296817352815,68.74155746976196],[180.0,68.74155746976196],[180.0,68.68251079730099],[179.8904059423837,68.50617905554836],[180.0,68.50617905554836],[180.0,65.13435334140222],[179.15334585695095,64.81761290649612],[177.96434136497408,64.14022011060896],[178.36777660540142,63.69081803462274],[177.893774766203,63.243112027343926],[178.77391297229175,63.243112027343926],[179.3881753988629,62.574627679067305],[179.01274784520777,62.352596074019665],[178.1404527981741,62.352596074019665],[178.22253485534546,62.574627679067305],[177.05689431182805,62.574627679067305],[172.58150865714612,61.248158916174944],[170.6419220960049,60.37115200555167],[169.9770834726335,59.934723389677245],[169.54964133062947,60.58987932398499],[168.12064416430718,60.58987932398499],[166.60813737808323,60.15276590437247],[165.96414516241927,59.717004132737905],[166.03891661758374,60.15276590437247],[165.46969585708422,60.15276590437247],[164.54693764344728,59.717004132737905],[163.66618403098158,59.49961213441151],[161.8381014821984,58.201897894010706],[161.80604345071634,57.771757557747456],[162.91972780756424,57.771757557747456],[162.61173854921407,57.342780279859575],[162.57801671475931,56.70142875636287],[163.1201463165538,56.48819392653428],[162.8311569908114,56.0625260282674],[162.00506924074006,55.85008584417805],[161.4570348971284,55.42597549826887],[161.46192461189113,55.0028689284977],[162.00907108804026,54.79170277942658],[161.20898726578503,54.37005033140099],[160.6681999253658,54.37005033140099],[160.13831292688928,54.159577026472284],[159.62628376042585,53.73931990425008],[159.6597821130691,53.31996066328587],[159.143382284606,53.11060982352329],[158.41261989097643,52.4838350891913],[158.4396790048602,52.27532589864194],[157.50630184042632,51.44328769683385],[156.79050887536258,51.02842661002352],[156.4873896955048,51.23576306898886],[156.25279831262898,52.692550112494075],[155.9860149154985,52.692550112494075],[155.7840632345232,54.580757814994186],[155.5131994963097,54.580757814994186],[155.45575844444036,55.42597549826887],[155.71780804299155,55.63790348911759],[155.69319700559973,56.275227542798255],[155.95896591299348,56.70142875636287],[156.78724729099505,57.342780279859575],[156.79018965775938,57.55712545345546],[157.068076300618,57.55712545345546],[158.76356049262435,58.201897894010706],[160.55467472355835,59.49961213441151],[161.14563959791448,59.717004132737905],[162.08585114014258,60.37115200555167],[163.29900334566267,60.8089528595433],[163.95285978534332,61.248158916174944],[163.70754287053737,61.46830177643269],[164.08648018785814,61.90969354251258],[163.50749742052528,61.90969354251258],[162.5960046014141,61.688811535478656],[160.11826003290227,60.58987932398499],[159.92615697850204,61.248158916174944],[160.2851025169862,61.688811535478656],[157.39647491145132,61.688811535478656],[156.78979422794637,61.46830177643269],[155.24099437545277,60.37115200555167],[154.65450140759384,60.15276590437247],[154.05960200305447,59.717004132737905],[154.04879162621887,59.49961213441151],[154.89738507369793,59.49961213441151],[155.16849970958492,59.2825431398414],[154.87638555221187,59.06579294633749],[153.18603499569986,59.06579294633749],[152.61861097759365,58.8493574022735],[150.93163515151605,58.8493574022735],[151.49869902913568,59.2825431398414],[151.50301128378166,59.49961213441151],[149.2400954238375,59.49961213441151],[148.39670841891575,59.06579294633749],[148.111190708721,59.2825431398414],[148.39077192716647,59.717004132737905],[147.82388891957768,59.717004132737905],[146.97012578478586,60.37115200555167],[146.39972105439503,60.37115200555167],[145.54507552549737,61.248158916174944],[144.96983226737717,61.248158916174944],[144.98600069445683,62.130953221706385],[143.56838472874148,63.243112027343926],[142.9816259246823,63.243112027343926],[142.7065240567198,63.69081803462274],[141.52763967494522,63.69081803462274],[140.9535359219497,64.14022011060896],[139.17701726068452,64.14022011060896],[139.18247913178917,64.365572703315],[127.01457507174693,64.365572703315],[126.44530018828414,64.14022011060896],[122.8922628657538,64.14022011060896],[122.33497343510372,63.915303982049714],[120.85796953007427,63.915303982049714],[120.30772080300241,63.69081803462274],[115.00274108501674,63.69081803462274],[114.46819093832613,63.46675608103289],[112.11581235217015,63.46675608103289],[111.59002990751664,63.243112027343926],[108.94961528925036,63.243112027343926],[108.43313077927338,63.019879870687774],[107.55497896813428,63.019879870687774],[107.04371269607819,62.79705369704118],[91.27242582075682,62.79705369704118],[91.16281182687065,63.019879870687774],[86.18661823041563,63.019879870687774],[86.06602193094268,63.243112027343926],[77.85139867411428,63.243112027343926],[77.40510011902442,63.019879870687774],[72.1361892521897,63.019879870687774],[71.98381063352255,63.243112027343926],[69.63677541728588,63.243112027343926],[68.73152910036372,63.69081803462274],[68.14208690947642,63.69081803462274],[67.52409792298928,64.14022011060896],[66.33975214881251,64.14022011060896],[66.17505477153591,64.365572703315],[64.39438588470047,64.365572703315],[64.22527226760783,64.59136814133473],[63.03536842871315,64.59136814133473],[62.86316674449559,64.81761290649612],[60.477727172958055,64.81761290649612],[60.299548733505524,65.0443278719975],[54.3217442208222,65.0443278719975],[53.91776835122979,64.81761290649612],[50.63778894036567,64.81761290649612],[50.243902160595205,64.59136814133473],[49.05399832170051,64.59136814133473],[48.66514405098737,64.365572703315],[46.88447516415192,64.365572703315],[46.50196043135143,64.14022011060896],[44.42935532654206,64.14022011060896],[44.05376646854353,63.915303982049714],[42.87216334451998,63.915303982049714],[42.50135160587889,63.69081803462274],[36.606929697005896,63.69081803462274],[35.842848463760404,64.14022011060896],[36.138934907304595,64.14022011060896],[36.98611113404058,65.0443278719975],[37.583891585308905,65.0443278719975],[38.34486377164829,64.59136814133473],[39.237291650819316,64.59136814133473],[39.60513092200452,64.81761290649612],[39.89295458527126,65.72725080510028],[39.664782552059854,65.95586379974993],[37.55220886100484,65.95586379974993],[37.318047879545446,66.18497962929195]],[[66.4328051601805,68.74155746976196],[66.5912861966419,68.50617905554836],[67.21210329113912,68.50617905554836],[67.67777933712357,68.74155746976196],[67.99379687139354,69.21425311199124],[67.8408416478332,69.4515970842836],[67.2132255359322,69.4515970842836],[66.74202478268778,69.21425311199124],[66.4328051601805,68.74155746976196]],[[112.02890411426529,74.60744923156163],[111.35845409089005,74.60744923156163],[110.65839054426522,74.35396651788678],[109.95023335600729,73.84953187042956],[109.93687049847827,73.59856320339661],[110.59793557604772,73.59856320339661],[111.27691917475767,73.84953187042956],[111.99445748869601,74.35396651788678],[112.02890411426529,74.60744923156163]],[[74.70079961562692,68.97757774705467],[74.07662305854687,68.97757774705467],[73.59140667760315,68.74155746976196],[72.75464508681698,67.57082930394283],[71.20476018959289,66.64476149468327],[70.89997640960944,66.18497962929195],[71.05159167630573,65.95586379974993],[71.95698040104361,65.95586379974993],[72.56807207681098,66.41460867017808],[72.87136286188435,66.41460867017808],[73.79796359691208,66.87544887748396],[74.62761549871585,68.03729633251957],[74.70079961562692,68.97757774705467]],[[73.93971429274589,69.21425311199124],[73.66709229352387,69.68962348953765],[74.21374328995445,70.40793025310987],[73.9519147069664,70.89042348860607],[73.31344867812068,70.89042348860607],[72.80927492484346,70.64881029869831],[72.26915514131552,69.92834647048089],[72.54796248709084,69.4515970842836],[72.20409338730671,68.97757774705467],[72.48904859436544,68.50617905554836],[73.10986568886267,68.50617905554836],[73.59140667760315,68.74155746976196],[73.93971429274589,69.21425311199124]]],[[[35.25067557667201,64.14022011060896],[35.31012739972154,64.365572703315],[35.54676202021621,64.14022011060896],[35.25067557667201,64.14022011060896]]],[[[-20.09087328063903,65.95586379974993],[-16.46931838168758,65.95586379974993],[-16.23151383055658,66.18497962929195],[-15.626434037222095,66.18497962929195],[-14.59883835502274,65.72725080510028],[-14.181479322388311,65.2714927560302],[-13.881872523249426,65.2714927560302],[-13.769079491148064,64.81761290649612],[-14.787933382296973,64.14022011060896],[-15.972279156473748,64.14022011060896],[-16.737588578294705,63.69081803462274],[-17.62175186462565,63.69081803462274],[-18.377045191589843,63.243112027343926],[-18.96380399564902,63.243112027343926],[-19.32334114929563,63.46675608103289],[-20.205483119104123,63.46675608103289],[-20.56896281906215,63.69081803462274],[-22.337289391724052,63.69081803462274],[-22.11600847677525,63.915303982049714],[-22.340232011980994,64.59136814133473],[-23.012657830856057,64.81761290649612],[-23.169683296554723,65.2714927560302],[-23.549587876479308,65.49913045838252],[-22.584851660568688,66.18497962929195],[-21.599854488535463,65.95586379974993],[-21.447278748895727,65.49913045838252],[-21.07243570258256,65.2714927560302],[-20.473222104304796,65.2714927560302],[-20.017911686101698,65.72725080510028],[-20.09087328063903,65.95586379974993]],[[-16.94233061835949,65.49913045838252],[-17.17754731377711,65.2714927560302],[-17.04905890201219,64.81761290649612],[-16.688188777231208,64.59136814133473],[-16.093236857783857,64.59136814133473],[-15.856339116243417,64.81761290649612],[-15.97912011722159,65.2714927560302],[-16.341670867621325,65.49913045838252],[-16.94233061835949,65.49913045838252]]],[[[-75.12424319675812,68.03729633251957],[-74.90218564300845,67.80376695982599],[-75.07795146040633,67.33847146997996],[-76.38928762285211,67.1066818024953],[-76.91617549639291,67.33847146997996],[-76.35931007259708,68.03729633251957],[-75.12424319675812,68.03729633251957]]],[[[49.217215540807175,69.21425311199124],[49.73373733242487,68.97757774705467],[49.314410227213315,68.74155746976196],[48.38067959450601,68.74155746976196],[48.591329496454286,69.21425311199124],[49.217215540807175,69.21425311199124]]],[[[180.0,71.13277656977812],[180.0,71.00272874697612],[179.61804248093483,70.89042348860607],[178.6603434376662,70.89042348860607],[179.16157866356227,71.13277656977812],[180.0,71.13277656977812]]],[[[-85.64502341571459,80.28229084821639],[-86.49560417861501,80.58264681946866],[-87.97114730488195,80.58264681946866],[-89.50252834075894,81.51183922961647],[-88.23649824204915,81.19710592916543],[-87.11840062027748,81.19710592916543],[-87.25454744390902,81.51183922961647],[-84.63190306425078,81.51183922961647],[-84.89595980047685,82.15815664350461],[-83.63059105013035,81.83205279435492],[-82.87725407477036,81.83205279435492],[-82.00925868459254,81.51183922961647],[-80.51060475335927,81.51183922961647],[-81.1087977668475,82.15815664350461],[-75.04933851304054,82.15815664350461],[-75.13738017855185,82.490610643268],[-73.61414491201539,82.490610643268],[-72.77704129286293,82.15815664350461],[-72.01960888613706,82.15815664350461],[-72.09090964547893,82.490610643268],[-68.2828214791378,82.490610643268],[-67.47501444578185,82.15815664350461],[-61.41555519197491,82.15815664350461],[-60.278776681710035,81.51183922961647],[-56.90680533643515,81.51183922961647],[-56.88712842485108,81.83205279435492],[-53.49711203573117,81.83205279435492],[-52.78550702554364,81.51183922961647],[-50.162862645885404,81.51183922961647],[-50.4327852944498,82.15815664350461],[-46.717079257491356,81.83205279435492],[-46.195910114359165,82.490610643268],[-45.50947465073165,82.15815664350461],[-43.99460983727991,82.15815664350461],[-43.82994708224883,82.82993348776192],[-41.53225455967666,82.82993348776192],[-40.86458668148156,82.490610643268],[-38.57973378167688,82.490610643268],[-38.46866452958044,82.82993348776192],[-36.17097200700827,82.82993348776192],[-36.0487395619234,83.17671387114602],[-29.11624255247647,83.17671387114602],[-28.511996931767698,82.82993348776192],[-25.448406901671476,82.82993348776192],[-24.87061638284876,82.490610643268],[-22.204954666409954,82.490610643268],[-21.27163763550383,82.15815664350461],[-22.029070042229698,82.15815664350461],[-22.233627558292014,81.83205279435492],[-21.89603935026353,81.19710592916543],[-21.36151399993981,80.88748542446169],[-20.61996628626045,80.88748542446169],[-20.40524252123464,81.19710592916543],[-17.05094965591963,81.19710592916543],[-16.817812675944978,81.51183922961647],[-13.820504813478424,81.51183922961647],[-13.32395758334741,81.19710592916543],[-13.69665679060463,81.19710592916543],[-14.93176255466949,80.58264681946866],[-16.03841989936968,80.58264681946866],[-16.511747113310207,79.98614646202151],[-17.242178121009246,79.98614646202151],[-17.47344803026143,79.69395012523346],[-18.927171061713217,79.69395012523346],[-19.59400230450285,78.8382550325961],[-20.668811585400938,78.8382550325961],[-20.88444677625064,78.55915474662139],[-20.607044436457393,78.00885866660019],[-19.639330447125964,77.4678734733707],[-19.289046523245588,77.4678734733707],[-18.693573341794746,76.9348946022634],[-17.998982058907266,76.9348946022634],[-17.882799775693826,76.67104354815035],[-19.266176872328153,76.67104354815035],[-19.735460266125962,76.9348946022634],[-20.430051549013434,76.9348946022634],[-20.868657770221404,76.40877378903164],[-20.62259464949394,75.88848636557535],[-19.369270514460794,75.3731057005176],[-18.940103065521768,74.35396651788678],[-19.171035414882574,74.10133020958736],[-20.169533040236132,74.10133020958736],[-20.52060287962862,73.34841604749354],[-21.838262456335222,73.34841604749354],[-22.06119007092098,73.09908237464562],[-21.853836407724636,72.60282401243668],[-22.525062111322924,71.86434420582198],[-22.328231582463445,71.37587639328258],[-21.91185007034788,71.13277656977812],[-21.63417061407582,70.40793025310987],[-22.268925010791257,70.40793025310987],[-22.626110677558216,69.68962348953765],[-23.57016168707863,69.68962348953765],[-23.791110689715495,69.4515970842836],[-24.418726801616508,69.4515970842836],[-26.53127797794039,68.50617905554836],[-28.08332071418343,68.50617905554836],[-28.292148435757582,68.27142956470503],[-29.84006355571394,68.27142956470503],[-30.04430222863607,68.03729633251957],[-31.896902542394514,68.03729633251957],[-32.09583121059745,67.80376695982599],[-32.71174997940911,67.80376695982599],[-33.496934157754495,66.87544887748396],[-33.8017492081939,66.87544887748396],[-34.686447527258416,66.18497962929195],[-35.59406721726015,66.18497962929195],[-36.57619130884297,65.72725080510028],[-38.3825490858693,65.72725080510028],[-38.56608164493343,65.49913045838252],[-39.46707127104069,65.49913045838252],[-40.00891477806107,64.81761290649612],[-40.48626555512504,64.59136814133473],[-40.60999730923034,63.69081803462274],[-41.145394384757005,63.019879870687774],[-41.6152691472288,62.79705369704118],[-42.19939088335182,62.79705369704118],[-42.435040212371526,62.130953221706385],[-42.207692631009024,61.688811535478656],[-42.734952375653755,61.02837767871264],[-42.623771008892206,60.8089528595433],[-43.259851800552525,60.37115200555167],[-43.14971286598068,60.15276590437247],[-43.71893362648017,60.15276590437247],[-43.78256764543678,59.717004132737905],[-44.17661164039765,59.934723389677245],[-44.744658577036994,59.934723389677245],[-44.85737514747916,60.15276590437247],[-45.657331917509346,60.58987932398499],[-47.65792795036056,60.58987932398499],[-48.599524090065536,61.248158916174944],[-48.88714571912562,61.248158916174944],[-49.26866957430215,61.90969354251258],[-50.110084508971674,62.352596074019665],[-50.64877941484427,63.243112027343926],[-51.798738825321365,64.14022011060896],[-51.79035202462462,64.59136814133473],[-52.083176104940875,65.0443278719975],[-52.8307564113039,65.2714927560302],[-53.28845985436063,65.95586379974993],[-52.838841327293004,66.18497962929195],[-53.309912436315095,66.87544887748396],[-53.775713756440794,67.1066818024953],[-52.87411394375953,67.57082930394283],[-53.20180615061658,68.03729633251957],[-52.91600449407204,68.50617905554836],[-53.25539458578356,68.97757774705467],[-54.23049211691488,69.4515970842836],[-54.59005054472319,69.92834647048089],[-54.006644846562864,70.40793025310987],[-54.57027320865813,71.13277656977812],[-55.405872514522976,71.37587639328258],[-55.60406313409792,71.61972991657424],[-55.15911778349888,71.86434420582198],[-55.776670295353554,72.60282401243668],[-55.45048920028021,72.60282401243668],[-55.22127326080929,73.09908237464562],[-55.329398893889014,73.59856320339661],[-56.0159607734763,74.35396651788678],[-57.17000452681015,74.8617869293553],[-57.50646290935107,74.8617869293553],[-58.01574274341416,75.3731057005176],[-59.571587546585995,75.88848636557535],[-60.59656104387789,75.88848636557535],[-61.22142163689032,76.14796085543676],[-64.99470356481443,76.14796085543676],[-65.03811286547611,75.88848636557535],[-65.68075482443699,76.14796085543676],[-66.70983171387086,76.14796085543676],[-66.74640202762926,75.88848636557535],[-68.1130333573518,75.88848636557535],[-69.11101112254984,76.14796085543676],[-70.10528517363964,76.67104354815035],[-70.45112944779824,76.67104354815035],[-72.20175976313432,78.00885866660019],[-71.86231947307833,78.28275412134289],[-69.3774228755217,78.28275412134289],[-69.38370419587869,78.55915474662139],[-66.88741888751548,78.55915474662139],[-66.88561066401897,78.8382550325961],[-64.73599210222277,78.8382550325961],[-64.72735456185828,79.12026531844566],[-65.44630806817051,79.69395012523346],[-66.54627114069409,79.98614646202151],[-67.68242931871181,80.58264681946866],[-69.15797244497872,80.58264681946866],[-69.12851742744847,80.28229084821639],[-71.33071822588396,80.28229084821639],[-70.89776943611471,79.69395012523346],[-74.16864625688125,79.69395012523346],[-74.4462312293165,79.12026531844566],[-75.57219387462887,79.40541400016667],[-77.01890812369203,79.40541400016667],[-76.9659399949538,79.12026531844566],[-76.15933574715027,78.55915474662139],[-76.83211266819157,78.28275412134289],[-76.41182203521792,77.73728785091588],[-77.81910797749063,77.73728785091588],[-77.78646181126861,77.4678734733707],[-79.5378814306705,77.4678734733707],[-79.50191271522132,77.20045825334446],[-78.75139202760418,76.67104354815035],[-77.69812724778104,76.40877378903164],[-79.76465341060141,76.40877378903164],[-80.08783127651091,76.14796085543676],[-80.79791649201158,76.40877378903164],[-82.5200216276952,76.40877378903164],[-82.48901068518991,76.14796085543676],[-83.20886368196865,76.40877378903164],[-88.71960011615626,76.40877378903164],[-89.54188419631758,76.9348946022634],[-90.31395075027628,77.20045825334446],[-90.04836163622443,77.4659119845977],[-89.19458855487385,76.9348946022634],[-88.43503170404448,76.67104354815035],[-86.35996605909298,76.67104354815035],[-86.41622342332394,76.9348946022634],[-88.10424051450734,78.00885866660019],[-88.90161042775229,78.28275412134289],[-90.32155134064178,78.28275412134289],[-90.48468145794506,77.73728785091588],[-90.27541631727802,77.60713215774851],[-91.3865070253089,78.28275412134289],[-92.56349634496563,78.55915474662139],[-92.6810334055732,78.8382550325961],[-93.65612198791847,79.40541400016667],[-94.52076869720631,79.69395012523346],[-94.66786493710693,79.98614646202151],[-93.20700292170886,79.98614646202151],[-93.8733198099496,80.58264681946866],[-92.02889090211596,80.58264681946866],[-91.80854679947903,80.88748542446169],[-89.18963237936417,79.98614646202151],[-87.36355486011658,79.98614646202151],[-86.42255074260262,79.40541400016667],[-85.60494147713891,79.12026531844566],[-84.52506629186576,79.12026531844566],[-84.70813823490673,79.69395012523346],[-85.64502341571459,80.28229084821639]],[[-50.90601101670366,68.74155746976196],[-51.237494577829885,69.21425311199124],[-51.72002766931082,69.4515970842836],[-52.347643781211836,69.4515970842836],[-52.48926666653564,69.21425311199124],[-52.150985193646726,68.74155746976196],[-51.674370305077616,68.50617905554836],[-51.0535532105804,68.50617905554836],[-50.90601101670366,68.74155746976196]],[[-23.855811002579834,70.40793025310987],[-24.05262072085322,70.89042348860607],[-24.473295022372216,71.13277656977812],[-25.113656260378296,71.13277656977812],[-25.32955277854468,70.89042348860607],[-25.1253197960107,70.40793025310987],[-24.708778205573793,70.16777670681674],[-24.07584250090868,70.16777670681674],[-23.855811002579834,70.40793025310987]],[[-83.3384423405634,77.20045825334446],[-84.15189471771785,77.73728785091588],[-84.92374436423273,78.00885866660019],[-86.33729820879923,78.00885866660019],[-86.26282363112692,77.73728785091588],[-85.43109486347727,77.20045825334446],[-84.67974521610525,76.9348946022634],[-83.29056265033027,76.9348946022634],[-83.3384423405634,77.20045825334446]],[[-64.36245728461124,80.58264681946866],[-65.12914739210134,81.19710592916543],[-65.89872892383481,81.51183922961647],[-67.7720463378764,81.51183922961647],[-67.73804184290191,81.19710592916543],[-66.94465775557835,80.58264681946866],[-66.19224969620117,80.28229084821639],[-64.3570823641716,80.28229084821639],[-64.36245728461124,80.58264681946866]],[[-42.598196172174205,80.58264681946866],[-43.607945410320625,80.88748542446169],[-44.349493123999984,80.88748542446169],[-44.44262508000785,80.58264681946866],[-49.23814024037533,80.58264681946866],[-49.911100976595186,80.88748542446169],[-54.73116111551103,80.88748542446169],[-54.77142696387629,80.58264681946866],[-57.353627434843396,80.58264681946866],[-57.383446502459265,80.28229084821639],[-60.31971423370658,80.28229084821639],[-60.3376075752523,79.98614646202151],[-61.43325408680085,79.98614646202151],[-61.448569731678106,79.69395012523346],[-62.902292763129886,79.69395012523346],[-63.30291306102533,78.8382550325961],[-64.7477457660613,78.55915474662139],[-64.76261490863085,78.28275412134289],[-66.18255582152034,78.28275412134289],[-66.20899895374077,77.73728785091588],[-65.23118929525583,76.9348946022634],[-64.57177678710234,76.67104354815035],[-63.880088238785184,76.67104354815035],[-63.49471108803713,76.9348946022634],[-62.19918102662844,76.40877378903164],[-59.44381280953461,76.40877378903164],[-58.820242228211335,76.14796085543676],[-58.5466140492941,75.88848636557535],[-57.337734458695685,75.3731057005176],[-54.890479623728304,73.84953187042956],[-53.616556937588555,72.35588390485842],[-52.57424208669286,71.86434420582198],[-52.0088282566338,71.13277656977812],[-50.83287286298571,70.40793025310987],[-50.31827362349032,69.68962348953765],[-49.198246964763236,68.97757774705467],[-49.03421104317268,68.27142956470503],[-49.49534536347508,67.57082930394283],[-49.342814956594246,67.33847146997996],[-49.65213183104237,66.87544887748396],[-49.50273351731033,66.64476149468327],[-49.81344236062057,66.18497962929195],[-49.66690495540918,65.95586379974993],[-49.99094452550172,65.0443278719975],[-48.365494414904326,62.352596074019665],[-47.531721272303564,61.90969354251258],[-46.663247121304266,61.90969354251258],[-46.419072148163586,61.46830177643269],[-46.0109294285247,61.248158916174944],[-44.28519965416413,61.248158916174944],[-43.940869194329956,61.688811535478656],[-44.057824668306374,61.90969354251258],[-43.768333284639944,61.90969354251258],[-42.378323881892236,63.69081803462274],[-42.51868888464757,65.0443278719975],[-41.995264639921935,65.72725080510028],[-41.51840643276844,65.95586379974993],[-39.40583274171342,65.95586379974993],[-37.94886762093169,66.64476149468327],[-36.73267121078656,66.64476149468327],[-35.745972430518265,67.1066818024953],[-34.82920592242051,67.1066818024953],[-33.83014558215625,67.57082930394283],[-33.21582402210453,67.57082930394283],[-32.82320269927373,68.03729633251957],[-32.20566926135425,68.03729633251957],[-31.297667729850343,68.74155746976196],[-28.807719375964204,68.74155746976196],[-28.600420581121547,68.97757774705467],[-28.91978407436097,69.68962348953765],[-29.34443747287469,69.92834647048089],[-29.568600573018728,70.40793025310987],[-29.046319724167557,70.64881029869831],[-29.393358771835388,71.37587639328258],[-28.98725135333797,71.86434420582198],[-29.356001594411797,72.60282401243668],[-28.05127721411838,72.60282401243668],[-27.84692216609816,72.85055428668701],[-28.225730713540784,73.59856320339661],[-27.234133097186586,73.59856320339661],[-27.030077429970177,73.84953187042956],[-24.37670579246941,73.84953187042956],[-24.072450630912613,74.60744923156163],[-22.39632557247447,74.60744923156163],[-22.204816400302228,75.63023735947142],[-22.861121039119617,76.9348946022634],[-22.164387521945947,78.28275412134289],[-22.101890626598397,78.8382550325961],[-22.405445221557443,79.40541400016667],[-22.924909398205642,79.69395012523346],[-23.651770913931536,79.69395012523346],[-25.260564438537916,80.58264681946866],[-26.18157413885566,80.88748542446169],[-31.743181991450864,80.88748542446169],[-32.928342436702714,81.51183922961647],[-37.049640747594225,81.51183922961647],[-37.67703555317159,81.83205279435492],[-39.183709503891556,81.83205279435492],[-39.78560129861022,81.19710592916543],[-41.64909733489633,81.19710592916543],[-42.598196172174205,80.58264681946866]],[[-62.51741210914431,80.88748542446169],[-63.27608454417658,81.51183922961647],[-64.04382969077088,81.83205279435492],[-64.79716666613085,81.83205279435492],[-64.77473847540985,81.51183922961647],[-64.00050753650302,80.88748542446169],[-63.25579993991107,80.58264681946866],[-62.51802837677759,80.58264681946866],[-62.51741210914431,80.88748542446169]]],[[[140.2338654785769,73.34841604749354],[140.67639660545856,73.59856320339661],[141.9985267605975,73.59856320339661],[141.88093994946016,73.34841604749354],[140.2338654785769,73.34841604749354]]],[[[147.91175268426585,75.1169875346859],[147.7331504406041,74.8617869293553],[146.38731691044046,74.8617869293553],[146.22316341351828,75.1169875346859],[147.91175268426585,75.1169875346859]]],[[[142.3357053908967,75.3731057005176],[143.52976032745653,75.63023735947142],[143.3527178179744,75.3731057005176],[144.03072610269285,75.3731057005176],[144.1968562886212,75.1169875346859],[143.6956498501132,74.8617869293553],[143.02273308503138,74.8617869293553],[143.18370272617267,75.1169875346859],[141.83283130957463,75.1169875346859],[141.0039827897859,74.8617869293553],[139.6581492596223,74.8617869293553],[138.84690504927573,74.60744923156163],[138.17645502590045,74.60744923156163],[137.78021705978043,75.1169875346859],[137.10478135148142,75.1169875346859],[137.40404701924365,75.63023735947142],[139.1056340493028,75.63023735947142],[138.94566396730428,75.3731057005176],[139.962676394382,75.3731057005176],[141.1475384853738,75.63023735947142],[140.9796888214597,75.3731057005176],[142.3357053908967,75.3731057005176]]],[[[-96.00131499219977,78.28275412134289],[-93.89952230976597,77.4678734733707],[-93.19895446200523,77.4678734733707],[-93.10415411416142,77.20045825334446],[-94.15048037561834,77.20045825334446],[-94.0567275350862,76.9348946022634],[-93.1970734689337,76.40877378903164],[-92.43675394971713,76.14796085543676],[-91.064651430472,76.14796085543676],[-90.6624502977735,75.88848636557535],[-89.20412384046423,75.3731057005176],[-88.1871114133865,75.3731057005176],[-87.4775916579449,75.1169875346859],[-84.10041311644977,75.1169875346859],[-84.11906170507562,75.3731057005176],[-81.74603270856095,75.3731057005176],[-81.7603624523716,75.63023735947142],[-80.04779886665561,75.1169875346859],[-80.05502758274687,74.60744923156163],[-91.11745296843867,74.60744923156163],[-91.48875954598297,74.8617869293553],[-91.57715283697891,75.3731057005176],[-92.37073945992667,75.88848636557535],[-94.23033655034386,76.40877378903164],[-95.60802065889075,76.40877378903164],[-95.6977614613747,76.67104354815035],[-94.66022863889894,76.67104354815035],[-94.75131881797367,76.9348946022634],[-96.11382522703589,77.73728785091588],[-97.42125590508927,78.28275412134289],[-96.00131499219977,78.28275412134289]]],[[[103.85536849699689,78.28275412134289],[101.72545712766265,78.28275412134289],[100.95858619626084,78.00885866660019],[99.89842081283597,78.00885866660019],[100.3636967728195,78.55915474662139],[101.50117667668238,78.8382550325961],[103.65079523847857,78.8382550325961],[103.85536849699689,78.28275412134289]]],[[[98.82439448588183,79.69395012523346],[98.75687313748288,79.40541400016667],[99.48023026201449,79.40541400016667],[98.99328835458682,78.8382550325961],[96.12713027219192,78.8382550325961],[96.17404804383884,79.12026531844566],[94.37425606838362,79.12026531844566],[94.0550518280276,79.40541400016667],[94.5137660569431,79.98614646202151],[93.05290404154502,79.98614646202151],[92.73324125755921,80.28229084821639],[93.52065722594901,80.58264681946866],[94.62731457064919,80.58264681946866],[95.80302476139913,80.88748542446169],[96.40357592161834,80.28229084821639],[95.91694842297822,79.69395012523346],[98.82439448588183,79.69395012523346]]]]}}
