{"type":"Feature","properties":{"id":"habichtsadler","sourceUrl":"https://commons.wikimedia.org/wiki/File:Hieraaetus_fasciatus_area.PNG","author":"R. Altenkamp (Accipiter), Berlin","license":"CC BY 3.0","licenseUrl":"https://creativecommons.org/licenses/by/3.0","sourceImageSha256":"ac70fdaa52d26f032d60bd90a01611cf2687f1c5db9a0ba3560286c185b14e79","registration":{"proj_string":"+proj=robin +R=1 +lon_0=0","parameters_1000px":[374.43537491982596,-377.8216609969809,147.8297577585164,486.2328784858786],"coast_rmse_capped15_px":3.106339454650879,"coast_median_px":0.7127648591995239,"coast_p90_px":4.490983009338379,"sample_count":15053,"image_width":2456,"image_height":1916,"pixel_transform_native":[919.6132808030925,-927.929999408585,363.06988505491626,1194.1879495613177],"transform_definition":"pixel_x=sx*projected_x+tx; pixel_y=sy*projected_y+ty","validation":"Odd coastline samples withheld from affine fit. Normalized to 1000px width.","controls":[[-5.6,36,283.70089285714283,640.0401785714286],[7.05,57.98,481.05803571428567,298.77678571428567],[77.55,8.08,1395.205357142857,1041.607142857143],[20,-34.8,618.1116071428571,1729.6160714285713],[51.3,12,1038.8660714285713,989.5267857142857],[-17.5,14.7,119.23660714285714,964.8571428571428],[139.7,35.7,2103.772321428571,644.1517857142857]],"review_bounds":null,"all_fits":[{"proj_string":"+proj=gall +R=1 +lon_0=0","parameters_1000px":[428.9625431147216,-397.5159793883418,148.32368680040486,484.8483301666996],"coast_rmse_capped15_px":7.051433563232422,"coast_median_px":3.8367815017700195,"coast_p90_px":13.707350730895996,"sample_count":12784},{"proj_string":"+proj=eqc +R=1 +lon_0=0","parameters_1000px":[302.4445359500626,-357.5330658991529,146.75816759310968,484.8146082207216],"coast_rmse_capped15_px":7.284379959106445,"coast_median_px":3.248990535736084,"coast_p90_px":16.69632339477539,"sample_count":14101},{"proj_string":"+proj=mill +R=1 +lon_0=0","parameters_1000px":[302.80335223805776,-330.7630401574546,149.89499169822585,484.03105753931516],"coast_rmse_capped15_px":7.287477970123291,"coast_median_px":4.283295631408691,"coast_p90_px":14.074874877929688,"sample_count":12453},{"proj_string":"+proj=merc +R=1 +lon_0=0","parameters_1000px":[302.6039710936529,-322.57640257933423,149.66505465755986,484.20261814632966],"coast_rmse_capped15_px":7.5907087326049805,"coast_median_px":4.600357532501221,"coast_p90_px":15.260835647583008,"sample_count":11997}]},"includedColors":["#008000"],"adaptation":"Inverse map projection; present seasonal range colors combined; 3px border closing; contours simplified by 0.45 source pixels; components below 4 source pixels omitted; split at the antimeridian."},"geometry":{"type":"MultiPolygon","coordinates":[[[[11.848661180250698,31.952352858522733],[12.087888462481757,32.14510780582117],[12.090675890130962,32.20936075798245],[12.39885576738045,32.20936075798245],[12.395997290840466,32.14510780582117],[12.544293723813903,32.01660389614456],[12.527261359398464,31.631105240774303],[11.835275397978211,31.631105240774303],[11.848661180250698,31.952352858522733]]],[[[20.816100687693115,32.4663801502232],[20.96543742779808,32.40212408448617],[21.032756895045306,32.273614428436964],[21.013399082787114,32.01660389614456],[20.39746414758906,32.01660389614456],[20.325127835204626,32.08085553189362],[20.33448760655475,32.20936075798245],[20.816100687693115,32.4663801502232]]],[[[-5.151096450063266,31.30986657036558],[-5.377964649718833,31.11712558138089],[-5.531467531748792,31.11712558138089],[-5.757974617104745,30.9243849315827],[-5.9867901248242825,30.860137936923515],[-6.136224576093969,30.66739605845185],[-6.288162191944776,30.603148334049255],[-6.441401402350326,30.603148334049255],[-6.6684462540080185,30.4746519977165],[-6.821620827508423,30.4746519977165],[-7.045502975454111,30.217654654062663],[-7.122026400798367,30.217654654062663],[-7.272074654949928,30.089153006149527],[-7.270584660963833,30.024901298018214],[-7.500013296228218,30.024901298018214],[-7.6483000335946425,29.8321557300844],[-7.8011592085481745,29.8321557300844],[-8.025610741100886,29.639389834154105],[-8.176748682483659,29.57513332467368],[-8.329485349349227,29.57513332467368],[-8.5518421835898,29.318101518273682],[-8.628150303111822,29.318101518273682],[-8.777346867161983,29.18958230401639],[-8.84850740334157,28.996799584979524],[-9.002703754790078,29.06106099671798],[-9.231450579196725,29.06106099671798],[-9.677910240859559,28.675485374296713],[-9.658441544799437,27.968557501226762],[-9.504729471786721,27.904289199635297],[-9.501364670580323,27.77575168104663],[-9.805238450152709,27.77575168104663],[-10.555723042221034,27.45440304566062],[-11.92196430059951,27.45440304566062],[-11.995805127919567,27.390132574941045],[-13.817147143636529,27.390132574941045],[-13.89066040587366,27.32586188139292],[-14.27004176621337,27.32586188139292],[-14.130480970041432,27.647213013479263],[-13.98104433538058,27.711482485517866],[-13.912459670959556,27.904289199635297],[-13.760468974436357,27.904289199635297],[-13.686912977296146,27.968557501226762],[-13.306868502532305,27.968557501226762],[-13.233228717630153,28.032825483371546],[-13.00516120244586,28.032825483371546],[-12.781700602179242,28.16136044638994],[-12.62960077063592,28.16136044638994],[-12.482039949591913,28.289894002833844],[-12.405962368715848,28.289894002833844],[-11.888844987041931,28.7397491342855],[-11.812668567850883,28.7397491342855],[-11.51670819436008,28.996799584979524],[-11.440473886045263,28.996799584979524],[-11.144143053538077,29.253842178134974],[-11.146318247338542,29.318101518273682],[-10.629053945188517,29.8321557300844],[-10.484733798604829,30.089153006149527],[-10.493416092257034,30.346154211145624],[-10.342466461453085,30.410403305727],[-10.18932401290139,30.410403305727],[-10.11487415776712,30.4746519977165],[-9.502175863765501,30.4746519977165],[-9.04838729159738,30.66739605845185],[-8.89891150277095,30.795890819864216],[-8.934396896520154,31.952352858522733],[-9.013429008117896,32.01660389614456],[-9.0175662800897,32.14510780582117],[-9.173735640083665,32.20936075798245],[-9.255068076826058,32.33786885724864],[-9.332148754238158,32.33786885724864],[-9.740519854860503,32.980463672781596],[-9.585994135246855,32.980463672781596],[-9.28589446197259,33.23753293672875],[-8.67565688383319,33.49462396122957],[-8.520831046730173,33.49462396122957],[-7.909330528419218,33.751739318017954],[-7.228251400022956,34.33035117346846],[-7.1560652552040915,34.523257137478645],[-6.9300302113316805,34.78049559328021],[-6.9336293294129625,34.90912862161639],[-6.783254033696295,35.10211697052923],[-6.78861277332688,35.29510908069026],[-6.636193064347505,35.42378401472101],[-6.639728251898215,35.55247029836316],[-6.5634323305345825,35.616817837788474],[-6.566956322510376,35.74552199507216],[-6.332617130127014,35.74552199507216],[-6.101569581324543,35.87423863487613],[-5.938863156805158,35.616817837788474],[-5.541134333396435,35.29510908069026],[-5.536760318094306,35.10211697052923],[-5.298888071715163,34.90912862161639],[-5.143198428124896,34.90912862161639],[-4.90584652891188,34.71618258986791],[-4.672493644664179,34.71618258986791],[-4.593524251454562,34.65187187304154],[-3.8158819304674725,34.65187187304154],[-3.1904955327523656,34.39465106339497],[-2.4136500342840304,34.39465106339497],[-2.1822714920937965,34.58756340238059],[-2.1056119179394757,34.71618258986791],[-2.107250378114698,34.90912862161639],[-2.185664690547911,34.97344872745394],[-2.187958554979716,35.23077572837247],[-2.110011725104953,35.23077572837247],[-1.7225606831451232,35.55247029836316],[-1.7230212341315496,35.616817837788474],[-1.5668789406991939,35.616817837788474],[-1.4892068936075469,35.68116838446774],[-1.2549306686614043,35.68116838446774],[-1.0993380115131806,35.80987872629979],[-0.6305333238178594,35.80987872629979],[-0.24025452086695198,36.19608782536061],[0.07283244877072517,36.32485173159905],[0.22944201440708337,36.32485173159905],[0.3078317805351607,36.38923910453584],[0.4644845934103837,36.38923910453584],[0.5429613117313205,36.45363016666682],[0.8563536961485513,36.45363016666682],[0.9349613461327232,36.518024975019294],[1.4051804599148627,36.518024975019294],[1.4839634278782337,36.582423586653576],[1.9543134808546294,36.582423586653576],[2.2691487494628215,36.71123244817689],[2.504455323989422,36.71123244817689],[2.5836162042796462,36.77564281235617],[2.582167747670272,36.646826058663486],[2.815837801261282,36.518024975019294],[3.9130157334196074,36.518024975019294],[3.9924970437523446,36.582423586653576],[5.325155527185466,36.582423586653576],[5.486545626717586,36.77564281235617],[5.565003178675369,36.77564281235617],[5.80529196254999,36.96889832504219],[5.806941034756981,37.033325160217856],[5.964033744245408,37.033325160217856],[6.429846582857783,36.840057208398775],[6.665285526907878,36.840057208398775],[6.828043646431748,37.033325160217856],[7.063682710664388,37.033325160217856],[7.371602359058158,36.840057208398775],[7.999439543191744,36.840057208398775],[8.15639883922514,36.840057208398775],[8.315706128216078,36.90447569353774],[8.639537407945351,37.16219167099202],[9.035081535607498,37.22663146138976],[9.116314377757336,37.29107568505823],[9.352223253947335,37.29107568505823],[9.346858024414749,37.16219167099202],[9.422756996937675,37.097756256407635],[9.81840510206101,37.16219167099202],[9.815600654314823,37.097756256407635],[9.571735144331408,36.90447569353774],[9.555645098805286,36.518024975019294],[9.474644267622402,36.45363016666682],[9.453881216513858,35.9386017775545],[9.677959828825243,35.68116838446774],[9.75605190380729,35.68116838446774],[9.982319191718535,35.488125709546985],[9.95095376819171,34.71618258986791],[9.873169473442475,34.71618258986791],[9.790339337090353,34.58756340238059],[9.632378590491221,34.523257137478645],[9.476930036364415,34.523257137478645],[9.236680257523137,34.33035117346846],[9.072167352034782,34.073171653115885],[9.067616160563869,33.944593352095794],[7.284027973800202,33.944593352095794],[7.208286498398835,34.008881581259615],[7.217396186314654,34.33035117346846],[7.141549596876496,34.39465106339497],[5.199435850705657,34.39465106339497],[5.120447343136614,34.33035117346846],[4.188470079501929,34.33035117346846],[4.109761495818702,34.266053327810944],[2.5568604677054334,34.266053327810944],[2.4785875702660403,34.201757486082506],[2.0128352406181946,34.201757486082506],[1.9347210830131218,34.137463607955844],[1.3914806041415009,34.137463607955844],[1.0805136692139976,34.008881581259615],[0.925380179867546,34.008881581259615],[0.6146522838089339,33.816022260737896],[-0.08290471300321144,33.751739318017954],[-0.2377657419164028,33.62317843726249],[-0.3926677904707184,33.62317843726249],[-0.6244077457926622,33.36607556823055],[-1.0107911171444555,33.23753293672875],[-1.4730412646973838,32.9161994557169],[-1.6271416987858816,32.8519363979502],[-1.781593580658509,32.8519363979502],[-2.0113652759511105,32.59489495751683],[-2.165670925685596,32.59489495751683],[-2.2422967725238596,32.53063709453863],[-2.24177155781937,32.4663801502232],[-2.395445356021985,32.40212408448617],[-2.626741225168718,32.40212408448617],[-2.7025832852693883,32.273614428436964],[-3.009444127094905,32.14510780582117],[-3.1634985412742584,32.14510780582117],[-3.4692223652211527,31.952352858522733],[-3.623170943567603,31.952352858522733],[-4.082237819493635,31.75960293396225],[-4.2341763727810084,31.631105240774303],[-4.464838359921092,31.631105240774303],[-4.617579486882955,31.566856951030353],[-4.692359588717627,31.438361285090124],[-4.846031388967393,31.438361285090124],[-5.151096450063266,31.30986657036558]]],[[[11.045840676138482,33.044729089274036],[11.03528707350157,32.78767445935902],[10.417626501256649,32.78767445935902],[10.432619252448516,33.173263681098675],[10.89653137125289,33.173263681098675],[11.045840676138482,33.044729089274036]]],[[[25.391865000280067,35.10211697052923],[25.788164358719797,35.16644504381782],[25.703488429180563,35.10211697052923],[25.391865000280067,35.10211697052923]]],[[[23.22883718749945,35.29510908069026],[23.24114768913233,35.42378401472101],[23.331578833834918,35.55247029836316],[23.409629112704014,35.55247029836316],[23.481417671451993,35.488125709546985],[23.715506084395347,35.488125709546985],[23.858887976709806,35.35944515729167],[24.71675634246687,35.35944515729167],[24.788185237412506,35.29510908069026],[25.25598965238642,35.29510908069026],[25.24932556093694,35.23077572837247],[25.391865000280067,35.10211697052923],[25.080241571379567,35.10211697052923],[24.995788441179442,35.03779145203244],[24.372704790822564,35.03779145203244],[24.379088856353448,35.10211697052923],[24.236016772565016,35.23077572837247],[23.92422945306597,35.23077572837247],[23.852576407464667,35.29510908069026],[23.22883718749945,35.29510908069026]]],[[[27.336881696392997,37.74231421711134],[27.88845725478764,37.74231421711134],[27.959050159443684,37.677837348378745],[27.9265034422189,37.41997766223376],[27.218368177284116,37.41997766223376],[27.25008960400046,37.677837348378745],[27.336881696392997,37.74231421711134]]],[[[14.625068988028039,37.35552439949411],[14.773881609152198,37.22663146138976],[14.757033539339028,36.96889832504219],[14.587621653820312,36.77564281235617],[14.195333894031403,36.77564281235617],[13.747964082446543,37.16219167099202],[13.59467611458822,37.22663146138976],[13.358835015675423,37.22663146138976],[13.28403785711397,37.29107568505823],[13.126765272987303,37.29107568505823],[12.74833624307463,37.548898062971865],[12.440691334742048,37.677837348378745],[12.204371149594309,37.677837348378745],[12.12915558636937,37.74231421711134],[12.139900001397207,37.935774420989574],[12.308626089721908,38.1292802372037],[12.462775766503619,38.064773133822946],[12.620602230073752,38.064773133822946],[12.703310147193962,38.1292802372037],[13.019057393171607,38.1292802372037],[13.401760944537878,37.935774420989574],[13.638359871376755,37.935774420989574],[13.721299999872656,38.000271214421105],[14.115748655420461,38.000271214421105],[14.360983188576595,38.1292802372037],[14.834604057543059,38.1292802372037],[15.15944852536278,38.25831022816764],[15.3964011556944,38.25831022816764],[15.480052413218793,38.32283323200091],[15.494149358134576,38.51643497540917],[15.731389294871365,38.51643497540917],[15.805657960853987,38.45189554735255],[16.200937530547517,38.45189554735255],[15.614653546502113,38.000271214421105],[15.377984353173431,38.000271214421105],[15.229288115015114,38.1292802372037],[15.07141449202629,38.1292802372037],[14.987999183625753,38.064773133822946],[14.637793741067227,37.548898062971865],[14.625068988028039,37.35552439949411]]],[[[21.228371598812146,39.679157587993664],[21.546482900763664,39.679157587993664],[21.69156883937858,39.54986608016686],[22.08187749116856,39.48523015390962],[22.15425405681671,39.420600700459055],[22.710234820773476,39.420600700459055],[22.537057182619016,39.29136097543534],[22.52283263877496,39.16214643258438],[22.66725931713896,39.03295660030043],[22.639109178094543,38.774649185430434],[22.94169381847182,38.64553066399922],[23.157857957153578,38.45189554735255],[23.689743217301206,38.25831022816764],[23.647379487740324,37.87128269556531],[23.719220802993007,37.80679598023038],[23.417782180716955,37.935774420989574],[23.352801752842822,38.064773133822946],[23.037148825702555,38.064773133822946],[22.786851709146617,37.935774420989574],[22.766684212551702,37.74231421711134],[22.904170294784826,37.548898062971865],[23.06162508628421,37.548898062971865],[23.054920787145004,37.48443553085385],[22.969556587675413,37.41997766223376],[22.812193195467685,37.41997766223376],[22.667988107535756,37.548898062971865],[22.51053331603637,37.548898062971865],[22.425284717354987,37.48443553085385],[22.412305769129482,37.35552439949411],[22.615860950018536,37.033325160217856],[22.662385208434863,36.71123244817689],[22.58394968359266,36.71123244817689],[22.43969477826418,36.840057208398775],[22.282735482230784,36.840057208398775],[22.11333653453946,36.71123244817689],[22.034901009697258,36.71123244817689],[21.836616570055533,37.097756256407635],[21.679479107104672,37.097756256407635],[21.51010174639041,36.96889832504219],[21.497939002063806,36.840057208398775],[21.353053648552006,36.96889832504219],[21.395922665598114,37.41997766223376],[20.887875720596256,37.87128269556531],[21.070612165601524,38.1292802372037],[21.30742260008476,38.1292802372037],[21.392769419421676,38.19379258261812],[21.40565466847609,38.32283323200091],[21.181460108685947,38.45189554735255],[21.023348280808534,38.45189554735255],[20.93793860895214,38.387361652314304],[20.87158792416849,38.51643497540917],[20.50766790646077,38.839217154729866],[20.520433759481858,38.96835305818046],[20.59325581716591,38.90379100786529],[20.830934192619058,38.90379100786529],[20.916667647119986,38.96837080348746],[20.929750975450272,39.097548457062004],[20.857001997647814,39.16214643258438],[20.619026191772505,39.16214643258438],[20.533249216266682,39.097548457062004],[20.524680307138162,39.01130998140657],[20.526820204314845,39.03295660030043],[20.235171528741258,39.29136097543534],[20.082790353412655,39.355977660665076],[19.94949299828939,39.61450853843912],[20.11498204198184,39.679157587993664],[20.207601272240005,39.808475698316215],[20.220788042755817,39.9378208864713],[20.147759445127562,40.002485343737135],[20.54604652631404,40.002485343737135],[20.851025053111144,39.87314487791813],[21.010235650620963,39.87314487791813],[21.228371598812146,39.679157587993664]],[[22.169103276066828,38.064773133822946],[22.326929739636956,38.064773133822946],[22.47138647336145,37.935774420989574],[22.70798540020033,37.935774420989574],[22.793619077472144,38.000271214421105],[22.814057893121404,38.19379258261812],[22.439545301164365,38.387361652314304],[22.044385645319043,38.387361652314304],[21.958710878966773,38.32283323200091],[21.94549271474935,38.19379258261812],[22.169103276066828,38.064773133822946]]],[[[20.520433759481858,38.96835305818046],[20.520413743857144,38.96837080348746],[20.524680307138162,39.01130998140657],[20.520433759481858,38.96835305818046]]],[[[8.805118626727555,39.29136097543534],[8.558896088922436,39.097548457062004],[8.553545865319322,38.96837080348746],[8.395044304014188,38.96837080348746],[8.23911418625049,39.03295660030043],[8.0907403203517,39.29136097543534],[8.098468607199353,39.48523015390962],[8.268010261659285,39.74381328815714],[8.273387849835464,39.87314487791813],[8.119489593295922,40.002485343737135],[8.201844075515703,40.067174759754025],[8.209993837950302,40.26128517123143],[8.05315103320887,40.326002855905465],[8.055843236966373,40.39072772765163],[8.220995055419147,40.520199224679125],[9.278205303130855,40.90879121531015],[9.4286074949613,40.7144615766373],[9.412716109873955,40.39072772765163],[9.32978107174048,40.326002855905465],[9.299197775630272,39.679157587993664],[9.21669771240482,39.61450853843912],[9.199086341512167,39.226750585734635],[8.805118626727555,39.29136097543534]]],[[[19.583737552005516,39.9378208864713],[19.749472363941084,40.002485343737135],[19.829129780178377,40.002485343737135],[19.74300017469309,39.9378208864713],[19.583737552005516,39.9378208864713]]],[[[27.74266344863414,40.19657462561492],[27.813190551569857,40.131871171093024],[27.767642432690668,39.808475698316215],[27.210586768236407,39.808475698316215],[27.26424558958196,40.19657462561492],[27.74266344863414,40.19657462561492]]],[[[6.817416039653938,43.57206561059715],[6.652450623718926,43.50692857283799],[6.401636712878183,43.31157492316267],[6.399239767524225,43.24647602459207],[6.237090256606205,43.24647602459207],[6.153715040213688,43.18138653358709],[5.586403831575977,43.18138653358709],[4.947321036243835,43.50692857283799],[4.378944507085473,43.50692857283799],[4.299369956105098,43.57206561059715],[4.055688077051984,43.57206561059715],[3.9759636308142805,43.63721231074276],[3.8134476164833653,43.63721231074276],[3.4844687029892465,43.44180114635757],[3.0763266533322278,43.31157492316267],[2.7477991071882633,43.05123557133976],[2.7417126456385805,42.6610032023755],[2.8990793069892,42.40102802747096],[2.8959264987206357,42.206138729604284],[2.8143114565374714,42.14119290407979],[2.8102747701418718,41.881494646347704],[2.6474796546305654,41.75169585095836],[2.324244045131445,41.62193008459375],[2.163564141194429,41.62193008459375],[1.839615115377909,41.362496064887026],[1.0366213744113482,41.23282702690163],[0.3945706311961222,40.90879121531015],[0.394166653224102,40.7144615766373],[0.2341855416318061,40.64970004747778],[-0.16515483983835874,40.326002855905465],[-0.2447002833711855,40.131871171093024],[-0.3244102005159044,40.131871171093024],[-0.6424056107143868,39.87314487791813],[-0.8005778877541084,39.61450853843912],[-0.7990481344140679,39.226750585734635],[-0.7192450759734393,39.097548457062004],[-0.40154278328035514,38.839217154729866],[-0.401294950953318,38.71008704136887],[-0.559257082608135,38.58097999482711],[-0.7963262977916943,38.51643497540917],[-1.189925218251793,38.19379258261812],[-1.346238828418717,37.935774420989574],[-1.3446527988761534,37.677837348378745],[-1.5017602691554803,37.61336531624661],[-1.8167616999099514,37.61336531624661],[-2.130522004455619,37.48443553085385],[-2.442518611481901,37.22663146138976],[-2.5196901873276043,37.097756256407635],[-2.517544135778635,36.90447569353774],[-2.5953129390624903,36.840057208398775],[-2.9885550168218833,36.90447569353774],[-3.222242640596233,36.77564281235617],[-3.379157744511797,36.77564281235617],[-3.4585890672461685,36.840057208398775],[-3.694028011296263,36.840057208398775],[-3.7714455043007074,36.77564281235617],[-4.869851231709657,36.77564281235617],[-4.946919536019593,36.71123244817689],[-5.103790585703992,36.71123244817689],[-5.25772066478344,36.582423586653576],[-5.492895691271639,36.582423586653576],[-5.64653828050899,36.45363016666682],[-5.672224897024456,37.48443553085385],[-5.911780299718072,37.61336531624661],[-6.148031372783925,37.61336531624661],[-6.388023874022094,37.74231421711134],[-7.806361024179739,37.74231421711134],[-8.035696234843908,37.548898062971865],[-8.021792668889303,37.16219167099202],[-8.257566207712436,37.16219167099202],[-8.333776316509384,37.097756256407635],[-8.648051242411103,37.097756256407635],[-8.88884198176499,37.22663146138976],[-9.281910479952982,37.22663146138976],[-9.512307288640827,37.097756256407635],[-9.365913014355204,37.35552439949411],[-9.374061962588662,37.548898062971865],[-9.298045680328634,37.61336531624661],[-9.317276206174789,38.064773133822946],[-9.398997071241105,38.1292802372037],[-9.472432817079339,39.74381328815714],[-9.398988473754418,39.87314487791813],[-9.245827146434522,40.002485343737135],[-9.08651231395993,40.002485343737135],[-9.009817654936963,40.067174759754025],[-8.770766797569566,40.067174759754025],[-8.693951500711385,40.131871171093024],[-7.578012660685321,40.131871171093024],[-7.500785501542904,40.19657462561492],[-7.531257304705132,40.973582940071246],[-7.779495445756706,41.168004329697325],[-8.503738017509857,41.23282702690163],[-8.586899604030426,41.2976575890197],[-8.90769567473233,41.2976575890197],[-8.923349230459683,41.62193008459375],[-8.849279201010534,41.75169585095836],[-8.688485370861708,41.75169585095836],[-8.453314497698104,41.881494646347704],[-7.326955570914108,41.881494646347704],[-7.243917427796587,41.816591095377625],[-6.359236697304047,41.816591095377625],[-6.033245943052795,41.6868088637801],[-6.001897659510198,40.7144615766373],[-5.919937093012377,40.64970004747778],[-5.040776716634637,40.64970004747778],[-4.962537208690874,40.7144615766373],[-3.5234227383256567,40.7144615766373],[-3.4423033050387453,40.64970004747778],[-3.202532293299361,40.64970004747778],[-3.1236687187797627,40.7144615766373],[-3.1279442623115035,40.973582940071246],[-3.209109663113433,41.03838233497477],[-3.215814088413558,41.42734250339702],[-3.4639179429648235,41.816591095377625],[-3.8729797607932217,42.14119290407979],[-4.034119308198781,42.14119290407979],[-4.196773657594491,42.206138729604284],[-4.280472894268436,42.33605624152163],[-4.293038178575568,42.856078418200816],[-4.2137028241181556,42.921121631249825],[-3.728158887963031,42.921121631249825],[-3.482811534765426,42.791044309252534],[-3.240218953174507,42.791044309252534],[-3.0773566100925693,42.72601925406748],[-3.076225513588913,42.6610032023755],[-2.9124809725166263,42.530997908724714],[-2.8317354706088054,42.530997908724714],[-2.6653952147537248,42.206138729604284],[-2.5023922085106602,42.07625563258002],[-2.0191476382611726,42.07625563258002],[-1.9393051919265156,42.14119290407979],[-1.2141772286015005,42.14119290407979],[-0.8925430943933111,42.27109315883616],[0.4781335232421802,42.27109315883616],[0.6391582671658227,42.206138729604284],[0.8800035556157246,42.0113268654855],[0.960515385549548,42.0113268654855],[0.9601711891920769,41.94640655323951],[1.1203367514056128,41.816591095377625],[1.6028898771288167,41.816591095377625],[1.7650009780180025,41.94640655323951],[2.0869328935483726,41.94640655323951],[2.24951273227596,42.07625563258002],[2.258546229552992,42.791044309252534],[2.422962455020683,42.98617399880493],[2.4293097965477988,43.44180114635757],[2.593596802733303,43.57206561059715],[2.838351530497874,43.63721231074276],[3.1669863804092224,43.83271089766834],[3.3296874864746266,43.83271089766834],[3.4123370871220273,43.89789675989724],[3.65648168998738,43.89789675989724],[3.7392892003119624,43.9630925411503],[4.064939524051221,43.9630925411503],[4.149524400603661,44.09351406700653],[4.482308506249428,44.354478420309654],[4.485771194632683,44.48502207805782],[4.652700167127686,44.61560727881253],[4.6545064777041265,44.68091558848158],[4.98930767700574,44.94225477950513],[5.029037910719473,46.251655507885914],[5.689340346091821,46.251655507885914],[5.769553072783352,46.18607362789],[5.751133151802786,45.66185655619457],[5.828751658721873,45.53092074125515],[5.988369242252002,45.400030916926596],[6.634809661140031,45.13838647784277],[6.7089082605850505,44.94225477950513],[7.022769241761704,44.61560727881253],[7.0200478829631106,44.55030945944638],[7.489993995227514,44.09351406700653],[7.562795335833032,43.89789675989724],[7.40003226725613,43.89789675989724],[7.315864585077028,43.83271089766834],[6.909111819913518,43.83271089766834],[6.825166541491605,43.76753490298804],[6.817416039653938,43.57206561059715]]],[[[17.46479282028025,43.63721231074276],[17.539418717990934,43.57206561059715],[17.701873304026346,43.57206561059715],[17.9252889664625,43.376683280120375],[18.006424528135103,43.376683280120375],[18.310383796736076,43.18138653358709],[18.377726342792144,43.05123557133976],[18.35052080841729,42.791044309252534],[18.424595841400695,42.72601925406748],[18.404331531148127,42.530997908724714],[18.41106898739651,42.59599610397345],[18.114614942114024,42.856078418200816],[17.642314013799464,42.98617399880493],[17.64886963232357,43.05123557133976],[17.425406509949603,43.24647602459207],[17.182182243572573,43.24647602459207],[16.72083485452423,43.50692857283799],[15.908868384297996,43.50692857283799],[15.920890684136555,43.63721231074276],[15.694971547445341,43.83271089766834],[15.381288273990434,43.9630925411503],[15.230106470575466,44.09351406700653],[15.160260053613646,44.223975888548736],[15.247660558925617,44.28922203969545],[15.259421413177519,44.41974508240111],[15.031968183628384,44.61560727881253],[15.522327302518184,44.61560727881253],[16.138708976194568,44.223975888548736],[16.301783796624722,44.223975888548736],[16.45853767992466,44.15873991493737],[16.60247698801265,43.9630925411503],[16.915229842935872,43.83271089766834],[17.064964801247157,43.702368724455205],[17.46479282028025,43.63721231074276]]],[[[45.05798669921203,15.821841744256343],[44.926788340220874,13.636747385850242],[44.77184097214284,13.508212528673399],[44.76842201646834,13.443945112010743],[44.39839231460326,13.443945112010743],[44.33117737911443,13.572479953217805],[44.11596609161163,13.701014826777],[44.11941790010447,13.765282276204355],[43.97829250108035,13.893817201386005],[43.833691857014415,13.958084677552872],[43.90025141995764,15.114894987773361],[43.978330581520325,15.179162833682852],[43.99020456283659,15.371966431455558],[44.14663608924704,15.50050220563231],[44.1588643537966,15.69330591497267],[44.323953137849934,15.950377584790711],[44.33238728447506,16.078913430408853],[44.410906648464056,16.143181353197186],[44.428095187350685,16.400253026225403],[44.576701501289,16.400253026225403],[44.57236336903469,16.335985112228844],[44.78227869963214,16.143181353197186],[44.77799107803023,16.078913430408853],[44.92224258249889,16.01464550734974],[44.91797849563477,15.950377584790711],[45.05798669921203,15.821841744256343]]],[[[47.67005647086469,14.92209805466574],[47.60007697273374,14.986365704798994],[47.61698051775419,15.24343069011362],[47.69545019336198,15.307698556294808],[47.70846373765824,15.50050220563231],[47.787058243536855,15.564770103106595],[47.79590389672807,15.69330591497267],[48.03207208309477,15.886109663502625],[48.1851179634514,15.950377584790711],[48.33362430289761,15.950377584790711],[48.61691361807106,15.757573827822739],[48.59005978042572,15.371966431455558],[48.354430629246885,15.179162833682852],[48.34584675485418,15.050627153156002],[48.26321650941645,14.92209805466574],[47.67005647086469,14.92209805466574]]],[[[54.61529965939446,17.364270809480146],[54.67853163794723,17.235735252203312],[54.00893493108443,17.235735252203312],[53.722321455384154,17.364270809480146],[53.75565630422136,17.74987708013326],[54.07613995449994,18.00694753125384],[54.52309322596126,18.00694753125384],[54.73508175074198,17.878412349402804],[54.88403491142402,17.878412349402804],[54.878296118468455,17.81414472530993],[54.63217412301214,17.557074025808774],[54.61529965939446,17.364270809480146]]],[[[43.036352940267456,18.842423656583577],[43.10167701789024,18.71388919326142],[43.17625641062874,18.71388919326142],[43.13943750537943,18.19975012663128],[42.98132540104238,18.071215087470353],[42.972285848788594,17.942679951641047],[42.88882046007195,17.81414472530993],[42.516476495525474,17.81414472530993],[42.2363248491968,18.071215087470353],[42.08732473882768,18.071215087470353],[41.87710556447082,18.264017608034056],[41.72805818490988,18.264017608034056],[41.37747836843495,18.585354602438763],[41.42211973994073,19.228026219884978],[41.66417288847742,19.48509384487067],[42.11223086318536,19.48509384487067],[42.40170271776726,19.356560111543356],[42.46713362680928,19.228026219884978],[42.68643463801215,19.163759216608504],[42.68181002185445,19.09949217606151],[42.96175750517847,18.842423656583577],[43.036352940267456,18.842423656583577]]],[[[33.759365408983555,23.405326461222202],[33.843086512718216,23.533862269753108],[34.369616295277766,23.533862269753108],[34.586561017244854,23.405326461222202],[34.57364025878939,23.212523529838556],[34.40640098324066,22.955454292439565],[33.7384367491317,23.083988729619378],[33.759365408983555,23.405326461222202]]],[[[33.62045452631563,29.06106099671798],[33.70319879419862,29.125321906637314],[34.08451698970547,29.125321906637314],[34.045535785159835,28.7397491342855],[33.86788306387611,28.48269151238442],[33.83078570567103,28.097093135336728],[33.754749527023414,28.097093135336728],[33.563404837509644,28.48269151238442],[33.62045452631563,29.06106099671798]]],[[[50.239526578642305,30.024901298018214],[50.31249508814244,30.4746519977165],[50.57431251528823,30.66739605845185],[50.58508251151943,30.73164354038171],[51.42825650074254,30.73164354038171],[51.34067112463123,30.66739605845185],[51.24421689019288,30.089153006149527],[51.14680189784533,29.96066319316391],[50.4586564446863,29.96066319316391],[50.39247900215189,30.024901298018214],[50.239526578642305,30.024901298018214]]],[[[34.95496487572197,31.438361285090124],[34.97053415060264,31.566856951030353],[35.03958825767623,31.5026089791451],[35.347000179890635,31.5026089791451],[35.415980276471274,31.438361285090124],[35.38477833550471,31.18137248665933],[35.453801970250524,31.11712558138089],[35.41551894719484,30.795890819864216],[35.54614224877017,30.603148334049255],[35.465167336476206,29.896409782185017],[35.20046470733743,29.57513332467368],[35.17960406568642,29.382360313714017],[35.01325992419238,29.253842178134974],[34.70808701194292,29.253842178134974],[34.569019459907246,29.382360313714017],[34.659763837165386,30.217654654062663],[34.396848170728546,30.603148334049255],[34.411472354603355,30.73164354038171],[34.28022109786044,30.9243849315827],[34.29506556573855,31.05287871378969],[34.17149043483959,31.30986657036558],[34.03293407422338,31.438361285090124],[34.12496279135537,31.566856951030353],[34.14026652777962,31.69535388840739],[34.07103792952311,31.75960293396225],[34.60169410899253,31.69535388840739],[34.43244328562711,31.566856951030353],[34.409490824759935,31.37411382883868],[34.478698144877896,31.30986657036558],[34.709103927406616,31.30986657036558],[34.95496487572197,31.438361285090124]]],[[[48.23592275105533,32.273614428436964],[48.004734372675635,32.273614428436964],[47.79575824881913,32.40212408448617],[47.48736375662349,32.40212408448617],[47.34422126447001,32.4663801502232],[47.23443415426786,32.72341359982783],[47.290821512398125,33.044729089274036],[47.568658034186534,33.30180355238283],[48.419576253442685,33.30180355238283],[48.47341299440692,33.173263681098675],[48.55073168087432,33.173263681098675],[48.60460546595124,33.044729089274036],[48.512333785300676,32.53063709453863],[48.23592275105533,32.273614428436964]]],[[[45.172551121318534,34.201757486082506],[45.017300344769254,34.201757486082506],[44.92832469656714,34.137463607955844],[44.385084217695514,34.137463607955844],[44.296317946243704,34.073171653115885],[43.675628067931655,34.073171653115885],[43.753336221325675,34.523257137478645],[43.99779884904506,34.58756340238059],[44.176043457854426,34.71618258986791],[44.33161204735289,34.71618258986791],[44.665875721992016,34.84481092371323],[44.844861815285576,34.97344872745394],[45.68344910624745,35.29510908069026],[46.307188326212675,35.29510908069026],[46.186519309002314,34.65187187304154],[46.0073402561644,34.523257137478645],[45.67308632090593,34.39465106339497],[45.44003267136543,34.39465106339497],[45.183993689414656,34.266053327810944],[45.172551121318534,34.201757486082506]]],[[[31.570145390858805,37.033325160217856],[32.04142351932408,37.033325160217856],[31.99621266465667,36.71123244817689],[31.525599515603478,36.71123244817689],[31.455995324743473,36.77564281235617],[31.48265595912908,36.96889832504219],[31.570145390858805,37.033325160217856]]],[[[35.98634694175958,36.646826058663486],[36.006533338294844,36.77564281235617],[35.88000269860439,36.96889832504219],[35.72295460076599,36.96889832504219],[35.75349437260552,37.16219167099202],[36.06785909103637,37.16219167099202],[36.41360018363511,37.35552439949411],[37.04287184271402,37.35552439949411],[37.18947064436711,37.29107568505823],[37.14693657769792,37.033325160217856],[37.21491153023083,36.96889832504219],[37.18339661766157,36.77564281235617],[36.477278650041534,36.77564281235617],[36.123025027496176,36.518024975019294],[35.809545618308086,36.518024975019294],[35.98634694175958,36.646826058663486]]],[[[56.39079349003007,37.033325160217856],[56.201812367612995,36.90447569353774],[56.154354316054324,36.71123244817689],[55.70002096916395,36.45363016666682],[55.15722451192537,35.80987872629979],[54.98613821018596,35.74552199507216],[54.97136331841278,35.68116838446774],[54.600654171897055,35.42378401472101],[54.58617307746262,35.35944515729167],[53.10440044570041,35.35944515729167],[53.00485261390917,35.616817837788474],[53.04760341729642,35.80987872629979],[53.140092416649104,35.87423863487613],[53.76533423193114,35.87423863487613],[53.96560177633521,36.06733799237341],[54.05471095097349,36.45363016666682],[54.24156103673062,36.582423586653576],[54.287142944458076,36.77564281235617],[54.39627065694721,36.90447569353774],[54.67834632678505,37.097756256407635],[54.86749296915954,37.548898062971865],[55.04099655127202,37.61336531624661],[55.0570980563846,37.677837348378745],[55.43750361291147,37.935774420989574],[55.4539677568303,38.000271214421105],[55.62831355293509,38.064773133822946],[55.64493560015352,38.1292802372037],[56.028116048016685,38.387361652314304],[56.04511815565496,38.45189554735255],[56.43032384582463,38.71008704136887],[58.40914065629741,38.71008704136887],[58.470326387202896,38.64553066399922],[58.707711460045196,38.64553066399922],[58.909057780967196,38.51643497540917],[59.146297717703995,38.51643497540917],[59.18939329477924,38.387361652314304],[59.34745715711737,38.387361652314304],[59.54857460748682,38.25831022816764],[59.44208549583763,37.87128269556531],[59.126713636735445,37.87128269556531],[58.855485033229535,37.74231421711134],[56.96436883301933,37.74231421711134],[56.48795912792183,37.41997766223376],[56.39079349003007,37.033325160217856]]],[[[42.23512764266087,38.96837080348746],[42.08976237795036,39.03295660030043],[42.156143380041776,39.355977660665076],[42.314944480952775,39.355977660665076],[42.50083250923721,39.48523015390962],[42.818637256600155,39.48523015390962],[42.79134778368579,39.355977660665076],[42.93652659801847,39.29136097543534],[42.789883107228846,38.96837080348746],[42.23512764266087,38.96837080348746]]],[[[30.187510459062715,41.03838233497477],[30.427773913179088,41.03838233497477],[30.566915417857338,40.90879121531015],[30.535619726984493,40.7144615766373],[30.44533302079417,40.64970004747778],[29.965790997315395,40.64970004747778],[30.006686204311904,40.90879121531015],[30.187510459062715,41.03838233497477]]],[[[123.14041683227383,-10.52775816206828],[123.28798492482552,-10.52775816206828],[123.37587761508614,-10.65629271271993],[123.3092082311498,-10.720559986034413],[123.08781798784473,-10.720559986034413],[123.02117611944135,-10.784827258283043],[122.87357403940634,-10.784827258283043],[123.14743426324436,-10.592025438133314],[123.14041683227383,-10.52775816206828]]],[[[125.50359484688977,-9.11387684052617],[125.0798675689273,-9.306678549994576],[124.95765937020381,-9.563747456596982],[124.8166184341326,-9.62801467585793],[124.8230718208785,-9.692281892054453],[124.42023166385529,-10.077887170889971],[124.1989654171479,-10.077887170889971],[123.85050270893028,-10.270689038898416],[123.4816651331239,-10.270689038898416],[123.61563418803183,-10.14215446307973],[123.58906757747117,-9.885083521714623],[123.71069606912538,-9.62801467585793],[123.84548012729208,-9.499480234325885],[123.83921114669414,-9.43521300909893],[124.2629045460886,-9.24241131622574],[124.48402208253546,-9.24241131622574],[125.16717544665445,-8.664006095577538],[125.31452367992854,-8.664006095577538],[125.38240960584936,-8.599738836864194],[125.89810461561142,-8.599738836864194],[125.96600147413454,-8.53547157595496],[126.62900752529332,-8.53547157595496],[126.83850516168621,-8.406937047765956],[127.20680845129368,-8.406937047765956],[127.00316535081582,-8.599738836864194],[126.86168012930652,-8.664006095577538],[126.7143318960324,-8.664006095577538],[126.4373957687536,-8.856807857999385],[126.07496129339908,-8.921075107386327],[125.86598106320453,-9.049609598704004],[125.50359484688977,-9.11387684052617]]],[[[117.81075714634635,-8.792540606199415],[117.884438138433,-8.792540606199415],[117.8163131406784,-8.856807857999385],[117.59525973995854,-8.856807857999385],[117.38539611435156,-8.985342354305962],[116.94324716501717,-8.985342354305962],[116.87518597425868,-9.049609598704004],[116.72217269034996,-8.985342354305962],[116.75758409692932,-8.53547157595496],[116.89959854118712,-8.471204312904119],[117.48891043307334,-8.471204312904119],[117.49425748710574,-8.53547157595496],[117.81075714634635,-8.792540606199415]]],[[[118.97854964914258,-8.664006095577538],[118.68385318259439,-8.664006095577538],[118.61569374354791,-8.728273352040706],[118.39466111739394,-8.728273352040706],[118.31548259940917,-8.664006095577538],[118.16813436613508,-8.664006095577538],[118.03180012260624,-8.792540606199415],[117.95811913051962,-8.792540606199415],[118.09446024949801,-8.664006095577538],[118.08359619924687,-8.53547157595496],[117.69405980641264,-8.278402511444792],[117.68368610208054,-8.149867967425742],[117.9782764223991,-8.149867967425742],[117.9834575833658,-8.21413524037036],[118.14124692317279,-8.34266978059475],[118.80416310162795,-8.34266978059475],[118.97305734166379,-8.599738836864194],[118.97854964914258,-8.664006095577538]]],[[[126.26272265657,-7.699997009007982],[126.40997381456908,-7.699997009007982],[126.47835344207017,-7.635729723056077],[126.63085055156769,-7.699997009007982],[126.4259304300952,-7.892798858031062],[126.27330978798027,-7.828531576549758],[125.83151927294689,-7.828531576549758],[125.89985393128998,-7.764264293523969],[126.19436854994228,-7.764264293523969],[126.26272265657,-7.699997009007982]]],[[[97.61087377574266,22.634119636725273],[97.87633559744776,22.441319713738977],[97.95139815983177,22.441319713738977],[98.0784137558426,22.312786746479656],[98.43059813620985,22.18425400415287],[98.67357507393451,21.862922981373064],[98.97351068283437,21.862922981373064],[98.96215253118878,21.79865689660788],[99.21679640960402,21.541592860953184],[99.35542085107669,21.477326913506737],[99.80501658646818,21.477326913506737],[99.78248125694265,21.348795072236676],[99.8461600354631,21.284529172659422],[99.99597458150114,21.284529172659422],[100.19821219624832,21.155997401236437],[100.06498041131817,20.38480634092422],[95.72710894925403,20.38480634092422],[95.6628478390748,20.44907235945184],[95.43845047743355,20.44907235945184],[95.16023540992816,20.57760431779658],[95.03160796408417,20.706136190372934],[94.81761151897867,20.770402101690035],[94.62461787028577,20.963199770278745],[94.34620204195933,21.091731523637097],[94.21753337504171,21.220263283284943],[94.16380351229292,21.348795072236676],[94.24952484266132,21.862922981373064],[94.62634927192158,22.312786746479656],[94.77643903209206,22.312786746479656],[95.03520992909769,22.505586288910987],[95.18535283004799,22.505586288910987],[95.4332833753417,22.634119636725273],[97.61087377574266,22.634119636725273]]],[[[88.18734140941426,25.71905353522125],[87.8196971676315,25.397690726552234],[87.5172686596885,25.01205910812031],[87.45596173438358,24.690707271946124],[87.36851662960918,24.62643687706892],[87.25150378076052,23.983741244141907],[87.16485321814503,23.919472449107886],[87.07588234146264,23.405326461222202],[86.98980092898718,23.34105871611693],[86.93609889098691,23.019721467088267],[86.68955579241002,22.891187202795894],[86.58310454536301,22.698386415121856],[86.32692167398058,22.505586288910987],[86.1160877777595,22.119987710146606],[85.9660506166874,22.119987710146606],[85.62637608678988,21.862922981373064],[85.24883482411535,21.348795072236676],[85.01451997769745,21.284529172659422],[84.76129434102928,21.091731523637097],[84.53664806678874,21.091731523637097],[84.2931943906998,20.963199770278745],[84.14346361563332,20.963199770278745],[83.98438839284898,20.89893388876613],[83.89090678722562,20.770402101690035],[83.55459690408708,20.513338350783677],[83.47978954077392,20.513338350783677],[83.22787750847264,20.320540292323955],[83.04184708821694,20.063475739658724],[82.79039358555396,19.87069403320764],[82.71814107006057,19.356560111543356],[82.53298406583491,19.09949217606151],[82.05860915031333,18.90669083850502],[81.96634821674844,18.77815644124545],[81.7425859944687,18.77815644124545],[81.6504622236884,18.649621913402257],[81.57589083222769,18.649621913402257],[81.32608268187266,18.45681989028193],[81.1683380559693,18.39255249063019],[81.01925899764963,18.39255249063019],[80.38883460011617,18.135482619519774],[80.29739854689757,18.00694753125384],[80.13999487120047,17.942679951641047],[79.99102609756353,17.942679951641047],[79.89981053599162,17.81414472530993],[79.74255401328888,17.74987708013326],[79.73425639594622,17.685609414643622],[79.56885127868178,17.557074025808774],[79.55244335019869,17.428538564972083],[79.47802085780376,17.428538564972083],[79.06553706441275,17.107199638341513],[78.96725724965803,16.914396124941888],[78.46660707071264,16.46452093609686],[78.37700965648972,16.335985112228844],[78.35431212522639,16.143181353197186],[78.18339853158585,15.950377584790711],[78.1110958828608,15.307698556294808],[78.02988927176922,15.24343069011362],[77.99536344182374,14.92209805466574],[77.91443873973326,14.857830416952554],[77.78101108989843,13.508212528673399],[77.70106548246103,13.443945112010743],[77.683482029665,13.25114290725042],[77.6037095989426,13.186875520051919],[77.58657493494381,12.99407339873327],[77.50697263450901,12.929806037698397],[77.47932529697245,12.608469318776432],[77.39996994809083,12.544201990798548],[77.35784197015005,12.03006352199838],[77.18984228933435,11.772994369493755],[77.16530501308446,11.451657979339295],[77.08665173564424,11.387390705975783],[77.0538975506723,10.937519810964893],[76.97553656177466,10.873252540421372],[76.9576453621536,10.616183450426917],[76.87510087424191,10.487648897849558],[76.64088675723309,10.294847054867077],[76.63245492870145,10.166312481061198],[76.39878020653713,9.973508709621662],[76.10378432175938,9.973508709621662],[76.02598202435428,9.909241507473254],[75.87849194540085,9.909241507473254],[75.89071385756739,10.10204518999415],[75.75147640082618,10.23057976928341],[75.55563841947566,10.616183450426917],[75.50385907070256,10.937519810964893],[75.37435574156805,11.19458889150699],[75.23592378029173,11.32312343368675],[74.98347294147605,11.901528940296645],[74.71280519187007,12.22286541859621],[74.39519483547897,12.865538682688728],[74.40597913102103,12.99407339873327],[74.33744955070895,13.058340765999628],[74.35954354439171,13.315410301505537],[74.29115311862463,13.37967770302355],[74.30817534687829,13.572479953217805],[74.23989662837565,13.636747385850242],[74.25147975604418,13.765282276204355],[74.11511263789848,13.893817201386005],[74.13293412060037,14.086619658070124],[74.00902638850188,14.343689737614696],[74.02135579571352,14.472224839942609],[73.62725131531596,14.986365704798994],[73.56608548486612,15.114894987773361],[73.57921969801093,15.24343069011362],[73.44411619804443,15.371966431455558],[73.45750944596428,15.50050220563231],[73.39682204852816,15.629038006477],[73.19463132846481,15.821841744256343],[73.07383196878324,16.078913430408853],[73.03481062047616,16.400253026225403],[72.96763621928018,16.46452093609686],[72.98197713691448,16.593056740381034],[72.91485609899183,16.657324633252017],[72.9586252967198,17.042931812118375],[72.89162263290254,17.107199638341513],[72.91388618978863,17.300003038300275],[72.79500763341032,17.557074025808774],[72.81010164360437,17.685609414643622],[72.6839376129276,17.878412349402804],[72.69919293205508,18.00694753125384],[72.63234736449664,18.071215087470353],[72.66310277922977,18.3282850629573],[72.59629220258851,18.39255249063019],[72.61954465652953,18.585354602438763],[72.55275246548196,18.649621913402257],[72.59180211527445,18.970957986239007],[72.67426738192218,19.035225099014756],[72.70578741192358,19.29229318512018],[72.42293170921413,19.420826998383767],[72.44662133575652,19.613627413701025],[72.32885368729775,19.87069403320764],[72.45917406494021,20.320540292323955],[72.54193389339406,20.38480634092422],[72.60611548113746,20.89893388876613],[72.48873910905829,21.155997401236437],[72.28028356446431,21.284529172659422],[72.36333386305196,21.348795072236676],[72.38787793900059,21.541592860953184],[72.47104954425312,21.605858830109675],[72.48757565451946,21.73439084506017],[72.42089735458545,21.79865689660788],[72.27094676036735,21.79865689660788],[72.25450541056314,22.248520348638213],[72.12136616819757,22.377053200554226],[71.97125875654189,22.377053200554226],[71.88775060609389,22.312786746479656],[71.86255747591089,22.119987710146606],[71.69589462797279,21.991455262063432],[71.67114438349496,21.79865689660788],[71.80467808231215,21.670124823853055],[71.7721023747942,21.41306098489351],[71.689092533694,21.348795072236676],[71.67297608290183,21.220263283284943],[71.04202079731778,20.963199770278745],[70.87652989478238,20.83466800019549],[70.72683240649647,20.83466800019549],[70.64414831105924,20.770402101690035],[70.34478653758654,20.770402101690035],[69.91903998431931,20.963199770278745],[69.05493369507171,21.862922981373064],[68.97994979284674,21.862922981373064],[68.71177709339699,22.119987710146606],[68.65277335765626,22.248520348638213],[68.66889570011708,22.377053200554226],[68.74394940594492,22.377053200554226],[68.87788161096292,22.248520348638213],[69.02795377983405,22.248520348638213],[69.11921793508411,22.377053200554226],[69.41943275839544,22.377053200554226],[69.73613111897298,22.505586288910987],[69.986377773735,22.698386415121856],[70.0202065264988,22.955454292439565],[69.95360522472457,23.019721467088267],[69.72817389287154,23.019721467088267],[69.32717777204259,22.826920195279918],[69.10182860426893,22.826920195279918],[69.03506758088963,22.891187202795894],[68.88481661738733,22.891187202795894],[68.45911433166717,23.083988729619378],[68.1341423745037,23.469594311475035],[68.0589333255379,23.469594311475035],[68.07615117745596,23.598130338934133],[68.00958273113113,23.66239852189592],[67.85910741980628,23.66239852189592],[67.88527714168505,23.855203782244295],[67.81880893798076,23.919472449107886],[67.29187387976617,23.919472449107886],[66.95955597816679,24.240817763545305],[67.0047774429289,24.56216664202474],[66.94781104042686,24.690707271946124],[66.74952268852928,24.883519444364435],[66.4478061052139,24.883519444364435],[66.38172986740406,24.947790507362654],[66.4196778300168,25.204874276824306],[66.30742995810627,25.461963111014605],[66.03479043866754,25.65478081769718],[65.88366899472275,25.65478081769718],[65.62768693589514,25.461963111014605],[65.02347091615188,25.461963111014605],[64.93838392289804,25.397690726552234],[64.48528861112113,25.397690726552234],[64.31547123456016,25.269146298717096],[64.17382830909592,25.333418452206367],[63.94731382097272,25.333418452206367],[63.81503887666538,25.461963111014605],[63.66398487172957,25.461963111014605],[63.57909798756734,25.397690726552234],[63.8164346568357,25.976144862044404],[64.32026501499709,26.297509242629573],[64.34068190490686,26.426054788259762],[64.51276062062003,26.55460008693899],[64.5231782583987,26.618872616820138],[64.78207351874836,26.811689599744003],[65.10666054966012,26.94023364202563],[65.48565913998095,26.94023364202563],[65.64817140377201,27.004505447046835],[65.83293607979323,27.19731986876118],[65.95865135198271,27.904289199635297],[65.70181247417561,28.16136044638994],[65.48554418447723,28.22562740579938],[65.29320110345961,28.418426066856018],[65.21709560259649,28.418426066856018],[65.16510624339747,28.546956552619218],[64.80863085792342,28.675485374296713],[64.61671382812925,28.868275298933817],[64.46430335776327,28.868275298933817],[64.32413358006748,28.932537682143888],[64.37363995785451,29.18958230401639],[64.3098595001403,29.253842178134974],[64.38599395978049,29.639389834154105],[64.47527352518183,29.703645745357704],[64.71679155978063,30.860137936923515],[64.89815091876943,30.988631843864145],[64.92635532000283,31.11712558138089],[65.10834403348599,31.2456194696468],[65.13704378598786,31.37411382883868],[65.4257437435245,31.631105240774303],[65.44043745338847,31.69535388840739],[65.60902796399259,31.75960293396225],[65.97664935224486,32.01660389614456],[66.05364121914462,32.01660389614456],[66.33033428604074,32.20936075798245],[66.34567905746427,32.273614428436964],[66.42274185025748,32.273614428436964],[66.70049528996711,32.4663801502232],[66.71612225284869,32.53063709453863],[66.88610733049691,32.59489495751683],[67.10394573453331,32.8519363979502],[67.2744483927031,32.9161994557169],[67.40021354443464,33.108995745331406],[67.47751356239384,33.108995745331406],[68.98611733231036,34.137463607955844],[69.0035453216333,34.201757486082506],[69.08117070990794,34.201757486082506],[69.36687402419017,34.39465106339497],[69.53999412637577,34.45895303794311],[69.77310728112967,34.45895303794311],[70.11985883999229,34.58756340238059],[70.89730110162762,34.58756340238059],[71.24497803058766,34.71618258986791],[71.40054662008612,34.71618258986791],[71.49681909598947,34.78049559328021],[71.8080367519709,34.78049559328021],[71.90448212303973,34.84481092371323],[72.60490343049524,34.84481092371323],[72.87630145452408,34.97344872745394],[74.51146876681298,34.97344872745394],[74.62834276314449,34.84481092371323],[74.76460448379453,34.78049559328021],[74.92021331178523,34.78049559328021],[75.09548931445842,34.58756340238059],[75.17323354062195,34.58756340238059],[75.13470984046958,34.45895303794311],[75.27089981254952,34.39465106339497],[75.04462985548096,33.62317843726249],[74.66151423721445,33.36607556823055],[74.04251385092044,33.36607556823055],[73.94712283112726,33.30180355238283],[73.76910137352372,33.49462396122957],[73.63236554583847,33.55890041876491],[73.59124287577265,33.687458056938205],[73.45450220610361,33.751739318017954],[73.29952347708549,33.751739318017954],[73.31773996984644,33.816022260737896],[73.0808110529651,34.073171653115885],[72.22736247028602,34.073171653115885],[72.03603388456807,33.944593352095794],[71.92258476904827,33.816022260737896],[71.88689924270382,33.687458056938205],[71.69656699480376,33.55890041876491],[71.24805831248445,33.044729089274036],[71.19692060415794,32.8519363979502],[70.86479328748442,32.4663801502232],[70.83175575434697,32.33786885724864],[70.72189753684593,32.20936075798245],[70.5353259071858,32.08085553189362],[70.51916949933049,32.01660389614456],[70.34912095190198,31.952352858522733],[70.13161786238635,31.69535388840739],[70.1001806211481,31.566856951030353],[69.82299561257511,31.37411382883868],[69.60819322191661,31.11712558138089],[69.57795500199673,30.988631843864145],[69.40951925390269,30.9243849315827],[69.1968267223232,30.66739605845185],[69.04746420750368,30.346154211145624],[68.8373502959221,30.089153006149527],[68.12878787364461,29.639389834154105],[67.7962902121835,29.510876227630206],[67.69323432342719,29.382360313714017],[67.42477600895009,29.18958230401639],[67.322486655562,29.06106099671798],[67.25845455245663,28.7397491342855],[67.16965618927543,28.675485374296713],[66.87233816472896,27.06877709366914],[66.68742035975252,26.875961689344834],[66.5696592043763,26.16896353597577],[66.62458726132381,26.040417754226798],[67.01707982430865,25.65478081769718],[67.16820126825344,25.65478081769718],[67.29924022623806,25.5262355948532],[67.45031658811497,25.5262355948532],[67.58143990826329,25.397690726552234],[67.73247167885559,25.397690726552234],[67.7980601190673,25.333418452206367],[68.25108909531373,25.333418452206367],[68.31664447123042,25.269146298717096],[70.2039903375843,25.269146298717096],[70.37552766422084,25.397690726552234],[70.42790152025891,25.71905353522125],[70.36296452921223,25.78332630915897],[69.98504698524405,25.78332630915897],[69.92008695153658,25.847599128769414],[70.01826769462771,26.426054788259762],[69.96499042585945,26.55460008693899],[69.76039426538173,26.683145052741565],[69.39295888358093,26.747417383962915],[69.26418441603566,26.875961689344834],[69.287162787714,27.004505447046835],[69.6850286878064,27.518673282814568],[69.86114372652523,27.647213013479263],[70.06240015810913,27.904289199635297],[70.39152684994438,28.032825483371546],[70.56900708356197,28.16136044638994],[70.64505699933363,28.16136044638994],[71.02530657819196,28.16136044638994],[71.1142592050459,28.22562740579938],[71.19032292154007,28.22562740579938],[71.49457778751676,28.22562740579938],[71.58368691845878,28.289894002833844],[71.58373105180674,28.289894002833844],[71.67288379850932,28.35416022676272],[71.74897530748787,28.35416022676272],[72.09327077997257,28.546956552619218],[72.32167180865086,28.546956552619218],[72.65332792660915,28.675485374296713],[73.18646267884994,28.675485374296713],[73.27639166854938,28.7397491342855],[73.50492092612254,28.7397491342855],[73.59498344602177,28.804012446072903],[74.05212821648091,28.804012446072903],[74.32312296812107,28.996799584979524],[74.48988715363701,29.06106099671798],[74.56231113844287,29.382360313714017],[74.75926142551934,29.57513332467368],[75.25047890019964,31.566856951030353],[75.81429548320098,31.952352858522733],[76.89193553162613,31.952352858522733],[76.95139505793229,31.888102378980573],[77.10530860430477,31.888102378980573],[77.24169942710412,31.823852417474022],[77.42016707480889,31.631105240774303],[77.55658260723763,31.566856951030353],[77.71032285437349,31.566856951030353],[77.98306894565643,31.438361285090124],[78.102192970317,31.30986657036558],[78.17899489782657,31.30986657036558],[78.23858511526095,31.2456194696468],[78.20435461559437,31.11712558138089],[78.38359760380868,30.9243849315827],[78.79308506007447,30.73164354038171],[79.03272761946828,30.4746519977165],[79.30586455415232,30.346154211145624],[79.28935906045079,30.2819046739369],[79.46972222373236,30.089153006149527],[79.62270599247783,30.089153006149527],[79.74306850689842,29.96066319316391],[79.87974953045979,29.896409782185017],[80.03263965849415,29.896409782185017],[80.09286638973273,29.8321557300844],[80.62787350207012,29.8321557300844],[80.88484060048764,29.639389834154105],[80.82080334767936,29.382360313714017],[80.66815719623456,29.382360313714017],[80.57604141813171,29.318101518273682],[79.04987902769128,29.318101518273682],[78.77500950310801,29.125321906637314],[78.66847854206551,28.996799584979524],[78.55006278315416,28.48269151238442],[78.59721111555724,28.35416022676272],[78.78239798690143,28.16136044638994],[78.76816728641519,28.097093135336728],[78.9060474168247,28.032825483371546],[78.93984766358813,27.840020589330592],[79.06393858364241,27.711482485517866],[79.13989367173956,27.711482485517866],[79.45074191120287,27.390132574941045],[79.60252041251263,27.390132574941045],[79.6647830538986,27.32586188139292],[79.8924118701024,27.32586188139292],[80.01698020378386,27.19731986876118],[80.2445317137944,27.19731986876118],[80.50738622153513,27.004505447046835],[82.47850655450371,27.004505447046835],[82.56811016017879,27.06877709366914],[82.63809043870756,27.390132574941045],[82.71397968936245,27.390132574941045],[82.8943076887505,27.518673282814568],[82.90868560261164,27.58294327566621],[83.27081396449505,27.840020589330592],[83.28559075562764,27.904289199635297],[83.64959259628777,28.16136044638994],[83.8016924278311,28.16136044638994],[83.8929635760667,28.22562740579938],[84.12115472554922,28.22562740579938],[84.38016579792698,28.35416022676272],[84.98889786975536,28.35416022676272],[84.97334115264604,28.289894002833844],[85.09454099594934,28.16136044638994],[85.32269074326433,28.16136044638994],[85.38331482875822,28.097093135336728],[85.68745954334871,28.097093135336728],[85.96074830578276,27.968557501226762],[86.08214296683815,27.840020589330592],[86.29484433961439,27.77575168104663],[86.41645492349767,27.647213013479263],[86.56833851246073,27.647213013479263],[86.62918523800478,27.58294327566621],[87.99589938978185,27.58294327566621],[88.05655465463671,27.518673282814568],[88.28430084430813,27.518673282814568],[88.3449636059541,27.45440304566062],[88.57267048235053,27.45440304566062],[88.76993570205161,27.32586188139292],[90.36333741547838,27.32586188139292],[90.63605067094264,27.19731986876118],[90.48657760946898,26.55460008693899],[90.29180907143585,26.36178204094311],[90.12616362294459,26.297509242629573],[89.2180381587353,26.297509242629573],[89.12832251290017,26.233236404060108],[88.97699210478501,26.233236404060108],[88.81167261452093,26.16891261103793],[88.81174351729707,26.16896353597577],[88.83965254864809,26.297509242629573],[88.70233793080037,26.36178204094311],[88.51771684646586,26.55460008693899],[88.36626601854255,26.55460008693899],[88.27635577339701,26.490327473838647],[88.26224336559737,26.426054788259762],[87.99334445203633,26.233236404060108],[87.91169564237667,25.847599128769414],[87.9739220781294,25.78332630915897],[88.20067260451032,25.78332630915897],[88.18734140941426,25.71905353522125]]],[[[55.820161370550686,24.947790507362654],[55.963154835004445,24.883519444364435],[56.202995288444505,24.369356867103146],[56.6099995340163,23.983741244141907],[57.03951068455863,23.790935240673083],[57.26528154216081,23.790935240673083],[57.55154859405457,23.66239852189592],[57.77726156104182,23.66239852189592],[57.84513288418602,23.598130338934133],[58.070817111243464,23.598130338934133],[58.138675050823075,23.533862269753108],[58.28911213155438,23.533862269753108],[58.48543245485946,23.27679107328158],[58.47817976390046,23.212523529838556],[58.68203863207258,23.019721467088267],[58.67488028803471,22.955454292439565],[59.083004842196985,22.569852928947373],[59.30119950292747,22.505586288910987],[59.25943594585528,22.119987710146606],[58.905167414028234,21.605858830109675],[58.823536477606154,21.541592860953184],[58.07412534714237,21.541592860953184],[58.00577191368183,21.605858830109675],[57.70597341356636,21.605858830109675],[57.35744494797654,21.862922981373064],[57.28246104575157,21.862922981373064],[57.07726964683512,22.05572146374245],[57.00225977598653,22.05572146374245],[56.7970720168377,22.248520348638213],[56.73535647349105,22.377053200554226],[56.66030276766321,22.377053200554226],[56.45519186337712,22.569852928947373],[56.380111492553695,22.569852928947373],[56.24338682709281,22.698386415121856],[56.09319020472514,22.698386415121856],[56.09992860509921,22.76265326701433],[55.89489968655675,22.955454292439565],[55.908566374343735,23.083988729619378],[55.77200548030297,23.212523529838556],[55.778922541017685,23.27679107328158],[55.492050026030725,23.405326461222202],[55.369656579844346,23.66239852189592],[55.23334382374113,23.790935240673083],[55.26208607681208,24.04801017022447],[55.201358486738776,24.176548427047916],[54.92952583737779,24.43362663992049],[54.94447685166034,24.56216664202474],[54.80123867447585,24.62643687706892],[54.84721652345335,25.01205910812031],[55.01383450109184,25.140602397267667],[55.240250586968216,25.140602397267667],[55.323691370203655,25.204874276824306],[55.852071677813804,25.204874276824306],[55.91949884459731,25.140602397267667],[55.836027132470306,25.076330670786614],[55.820161370550686,24.947790507362654]]],[[[121.38584801858167,30.66739605845185],[121.07914804532928,30.4746519977165],[121.05375439590311,30.410403305727],[120.87535252601958,30.346154211145624],[120.82514077479759,30.217654654062663],[120.90354624007324,30.024901298018214],[121.05649866358283,30.024901298018214],[121.18272694800326,30.15340411148168],[121.36080475220737,30.217654654062663],[121.66689845358438,30.217654654062663],[121.87286236141247,29.96066319316391],[122.00097980392789,29.896409782185017],[122.15386993196223,29.896409782185017],[122.20556908943082,29.8321557300844],[122.00359264153563,29.703645745357704],[121.93069668336275,29.510876227630206],[122.05928177891526,29.44661855373841],[121.81127611972879,29.18958230401639],[121.76423086434461,29.06106099671798],[121.81709704825055,28.996799584979524],[121.67895840935206,28.611221176832423],[121.74109670639442,28.35416022676272],[121.49057997315676,28.289894002833844],[121.43673067048024,28.35416022676272],[121.28454765252312,28.35416022676272],[121.18626964965249,28.289894002833844],[121.1203187931402,28.097093135336728],[120.94649271579628,28.032825483371546],[120.86048676597332,27.77575168104663],[120.76328194898416,27.711482485517866],[120.72111046844395,27.58294327566621],[120.75524234637682,27.45440304566062],[120.65860501679914,27.390132574941045],[120.61743482477827,27.2615909757537],[120.44529848232402,27.19731986876118],[120.0976049779765,26.811689599744003],[119.87028087608924,26.811689599744003],[119.77487875346982,26.747417383962915],[119.73591945067918,26.618872616820138],[119.86803822659262,26.55460008693899],[119.8105588260944,26.36178204094311],[119.86727257579905,26.297509242629573],[119.6783095025749,26.16896353597577],[119.64109206443122,26.040417754226798],[119.77386621398708,25.976144862044404],[119.67987190554199,25.911871983311574],[119.58945328266103,25.590508167327588],[119.64719961658567,25.5262355948532],[119.49612325470878,25.5262355948532],[119.40291269304416,25.461963111014605],[119.3504766974398,25.269146298717096],[119.08958680410348,25.140602397267667],[119.05556379351367,25.01205910812031],[118.79563331043231,24.883519444364435],[118.72959910492277,24.62643687706892],[118.20188858250162,24.62643687706892],[118.11030119842944,24.56216664202474],[118.03058866109228,24.240817763545305],[117.6671492738432,23.983741244141907],[117.65181015770347,23.919472449107886],[117.50125728392787,23.919472449107886],[117.2300051883068,23.726666821516275],[117.12485652460296,23.598130338934133],[116.89917229754553,23.598130338934133],[116.80913653602988,23.533862269753108],[116.75057643339767,23.27679107328158],[116.67539560245761,23.27679107328158],[116.49619613937782,23.148256082910322],[116.46760336373515,23.019721467088267],[116.07772297801198,22.955454292439565],[115.98849367535875,22.891187202795894],[115.68799174835416,22.891187202795894],[115.58493605925075,22.76265326701433],[115.43472139396249,22.76265326701433],[115.37352438712817,22.826920195279918],[115.07305883009663,22.826920195279918],[114.9840773980977,22.76265326701433],[114.92282605158087,22.826920195279918],[114.69747688380717,22.826920195279918],[114.51967630575044,22.698386415121856],[114.29438137219891,22.698386415121856],[114.20561441328105,22.634119636725273],[114.05543576497753,22.634119636725273],[113.89167554329688,22.569852928947373],[113.90525711667401,22.634119636725273],[113.72096382345462,22.826920195279918],[113.67341543078781,22.955454292439565],[113.70120936345582,23.083988729619378],[113.6400315867888,23.148256082910322],[113.48970713665253,23.148256082910322],[113.4005974363343,23.083988729619378],[113.34538187716518,22.826920195279918],[113.56441113570474,22.441319713738977],[113.52435185012135,22.248520348638213],[113.37427968125021,22.248520348638213],[113.27281393180789,22.119987710146606],[113.04775819019976,22.119987710146606],[112.94654823631775,21.991455262063432],[112.79654585956013,21.991455262063432],[112.62058088777876,21.862922981373064],[112.39562918110384,21.862922981373064],[112.3077554165995,21.79865689660788],[112.1578048223814,21.79865689660788],[112.09569357220397,21.862922981373064],[111.87074186552907,21.862922981373064],[111.59475380932163,21.605858830109675],[111.22000568417728,21.605858830109675],[110.895044726125,21.477326913506737],[110.74517948099448,21.477326913506737],[110.57034252667013,21.348795072236676],[110.55790007718277,21.284529172659422],[110.40808553114472,21.284529172659422],[110.13402656862839,21.027465647610136],[110.10950185460769,20.89893388876613],[110.24696931397605,20.83466800019549],[110.23474285282201,20.770402101690035],[110.4226211302816,20.57760431779658],[110.38612285553971,20.38480634092422],[110.01216841915488,20.38480634092422],[109.96159615362643,20.513338350783677],[109.82409620007165,20.57760431779658],[109.77354261749946,20.706136190372934],[109.81007362008899,20.89893388876613],[109.74742615199857,20.963199770278745],[109.85843446218969,21.541592860953184],[109.79596280862881,21.605858830109675],[109.49616430851336,21.605858830109675],[109.40878778391142,21.541592860953184],[109.25890555781866,21.541592860953184],[109.09666178455902,21.477326913506737],[109.121416183369,21.605858830109675],[108.99636651553831,21.73439084506017],[108.54656621745595,21.73439084506017],[108.2220206830226,21.605858830109675],[108.07212143296488,21.605858830109675],[107.87186577033239,21.73439084506017],[107.72193233763826,21.73439084506017],[107.63467819178034,21.670124823853055],[107.61020107079834,21.541592860953184],[107.53525995775198,21.541592860953184],[107.47252443273395,21.605858830109675],[107.50933640162036,21.79865689660788],[107.38406555343973,21.927189102232614],[107.3713929264054,22.248520348638213],[107.18409333306434,22.441319713738977],[107.08494349855056,22.698386415121856],[107.32501269637254,23.855203782244295],[107.50350535907546,23.983741244141907],[107.89407021413285,24.04801017022447],[107.9835812511831,24.112279230233728],[108.13419330699492,24.112279230233728],[108.38885977700016,24.240817763545305],[108.99146783225592,24.240817763545305],[109.0813704859864,24.30508724260424],[109.68405907908951,24.30508724260424],[109.77413935336267,24.369356867103146],[110.00017793591506,24.369356867103146],[110.09038706203685,24.43362663992049],[110.76859437217611,24.43362663992049],[110.85899529634126,24.49789656393482],[112.44169380633137,24.49789656393482],[112.53241217496773,24.56216664202474],[112.83391968974945,24.56216664202474],[112.92478335829021,24.62643687706892],[113.1509450107564,24.62643687706892],[113.40846064268278,24.75497782953517],[113.71009290475588,24.75497782953517],[114.13510742817684,24.947790507362654],[114.36142675310941,24.947790507362654],[114.89634045284458,25.269146298717096],[114.91307364869523,25.333418452206367],[115.46886396254226,25.71905353522125],[115.4863192790129,25.78332630915897],[115.76610422408302,25.976144862044404],[115.8956421024183,26.16896353597577],[116.08341647492702,26.297509242629573],[116.10179283127832,26.36178204094311],[116.29025747941418,26.490327473838647],[116.42235283325594,26.683145052741565],[116.82148774045625,27.004505447046835],[116.95617532882899,27.19731986876118],[117.22353772752977,27.32586188139292],[117.35989772569663,27.518673282814568],[117.5321107809641,27.58294327566621],[117.55259066092293,27.647213013479263],[117.74578052535635,27.77575168104663],[117.78747886639435,27.904289199635297],[117.9604930808981,27.968557501226762],[117.98161501840046,28.032825483371546],[118.17625435662218,28.16136044638994],[118.24088729338118,28.35416022676272],[118.33873520506229,28.418426066856018],[118.67704890598787,29.382360313714017],[119.14838559036018,29.8321557300844],[119.19674115468293,29.96066319316391],[119.72702412900668,30.346154211145624],[119.77716417057586,30.4746519977165],[120.18526271284549,30.73164354038171],[120.39144233257764,31.05287871378969],[120.49439861484834,31.11712558138089],[120.54713971209141,31.2456194696468],[120.85750121534112,31.438361285090124],[121.0380734971573,31.5026089791451],[121.96030926380054,31.5026089791451],[121.90619788185647,31.37411382883868],[122.15634132155921,31.05287871378969],[122.10346648796607,30.9243849315827],[121.87336191489155,30.9243849315827],[121.46248387951599,30.66739605845185],[121.38584801858167,30.66739605845185]]],[[[88.64661484181212,26.104690649117632],[88.46795180228348,25.976144862044404],[88.57097328801012,26.104690649117632],[88.64661484181212,26.104690649117632]]],[[[88.81167261452093,26.16891261103793],[88.72225639561412,26.104690649117632],[88.64661484181212,26.104690649117632],[88.81167261452093,26.16891261103793]]],[[[60.868160050212616,26.490327473838647],[60.82000475613826,26.16896353597577],[60.734881488871125,26.104690649117632],[60.20539061225707,26.104690649117632],[60.139124624110075,26.16896353597577],[59.83651123209756,26.16896353597577],[59.90318208181557,26.618872616820138],[60.07419776478946,26.747417383962915],[60.6802960489385,26.747417383962915],[60.74615226931511,26.683145052741565],[60.973402067535275,26.683145052741565],[60.95366616442206,26.55460008693899],[60.868160050212616,26.490327473838647]]],[[[56.89505616598604,27.77575168104663],[55.98343482726888,27.77575168104663],[55.85127003318982,27.904289199635297],[55.77527468492822,27.904289199635297],[55.86643491885287,28.48269151238442],[56.399271814994165,28.48269151238442],[56.562000829848195,28.546956552619218],[56.703750041360635,28.48269151238442],[56.69327950592575,28.418426066856018],[56.82463622850237,28.289894002833844],[56.9767913902545,28.289894002833844],[56.89505616598604,27.77575168104663]]],[[[65.82040308225206,36.77564281235617],[65.80192387164495,36.71123244817689],[65.94032922378332,36.646826058663486],[65.76513733465232,36.582423586653576],[65.67415475355652,36.260467990861585],[64.42162315725581,36.260467990861585],[64.36105914249576,36.32485173159905],[64.04784001122306,36.32485173159905],[63.86595274064242,36.518024975019294],[63.648562096258544,36.582423586653576],[63.52729365122114,36.71123244817689],[63.441943869244334,36.96889832504219],[63.56931177726967,37.41997766223376],[63.68496129312499,37.548898062971865],[63.87971830190026,37.677837348378745],[64.2735852771465,37.677837348378745],[64.33353875852892,37.61336531624661],[64.727290546972,37.61336531624661],[65.18399061891354,37.29107568505823],[65.41989949510355,37.29107568505823],[65.82040308225206,36.77564281235617]]]]}}
