{"type":"Feature","properties":{"id":"harpyie","sourceUrl":"https://commons.wikimedia.org/wiki/File:Harpy_Eagle_Range.svg","license":"CC BY-SA 3.0","author":"Ninjatacoshell; Cocoloi (Vorlage)","sourceImageSha256":"7a1afd56d3fe184cab065df98e3cd77eddb3ae67249528b186e1686cc0368bea","registration":{"proj_string":"+proj=robin +R=1 +lon_0=10","parameters_1000px":[817.3541007092567,-690.3962817114538,1501.2617719066664,390.2523660845696],"coast_rmse_capped15_px":1.0074514150619507,"coast_median_px":0.20173344016075134,"coast_p90_px":1.2796545028686523,"sample_count":1456,"image_width":740,"image_height":800,"pixel_transform_native":[604.84203452485,-510.89324846647577,1110.933711210933,288.7867509025815],"transform_definition":"pixel_x=sx*projected_x+tx; pixel_y=sy*projected_y+ty","validation":"Odd coastline samples withheld from affine fit. Normalized to 1000px width.","controls":[[-81,25,322,75],[-81.3,-4.7,297,321],[-34.8,-7.1,711,344],[-67,-55.95,528,762],[-117.1,32.5,49,17],[-71.7,12.4,397,181]],"review_bounds":null,"all_fits":[{"proj_string":"+proj=robin +R=1 +lon_0=0","parameters_1000px":[817.8361579920779,-689.6259900769261,1384.28543955123,390.267986373829],"coast_rmse_capped15_px":2.482311248779297,"coast_median_px":0.836228609085083,"coast_p90_px":4.066705703735352,"sample_count":1456},{"proj_string":"+proj=eqc +R=1 +lon_0=0","parameters_1000px":[670.5359396684466,-652.2049348248715,1378.3736653311316,389.91300698434185],"coast_rmse_capped15_px":9.332481384277344,"coast_median_px":5.993268966674805,"coast_p90_px":36.33169937133789,"sample_count":1457},{"proj_string":"+proj=eqc +R=1 +lon_0=10","parameters_1000px":[670.3366114282693,-651.54407476936,1495.2778043713367,389.8024901183687],"coast_rmse_capped15_px":9.360806465148926,"coast_median_px":6.078193187713623,"coast_p90_px":36.41985321044922,"sample_count":1457},{"proj_string":"+proj=mill +R=1 +lon_0=0","parameters_1000px":[673.1919447713509,-619.1846516737919,1385.1600388823088,384.0436664834301],"coast_rmse_capped15_px":10.059793472290039,"coast_median_px":7.442607402801514,"coast_p90_px":42.63780212402344,"sample_count":1463},{"proj_string":"+proj=mill +R=1 +lon_0=10","parameters_1000px":[673.3762529050554,-618.5416602569376,1502.9947306264455,384.0185217085628],"coast_rmse_capped15_px":10.078372955322266,"coast_median_px":7.58123254776001,"coast_p90_px":42.34281539916992,"sample_count":1463},{"proj_string":"+proj=merc +R=1 +lon_0=10","parameters_1000px":[670.7402250667469,-592.9401635297627,1503.306126348706,381.6363401455198],"coast_rmse_capped15_px":10.593914031982422,"coast_median_px":9.51451301574707,"coast_p90_px":41.34394454956055,"sample_count":1468},{"proj_string":"+proj=merc +R=1 +lon_0=0","parameters_1000px":[670.9849761535373,-592.9908716487043,1386.6966452708841,381.6446559340455],"coast_rmse_capped15_px":10.600008964538574,"coast_median_px":9.51534652709961,"coast_p90_px":41.372764587402344,"sample_count":1468}],"excluded_geographic_geometries":[{"type":"MultiPolygon","coordinates":[[[[-60.756299,11.178516],[-60.810645,11.168604],[-60.804297,11.208398],[-60.708936,11.277246],[-60.562793,11.323535],[-60.525488,11.325391],[-60.546484,11.263721],[-60.756299,11.178516]]],[[[-61.012109,10.134326],[-61.174268,10.078027],[-61.59668,10.064648],[-61.77168,10.085059],[-61.906104,10.069141],[-61.661475,10.191699],[-61.632715,10.243408],[-61.528857,10.253125],[-61.499316,10.268555],[-61.464746,10.538965],[-61.478271,10.603369],[-61.498828,10.638867],[-61.540918,10.664453],[-61.635303,10.699365],[-61.651172,10.718066],[-61.591846,10.747949],[-61.464844,10.764453],[-61.37002,10.796826],[-61.17373,10.80332],[-61.078516,10.831934],[-60.917627,10.840234],[-60.996729,10.716162],[-61.03374,10.669873],[-61.019336,10.558105],[-61.0375,10.482275],[-61.016406,10.386377],[-60.968457,10.323389],[-60.999609,10.261475],[-61.004102,10.167822],[-61.012109,10.134326]]]]}],"source_errata":"The encyclopedia source caption flags Trinidad and ABC-island coverage as erroneous. Trinidad and Tobago land is excluded using Natural Earth 1:50m; the ABC islands are absent after extraction.","status":"reviewed","coastlineReference":"Natural Earth 1:110m (world-registration-110m.geojson)"},"includedColors":["#4a4ae3"],"adaptation":"Inverse global map projection; current seasonal/subspecies colors combined; explicitly reviewed legends/arrows omitted; 3px border closing; contours simplified by 0.45 source pixels; components below 4 source pixels omitted; split at the antimeridian.","licenseUrl":"https://creativecommons.org/licenses/by-sa/3.0/","originalFileSha256":"fb97dfb26de48cda81977939675eaef61edbb024cca07dbc757c52b51e956c94","sourceImagePath":"data/ranges/reference-originals/harpyie-authoring.png"},"geometry":{"type":"MultiPolygon","coordinates":[[[[-61.49449330948092,10.306278567927762],[-61.499316,10.268555],[-61.528857,10.253125],[-61.54353905013504,10.25175134095436],[-61.49449330948092,10.306278567927762]]],[[[-61.50163769508747,10.64057497953214],[-61.498828,10.638867],[-61.49745384996779,10.636494106200148],[-61.50163769508747,10.64057497953214]]],[[[-61.135727541172464,10.830813259817305],[-61.12312588836895,10.818527701075586],[-61.17373,10.80332],[-61.18766469522164,10.802858988686284],[-61.135727541172464,10.830813259817305]]],[[[-61.53347999908508,10.013717380432585],[-61.51969473399383,9.780259743683319],[-61.28207776469091,9.54680401535051],[-61.05789692159972,9.54680401535051],[-60.939268776495716,9.430076136197016],[-61.0385037732412,9.196620349542126],[-61.00781095197254,8.612980732720645],[-60.889906126056985,8.496252786212512],[-60.44189771778036,8.496252786212512],[-60.223731058643715,8.612980732720645],[-59.98814571265703,8.379524832748702],[-59.758508833562345,8.262796872654464],[-59.53454115424712,8.262796872654464],[-59.2995613105459,8.029340933875735],[-59.18759526304307,8.029340933875735],[-58.60171488998644,7.4457009936643885],[-58.577307762611746,6.862060952743699],[-58.46073751703746,6.745332936052271],[-58.12510931288985,6.745332936052271],[-57.89676867922232,6.62860491728401],[-57.54781347022431,6.278420851770826],[-57.319798111651664,6.161692827947822],[-57.19949151763328,5.928236779275449],[-56.41671559435291,5.928236779275449],[-56.30079200787319,5.811508755076593],[-55.96533734867123,5.811508755076593],[-55.85758993486694,5.928236779275449],[-54.5156883521006,5.928236779275449],[-54.06051709646664,5.69478073140297],[-53.83689430785093,5.69478073140297],[-53.72124147880801,5.578052708579838],[-53.49763217047838,5.578052708579838],[-53.38205382818073,5.46132468693245],[-53.046659834624755,5.46132468693245],[-52.46974301650387,4.877685171886931],[-52.357977091916574,4.877685171886931],[-51.670811061700654,4.294044858144878],[-51.559075159709096,4.294044858144878],[-51.329369602744606,4.06058874985468],[-51.32336232894097,3.8271326506162167],[-51.20873984042663,3.7104046042287555],[-51.20039190858886,3.3602204772128377],[-50.96686327772578,2.893308333771433],[-50.9622303423275,2.659852271985438],[-50.84836776807981,2.543124243348437],[-50.84226208098392,2.192940165680799],[-50.72874684007863,2.076212142322536],[-50.5054521790256,2.076212142322536],[-50.277127392284434,1.7260280789298736],[-50.05385136361381,1.7260280789298736],[-50.04733917909327,1.1423879916460997],[-50.15795274757144,1.0256599763594805],[-50.154451297973125,0.4420199071992268],[-50.042458669623834,0.325291894366384],[-49.81922499819446,0.325291894366384],[-49.81881445226636,0.09183586917949377],[-49.707165140173174,-0.024892143304657385],[-49.483933125107185,-0.024892143304657385],[-49.37239916637232,-0.14162015580267986],[-49.03755068103448,-0.14162015580267986],[-48.92612872615755,-0.2583481683796261],[-48.591279137232846,-0.2583481683796261],[-48.479965530121284,-0.37507618110054747],[-48.591994800348225,-0.4918041940304956],[-48.59313817321612,-0.7252602207776782],[-48.48224446023611,-0.8419882347250158],[-48.03575863037744,-0.8419882347250158],[-47.92341774655823,-0.7252602207776782],[-47.588557533229285,-0.7252602207776782],[-47.36470618960373,-0.608532207234522],[-47.14278697066011,-0.8419882347250158],[-46.919544055730775,-0.8419882347250158],[-46.698003124487634,-1.0754442640924406],[-46.25150389143364,-1.0754442640924406],[-45.47456372244087,-1.542356330539735],[-45.02802880262422,-1.542356330539735],[-44.80894908473917,-1.8925403891727168],[-44.69730682462721,-1.8925403891727168],[-44.700497812081835,-2.125996433426436],[-44.47890539306124,-2.24272445729797],[-44.37088020882709,-2.476180508855644],[-44.147560775577674,-2.476180508855644],[-44.03781146749592,-2.592908536671887],[-43.81448413891499,-2.592908536671887],[-43.70092190907887,-2.476180508855644],[-43.03096360933066,-2.476180508855644],[-42.36676057122203,-2.826364596704444],[-41.808400622691195,-2.826364596704444],[-41.69875220007501,-2.943092629050861],[-40.805341312976864,-2.943092629050861],[-40.691680725629524,-2.826364596704444],[-40.24499276680486,-2.826364596704444],[-40.13528314765325,-2.943092629050861],[-39.9119304258787,-2.943092629050861],[-39.46927467508899,-3.1765486987292304],[-38.919516448131766,-3.643460859849556],[-38.58668152436003,-3.7601889050431865],[-37.82167605018192,-4.5772852837161375],[-37.48899426688323,-4.6940133474954004],[-37.270702032423706,-4.927469482966788],[-36.82893102117044,-5.1609249201961696],[-35.71111859003877,-5.1609249201961696],[-35.49017970674154,-5.277652937322167],[-35.27737737001566,-5.744565022701561],[-35.288706983724865,-6.211477119469239],[-35.07087867700912,-6.444933165618527],[-35.07688746404294,-6.678389206808701],[-34.96807121263752,-6.795117224730975],[-35.004438386167465,-8.079125204092971],[-35.119989207536,-8.195853173961648],[-35.131016820909615,-8.546037045554847],[-35.246804960569754,-8.662764988997449],[-35.25451835995161,-8.896220853298422],[-35.37448887395475,-9.12967668531872],[-35.955777933896044,-9.71331610706565],[-35.960146583429555,-9.830043961675209],[-36.310039723130245,-10.180229667069604],[-36.3146711172009,-10.296957659399576],[-37.2364682473969,-10.880597525746651],[-37.364179536093346,-11.230781413807895],[-37.59938855684777,-11.464237346553762],[-37.61034922185829,-11.697693296732782],[-37.85198173986523,-12.047877276318108],[-37.863668920607914,-12.28133331333929],[-38.10043627052968,-12.514789402401082],[-38.10655204530395,-12.631517469537172],[-38.3438873348964,-12.86497365519968],[-38.79366725281661,-12.86497365519968],[-39.03152904639723,-13.09842991762257],[-39.19188943859953,-13.915527583348442],[-39.08643884716227,-14.032255932677707],[-39.16219372175003,-15.199535516408451],[-39.057424954292905,-15.316264556618773],[-39.08190656724181,-15.66645183447728],[-38.97734811179395,-15.783180964109903],[-39.00264372586613,-16.13336839938347],[-39.12415750239479,-16.250097544537102],[-39.150303381062656,-16.600284915521556],[-39.27216789668274,-16.717014002294793],[-39.35432287613311,-17.767574052603166],[-39.72238790039993,-18.11775968351794],[-39.854852559679905,-18.35121637065901],[-39.913191039496894,-19.05158410500465],[-39.80953168999394,-19.16831167287046],[-39.83905142539483,-19.518493619202697],[-40.199593746153234,-19.751947572855503],[-40.22954952093807,-20.10210949196479],[-40.47699340421996,-20.33556124595973],[-40.497193732368515,-20.569012574037803],[-40.85887566359086,-20.802463614098695],[-40.99327029313952,-21.035914504040406],[-41.01401289076305,-21.26936538176005],[-41.138355770665484,-21.386090859129403],[-41.17000104604521,-21.736267652122027],[-41.06664721792636,-21.852993427538955],[-41.316178603162996,-22.086445348427414],[-42.03368811010712,-22.43662441346668],[-42.078967426301524,-22.903532767127043],[-43.33544096094719,-22.903532767127043],[-43.46149146444706,-23.020260494329996],[-43.68999174208723,-23.020260494329996],[-43.792340428091066,-22.903532767127043],[-44.135015028448976,-22.903532767127043],[-44.27333566195306,-23.136988511528518],[-44.36346476202091,-22.903532767127043],[-44.59191449559285,-22.903532767127043],[-44.71824299146801,-23.020260494329996],[-44.74272777879755,-23.25371683596353],[-44.97133030352017,-23.25371683596353],[-45.3520941151314,-23.603903825103792],[-45.37787150951388,-23.837363670151774],[-45.479332923297,-23.720633550903543],[-46.05136299298177,-23.720633550903543],[-46.306609167175345,-23.95409420009249],[-46.53552866540844,-23.95409420009249],[-46.77795293097824,-24.070825157970358],[-47.2916458071007,-24.537753613768775],[-47.64980272616822,-24.654486970025015],[-48.037907183091015,-25.004687642406676],[-48.182926094605875,-25.23815985081107],[-48.412474553538,-25.23815985081107],[-48.54272510051942,-25.354896663995575],[-48.59009441463024,-25.70510916726318],[-48.721127454528975,-25.82184714174166],[-48.77048192409491,-26.17206158434631],[-48.67219166213195,-26.2887996904103],[-48.804177097489905,-26.40553766847536],[-48.83850829842873,-26.639012983180805],[-48.66067816976346,-26.98922338635788],[-48.71460240249784,-27.33942916247757],[-48.502089990296966,-27.45616309267815],[-48.539017118199475,-27.689628574305456],[-48.67323500592154,-27.806359997075436],[-48.7498144694654,-28.273275400436965],[-48.90481849953712,-28.50672602921116],[-49.42849264913376,-28.85689168473854],[-49.544352635229885,-28.85689168473854],[-49.59926829370833,-28.50672602921116],[-50.56048845356079,-27.33942916247757],[-50.67585633175223,-27.33942916247757],[-50.965916627250934,-26.98922338635788],[-51.29324939897705,-26.872487013619544],[-51.48716048396669,-26.639012983180805],[-51.69938902846667,-26.522275454184257],[-51.92963910506312,-26.522275454184257],[-52.23900417430519,-26.2887996904103],[-53.61970579192064,-26.2887996904103],[-54.117014832729325,-26.522275454184257],[-54.34726490932576,-26.522275454184257],[-55.98277872855823,-27.33942916247757],[-56.328882363132536,-27.33942916247757],[-56.46495400991009,-27.45616309267815],[-57.73439609999335,-27.45616309267815],[-58.15371169376653,-27.222694525130855],[-58.342679691210854,-26.98922338635788],[-58.07150516843137,-25.354896663995575],[-58.15044047580184,-25.121423488831997],[-58.636895802674374,-24.537753613768775],[-58.75149428747815,-24.537753613768775],[-59.04462979338054,-24.187556561030643],[-59.371520743010294,-24.070825157970358],[-59.567534077134944,-23.837363670151774],[-61.481491526874805,-22.786805312679146],[-61.709891084996016,-22.786805312679146],[-62.021165199966646,-22.55335115308851],[-62.576288118655675,-22.43662441346668],[-62.674861944347185,-22.319897877641665],[-62.90306422243411,-22.319897877641665],[-63.00163722828183,-22.20317152837473],[-63.45794472356999,-22.20317152837473],[-63.58767105669488,-22.319897877641665],[-63.929974473825276,-22.319897877641665],[-65.52859759605451,-23.136988511528518],[-66.09997560503572,-23.136988511528518],[-66.18041431814109,-22.903532767127043],[-66.09789611565107,-22.319897877641665],[-65.96763594765495,-22.20317152837473],[-65.85697886604812,-21.386090859129403],[-65.72758215387812,-21.26936538176005],[-65.62066721018546,-20.452286954619595],[-65.49185095724759,-20.33556124595973],[-65.50038782870973,-19.518493619202697],[-65.78119630256452,-19.05158410500465],[-65.93395901874712,-18.467944580333302],[-66.13123858767695,-18.234488070181058],[-66.20078568694554,-17.884302670110408],[-66.39831990731712,-17.650845367385102],[-66.46857032312867,-17.3006589516527],[-67.42015263539213,-15.783180964109903],[-68.03628197943021,-14.148984313557117],[-68.74616538092425,-13.331886266693797],[-68.85867055694256,-13.331886266693797],[-69.16422525913487,-12.981701776198081],[-69.27668503197762,-12.981701776198081],[-69.58300323343126,-12.631517469537172],[-69.69541913053172,-12.631517469537172],[-70.00249463688169,-12.28133331333929],[-70.11486815337216,-12.28133331333929],[-70.42269443673777,-11.931149274232787],[-70.85296002866455,-11.697693296732782],[-71.1620093384977,-11.347509378619675],[-71.59295554314481,-11.11405345088245],[-71.90320876773546,-10.763869561064343],[-72.33482988903505,-10.530413621291023],[-72.54237150762573,-10.296957659399576],[-72.65453157075397,-10.296957659399576],[-72.96642886533142,-9.946771805612563],[-73.39897767606915,-9.71331610706565],[-73.60759319346079,-9.479860367130943],[-73.71967767487902,-9.479860367130943],[-73.92858746954805,-9.246404588410478],[-74.04065157644189,-9.246404588410478],[-74.24985088236022,-9.012948773506281],[-74.36189513523284,-9.012948773506281],[-74.6762333644882,-8.662764988997449],[-75.11015642434474,-8.429309095017842],[-76.05817418554508,-7.378757274603924],[-76.05193677577223,-7.262029271011982],[-76.36342045704124,-6.795117224730975],[-76.35175941487937,-6.561661186996132],[-76.55850600099983,-6.211477119469239],[-76.5368521605272,-5.744565022701561],[-76.64341524230638,-5.627836999475917],[-76.61324360417962,-4.927469482966788],[-76.72019172372985,-4.810741413890599],[-76.64360144031137,-2.592908536671887],[-76.75219802999054,-2.476180508855644],[-76.71909380633963,-0.37507618110054747],[-76.83026113654928,-0.2583481683796261],[-76.82990331387172,0.09183586917949377],[-76.94173527299846,0.2085638817148234],[-76.94265921889688,0.4420199071992268],[-77.6205584451451,1.2591160075693622],[-77.62422426015031,1.4925720415860224],[-77.51680289010059,1.7260280789298736],[-76.86560509123505,2.543124243348437],[-76.65544561916668,3.01003636705053],[-76.6626559283015,3.24349243870618],[-77.00930844302349,3.593676559909073],[-77.12101154072066,3.593676559909073],[-77.129204471039,3.8271326506162167],[-77.36118879256391,4.06058874985468],[-77.37462293257656,4.410772915847007],[-77.26750263671255,4.527500976007226],[-77.29662095356056,5.227868648465949],[-77.41348298540554,5.344596666786068],[-77.42382816174883,5.578052708579838],[-77.31728711249984,5.69478073140297],[-77.33348207261442,6.044964803674278],[-77.45085811777749,6.161692827947822],[-77.34462686594796,6.278420851770826],[-77.36188905721832,6.62860491728401],[-77.59754128282678,6.862060952743699],[-77.6036156080037,6.978788967033042],[-78.19485951627496,7.562428991064435],[-78.3201142051725,7.795884972478373],[-78.24299026098153,8.379524832748702],[-78.47423615091456,8.496252786212512],[-78.48159143187182,8.612980732720645],[-78.84036057050511,8.963164527258387],[-79.07223768312868,9.079892442691236],[-79.40838736363767,9.079892442691236],[-79.62464116697997,8.963164527258387],[-79.93773980519676,8.612980732720645],[-79.9302634778136,8.496252786212512],[-80.14686975375157,8.379524832748702],[-80.3708555764304,8.379524832748702],[-80.47551917021939,8.262796872654464],[-80.46114428858067,8.029340933875735],[-80.10445275790713,7.679156984110847],[-80.09770056805894,7.562428991064435],[-80.74940804344773,7.212244987104436],[-80.99997447854528,7.679156984110847],[-81.33579512378456,7.679156984110847],[-81.56662690396273,7.795884972478373],[-81.57366957097133,7.912612955841755],[-81.93130908576826,8.262796872654464],[-82.15527676508347,8.262796872654464],[-82.27473506920045,8.379524832748702],[-82.72270671455809,8.379524832748702],[-82.93916364268671,8.262796872654464],[-83.17832443781913,8.496252786212512],[-83.5143307440266,8.496252786212512],[-83.64200204603416,8.729708671947837],[-83.53796049025289,8.846436603568838],[-83.55423342324863,9.079892442691236],[-83.67458938980187,9.196620349542126],[-83.78664921958682,9.196620349542126],[-84.26061418153878,9.54680401535051],[-84.48479502462997,9.54680401535051],[-84.7267718170257,9.780259743683319],[-84.95099478401154,9.780259743683319],[-85.1662201402134,9.663531884621028],[-85.40857610377833,9.896987592212128],[-85.52069832299091,9.896987592212128],[-85.76363340521833,10.130445386315772],[-85.7828066529193,10.363901370024283],[-85.39434740288684,11.064269185677462],[-84.94539781472672,11.064269185677462],[-84.84357476506976,11.180997148174372],[-84.86478845918147,11.414453078481746],[-84.99882260197333,11.647909024113702],[-85.60570384829431,12.114821000902687],[-85.94276548748677,12.114821000902687],[-86.44014109916718,12.58173315764409],[-86.91472447964978,12.815189328216643],[-87.13960192258794,12.815189328216643],[-87.26477363187297,12.931917440879342],[-87.60213396031607,12.931917440879342],[-87.39012130096854,13.04864557344098],[-87.41635346553399,13.282101903205056],[-87.5422075223077,13.398830102879488],[-87.76723558676272,13.398830102879488],[-87.85309666117719,13.165373727137549],[-88.07806344979599,13.165373727137549],[-88.20384385357437,13.282101903205056],[-88.76633698788892,13.282101903205056],[-89.13112837851365,13.51555832739686],[-89.69377643657381,13.51555832739686],[-90.42611101449005,13.982471498615809],[-91.3268605634954,13.982471498615809],[-91.8223853639407,14.332656698445351],[-91.93502900594795,14.332656698445351],[-92.70644050478744,15.03302181107495],[-92.72296716421648,15.149750801518246],[-92.98213234579572,15.383208885403555],[-93.09493586162733,15.383208885403555],[-93.87725097781005,16.083583628494786],[-94.12122977472575,16.20031277551326],[-94.57298125537382,16.20031277551326],[-94.7043003283339,16.317041916834814],[-94.93021572888946,16.317041916834814],[-95.55277082460948,15.966854480398226],[-96.09906312859361,15.85012533584243],[-96.21044100388978,16.55050016391181],[-96.77903673593615,17.25087428805884],[-97.00252264864906,18.534888376536443],[-97.71698245254855,19.351982460525946],[-97.8023973373381,19.818890598491684],[-97.63942004936457,20.16905204474084],[-97.85647013393825,21.336307648791728],[-97.7868336299157,21.56975871366425],[-97.53680460656942,21.45303315195724],[-97.37894463563308,21.219582186930495],[-97.31366214047624,20.86940587680102],[-97.00008997941954,20.402503662501648],[-96.73004767176306,20.16905204474084],[-96.6240324587365,19.585436808778557],[-96.48938330982,19.468709702160677],[-96.36378820084816,18.76834438873427],[-96.05460671699525,18.30143197205537],[-95.65386231142656,17.95124671062599],[-95.42736419898449,17.95124671062599],[-95.294081302824,17.834518134034965],[-93.36921358314845,17.834518134034965],[-93.27563213078481,17.95124671062599],[-92.82263590590067,17.95124671062599],[-92.72900960690959,18.067975212238782],[-92.04938545133766,18.067975212238782],[-91.04748683201426,17.4843320005788],[-90.82115987053135,17.4843320005788],[-90.72689904457211,17.601060774392714],[-90.50052960204921,17.601060774392714],[-89.46569938696479,18.88507223618097],[-89.05087790600992,19.118527590678315],[-89.06745634426144,18.534888376536443],[-89.36868238943478,17.601060774392714],[-89.33148233546494,17.367603170261265],[-89.42615029337865,17.25087428805884],[-89.37135555009716,16.900687376329614],[-89.46634997224565,16.783958332775132],[-89.36052331746272,16.083583628494786],[-88.84129594004618,15.616667075828463],[-88.61561380297351,15.616667075828463],[-88.5193884215431,15.73339619944623],[-87.95508790733294,15.73339619944623],[-87.85887393651856,15.85012533584243],[-87.63311532851651,15.85012533584243],[-87.50364749596481,15.73339619944623],[-86.26218636470244,15.73339619944623],[-85.95638403000858,15.966854480398226],[-85.73058669366503,15.966854480398226],[-85.60128785649799,15.85012533584243],[-84.69825342448976,15.85012533584243],[-84.56928482207196,15.73339619944623],[-84.23070451354586,15.73339619944623],[-83.9424328640108,15.266479827834047],[-83.36333301114942,15.149750801518246],[-83.23556364928767,15.03302181107495],[-83.43145518397773,14.799570790221068],[-83.40247488568103,14.566113669926962],[-83.27555620269123,14.449385166202617],[-83.24753311081608,14.215928265419148],[-83.54436177938662,13.865743162366629],[-83.51773883952188,13.632286577993165],[-83.617177409524,13.51555832739686],[-83.51748677772873,12.58173315764409],[-83.73044703823736,12.465005097262258],[-83.70713880337675,12.231549020127542],[-83.80804177260116,12.114821000902687],[-83.76351653156524,11.647909024113702],[-83.86500125514958,11.531181048764163],[-83.81284609864714,10.947541223303762],[-83.41789878054841,10.247173382434344],[-82.6913482799004,9.54680401535051],[-82.45864649936759,9.430076136197016],[-82.20156312682595,8.963164527258387],[-81.75340278598316,8.963164527258387],[-81.40158511368233,8.729708671947837],[-81.06552257382957,8.729708671947837],[-80.52888629866766,9.079892442691236],[-79.9766150068984,9.196620349542126],[-79.6649068981692,9.54680401535051],[-79.10445479044121,9.54680401535051],[-78.98416363786222,9.430076136197016],[-78.64792336094236,9.430076136197016],[-78.52778850942373,9.313348247485806],[-78.30364871831716,9.313348247485806],[-78.07159790055418,9.196620349542126],[-77.47348871187762,8.612980732720645],[-77.24221302815384,8.496252786212512],[-77.11600398049121,8.262796872654464],[-76.892036301176,8.262796872654464],[-76.69670955574348,8.729708671947837],[-76.36801467180717,8.846436603568838],[-76.06225080725157,9.313348247485806],[-75.83811101614502,9.313348247485806],[-75.62965172252763,9.54680401535051],[-75.65394303228265,9.896987592212128],[-75.55011659117305,10.013717380432585],[-75.56703042617299,10.247173382434344],[-75.47220041533059,10.480629350321575],[-74.95626947816415,11.064269185677462],[-74.38592747268218,10.947541223303762],[-74.07694593564608,11.297725112030477],[-73.17884833713147,11.297725112030477],[-72.97310277128517,11.531181048764163],[-72.21584388150751,11.881364994958071],[-72.11331926982628,11.99809299292486],[-72.1332748775107,12.231549020127542],[-71.90853965564924,12.231549020127542],[-71.80628541227023,12.348277051835403],[-71.35675939553343,12.348277051835403],[-71.2343339900648,12.231549020127542],[-71.21459679460986,11.99809299292486],[-71.32693710401192,11.99809299292486],[-71.53226232545211,11.764637005766346],[-71.75688961873333,11.764637005766346],[-71.96251425216373,11.531181048764163],[-71.93485665705224,11.180997148174372],[-71.68376792870325,10.830813259817305],[-71.34712834186716,10.830813259817305],[-70.92460915294652,11.180997148174372],[-70.58785998491128,11.180997148174372],[-70.48455554158765,11.297725112030477],[-70.26003114195902,11.297725112030477],[-70.15678578008092,11.414453078481746],[-70.21322232517183,12.114821000902687],[-69.9885145657102,12.114821000902687],[-69.86651308178524,11.99809299292486],[-69.83824810151046,11.647909024113702],[-69.59541163202367,11.414453078481746],[-68.92176265435492,11.414453078481746],[-68.45511525402142,11.180997148174372],[-68.42128324714527,10.714085293982102],[-68.18063036763328,10.480629350321575],[-67.05885036029524,10.480629350321575],[-66.95461926538896,10.597357324562186],[-66.28148174780404,10.597357324562186],[-65.92167787651177,10.247173382434344],[-65.68983826809223,10.130445386315772],[-65.35340594735825,10.130445386315772],[-65.2338720593963,10.013717380432585],[-64.8974727811862,10.013717380432585],[-64.14222234121631,10.480629350321575],[-64.16548382269725,10.830813259817305],[-64.29371675936139,11.064269185677462],[-63.957004568241295,11.064269185677462],[-63.933230546909826,10.714085293982102],[-63.8133108499927,10.597357324562186],[-62.691414987351166,10.597357324562186],[-62.79608633241065,10.480629350321575],[-62.7813305347616,10.247173382434344],[-62.54980327457529,10.130445386315772],[-62.423521165196576,9.896987592212128],[-61.862910069133605,9.896987592212128],[-61.784507494008025,10.08354001492576],[-61.77168,10.085059],[-61.59668,10.064648],[-61.484412989932984,10.068203818318814],[-61.53347999908508,10.013717380432585]],[[-71.42548700314472,10.363901370024283],[-71.76198668243632,10.363901370024283],[-72.07399071633523,10.013717380432585],[-72.04275823306845,9.54680401535051],[-71.67694471193076,9.079892442691236],[-71.34079503142176,9.079892442691236],[-71.0264770840919,9.430076136197016],[-71.0569320445663,9.896987592212128],[-71.42548700314472,10.363901370024283]]],[[[-62.24265664229457,10.597357324562186],[-62.354846228558706,10.597357324562186],[-62.25021078432154,10.714085293982102],[-62.02580814930975,10.714085293982102],[-62.24265664229457,10.597357324562186]]]]}}
