{"type":"Feature","properties":{"id":"iberienadler","sourceUrl":"https://commons.wikimedia.org/wiki/File:Aquila_adalberti_distr.PNG","author":"Erfil; \u00fcberarbeitet von Fobos92","license":"CC BY-SA 3.0","licenseUrl":"https://creativecommons.org/licenses/by-sa/3.0/","sourceImageSha256":"477ba7abe353f33de4732495b1e7b724f49f790b6680ac49d5dfd375a8c82858","registration":{"proj_string":"+proj=merc +R=1 +lon_0=0","parameters_1000px":[3264.6574434278646,-3231.6936942089114,720.0532871220169,2768.2473321759003],"coast_rmse_capped15_px":2.3533213138580322,"coast_median_px":0.48711368441581726,"coast_p90_px":2.1471447944641113,"sample_count":151,"coast_rmse_px":2.5486984252929688,"image_width":816,"image_height":588,"pixel_transform_native":[2663.960473837137,-2637.0620544744716,587.5634822915657,2258.8898230555346],"transform_definition":"pixel_x=sx*projected_x+tx; pixel_y=sy*projected_y+ty","validation":"Every third coastline sample (index 1 mod 3) withheld from affine fit; normalized to 1000px width. Error is measured to the nearest extracted coastline pixel.","controls":[[-9.5,43,156,64],[-5.6,36,334,481],[3.3,42.3,743,105],[-9,37,174,420],[0.65,40.7,617,216],[-0.3,39.4,584,280]],"review_bounds":[-10,34,5,44],"all_fits":[{"proj_string":"+proj=mill +R=1 +lon_0=0","parameters_1000px":[3267.5664153117345,-3571.180861128506,720.5461021274789,2934.5006350216945],"coast_rmse_capped15_px":2.6248221397399902,"coast_median_px":1.0394092798233032,"coast_p90_px":2.6931111812591553,"sample_count":152,"coast_rmse_px":2.9514241218566895},{"proj_string":"+proj=eqc +R=1 +lon_0=0","parameters_1000px":[3268.7907545380444,-4211.215789734449,720.6613065562391,3237.697200692913],"coast_rmse_capped15_px":3.525273323059082,"coast_median_px":1.6916708946228027,"coast_p90_px":5.461904048919678,"sample_count":151,"coast_rmse_px":3.778667449951172},{"proj_string":"+proj=robin +R=1 +lon_0=0","parameters_1000px":[4174.977928006575,-4409.357688634569,721.3744617889938,3253.815863230085],"coast_rmse_capped15_px":4.3678998947143555,"coast_median_px":2.486811399459839,"coast_p90_px":7.2108330726623535,"sample_count":151,"coast_rmse_px":4.428283214569092},{"proj_string":"+proj=laea +R=1 +lon_0=10 +lat_0=52","parameters_1000px":[4046.384594054156,-4366.529567759712,1256.376193806828,-569.2069907325161],"coast_rmse_capped15_px":11.850679397583008,"coast_median_px":14.145318031311035,"coast_p90_px":40.0,"sample_count":146,"coast_rmse_px":23.139339447021484}],"annotation_exclusion_notes":"Only saturated #177a1b current range included; pale #89998b historical range excluded by saturation >=90. Existing white province boundaries rejoined with documented 3px closing."},"includedColors":["#177a1b"],"adaptation":"Inverse map projection; current range color extracted; 3px border closing; contours simplified by 0.45 source pixels; components below 4 source pixels omitted. Documented question-mark annotations excluded for Klippenadler; pale historic range excluded for Iberienadler."},"geometry":{"type":"MultiPolygon","coordinates":[[[[-6.593488852648082,37.18243321891784],[-6.5289656210808875,37.18243321891784],[-6.507457877225156,37.1997415678472],[-6.227857207100646,37.1997415678472],[-6.206349463244915,37.18243321891784],[-6.14182623167772,37.18243321891784],[-6.120318487821988,37.1997415678472],[-6.120318487821988,37.23434636161956],[-6.0773030001105255,37.23434636161956],[-6.0773030001105255,37.061163734333796],[-5.991272024687601,36.991779698289314],[-5.905241049264673,36.95706391956666],[-5.86222556155321,36.92233230773007],[-5.86222556155321,36.870205215027724],[-5.840717817697478,36.85282160692897],[-5.840717817697478,36.74843694688705],[-5.86222556155321,36.73102567489727],[-5.86222556155321,36.67876816688665],[-5.776194586130284,36.643910092001285],[-5.6901636107073585,36.643910092001285],[-5.668655866851628,36.609036234855935],[-5.6256403791401635,36.609036234855935],[-5.561117147572969,36.643910092001285],[-5.496593916005774,36.643910092001285],[-5.453578428294311,36.57414660123068],[-5.475086172150043,36.55669587005147],[-5.539609403717237,36.55669587005147],[-5.561117147572969,36.539241196931606],[-5.561117147572969,36.50432002779083],[-5.6256403791401635,36.50432002779083],[-5.668655866851628,36.539241196931606],[-5.905241049264673,36.539241196931606],[-5.905241049264673,36.55669587005147],[-5.948256536976136,36.59159338974103],[-6.034287512399063,36.59159338974103],[-6.0773030001105255,36.609036234855935],[-6.0773030001105255,36.661341102586704],[-6.120318487821988,36.696191284182675],[-6.14182623167772,36.696191284182675],[-6.163333975533451,36.73102567489727],[-6.206349463244915,36.74843694688705],[-6.378411414090767,36.74843694688705],[-6.378411414090767,36.818042529135866],[-6.399919157946498,36.83543404473093],[-6.399919157946498,36.887584868326584],[-6.507457877225156,37.00913164850654],[-6.5289656210808875,37.00913164850654],[-6.593488852648082,37.061163734333796],[-6.636504340359545,37.061163734333796],[-6.679519828071009,37.09583198069046],[-6.744043059638202,37.09583198069046],[-6.679519828071009,37.14780462032319],[-6.636504340359545,37.14780462032319],[-6.593488852648082,37.18243321891784]]],[[[-8.593709031231112,38.41845439875522],[-8.55069354351965,38.350330079033576],[-8.529185799663919,38.33328897497355],[-8.486170311952456,38.33328897497355],[-8.464662568096726,38.29919474184351],[-8.464662568096726,38.11139005395852],[-8.572201287375382,38.02586419851704],[-8.593709031231112,37.99162586550658],[-8.615216775086845,37.99162586550658],[-8.65823226279831,37.95737154485765],[-8.701247750509772,37.95737154485765],[-8.744263238221237,37.90596009753319],[-8.765770982076965,37.90596009753319],[-8.765770982076965,37.940238390662664],[-8.787278725932698,37.95737154485765],[-8.83029421364416,37.95737154485765],[-8.83029421364416,37.99162586550658],[-8.765770982076965,38.077191710808115],[-8.765770982076965,38.14557239292507],[-8.744263238221237,38.162657559378715],[-8.744263238221237,38.24802333813632],[-8.765770982076965,38.26508447914771],[-8.765770982076965,38.29919474184351],[-8.83029421364416,38.350330079033576],[-8.851801957499893,38.384400259321495],[-8.851801957499893,38.46950552152848],[-8.808786469788428,38.46950552152848],[-8.67974000665404,38.41845439875522],[-8.593709031231112,38.41845439875522]]],[[[-2.765110446327871,38.96113549994787],[-2.808125934039334,38.9780279048073],[-2.808125934039334,38.99491628077696],[-2.743602702472139,38.99491628077696],[-2.765110446327871,38.96113549994787]]],[[[-4.679299649487977,39.91755825919962],[-4.679299649487977,39.967532076771484],[-4.72231513719944,40.00082767499649],[-4.808346112622365,40.00082767499649],[-4.829853856478097,39.9841819041786],[-4.958900319612487,39.9841819041786],[-4.980408063468218,39.95087819319289],[-5.130962270458338,39.95087819319289],[-5.195485502025533,40.00082767499649],[-5.238500989736996,40.067370184072466],[-5.238500989736996,40.117234451441895],[-5.260008733592728,40.150456997642614],[-5.195485502025533,40.150456997642614],[-5.130962270458338,40.200260360799355],[-5.130962270458338,40.233442294139294],[-5.087946782746875,40.2666079767636],[-5.087946782746875,40.316326023727115],[-5.130962270458338,40.34945106583829],[-5.130962270458338,40.3825598463157],[-5.15247001431407,40.41565236209225],[-5.130962270458338,40.41565236209225],[-5.109454526602606,40.3825598463157],[-5.066439038891144,40.36600748897345],[-5.066439038891144,40.29975740552371],[-5.044931295035413,40.28318472307256],[-4.937392575756755,40.28318472307256],[-4.8943770880452915,40.332890577294314],[-4.786838368766634,40.316326023727115],[-4.657791905632245,40.36600748897345],[-4.657791905632245,40.3825598463157],[-4.614776417920782,40.41565236209225],[-4.614776417920782,40.44872861012404],[-4.636284161776514,40.481788587390355],[-4.614776417920782,40.49831247354882],[-4.614776417920782,40.53134803905373],[-4.679299649487977,40.56436732634265],[-4.851361600333829,40.56436732634265],[-4.87286934418956,40.59737033247579],[-4.915884831901023,40.59737033247579],[-4.958900319612487,40.56436732634265],[-5.195485502025533,40.56436732634265],[-5.216993245881264,40.59737033247579],[-5.216993245881264,40.84437362600167],[-5.195485502025533,40.860807914757906],[-5.195485502025533,40.910086319798914],[-5.173977758169801,40.94291820209252],[-5.130962270458338,40.97573377107352],[-5.023423551179681,40.97573377107352],[-4.958900319612487,41.00853302408843],[-4.915884831901023,41.00853302408843],[-4.87286934418956,41.041315958506445],[-4.851361600333829,41.12320188363008],[-4.829853856478097,41.139566824211265],[-4.829853856478097,41.286667551820415],[-4.765330624910902,41.31931167514454],[-4.765330624910902,41.3519394560066],[-4.743822881055171,41.3519394560066],[-4.700807393343708,41.31931167514454],[-4.59326867406505,41.30299165613974],[-4.571760930209319,41.31931167514454],[-4.571760930209319,41.48228710728898],[-4.528745442497856,41.49856216825247],[-4.4427144670749295,41.49856216825247],[-4.378191235507735,41.53110002337931],[-4.249144772373346,41.53110002337931],[-4.249144772373346,41.49856216825247],[-4.227637028517615,41.48228710728898],[-4.227637028517615,41.3519394560066],[-4.249144772373346,41.3519394560066],[-4.292160260084809,41.31931167514454],[-4.292160260084809,41.286667551820415],[-4.270652516229077,41.27033936248932],[-4.227637028517615,41.27033936248932],[-4.184621540806151,41.254007088450635],[-4.227637028517615,41.23767073000991],[-4.227637028517615,41.18863715135218],[-4.206129284661883,41.17228445838702],[-4.120098309238957,41.17228445838702],[-4.077082821527495,41.204985761151605],[-4.0125595899603,41.204985761151605],[-3.9910518461045683,41.17228445838702],[-3.9910518461045683,41.12320188363008],[-3.969544102248836,41.10683286114199],[-3.969544102248836,41.074082571719444],[-3.9480363583931046,41.057701305425695],[-3.8835131268259104,41.057701305425695],[-3.840497639114447,41.09045975706523],[-3.6899434321243265,41.09045975706523],[-3.6684356882685947,41.041315958506445],[-3.6039124567014005,41.00853302408843],[-3.6039124567014005,40.87723812686897],[-3.539389225134206,40.84437362600167],[-3.474865993567011,40.84437362600167],[-3.45335824971128,40.860807914757906],[-3.345819530432623,40.860807914757906],[-3.3243117865768905,40.87723812686897],[-3.2812962988654273,40.87723812686897],[-3.2812962988654273,40.827935260941196],[-3.2382808111539645,40.795046303278426],[-3.2382808111539645,40.77859571136513],[-3.1522498357310385,40.72921948746176],[-3.1522498357310385,40.69628163488862],[-3.1952653234425017,40.67980659866791],[-3.1952653234425017,40.66332748963096],[-3.2382808111539645,40.64684430813443],[-3.2812962988654273,40.64684430813443],[-3.302804042721159,40.63035705453646],[-3.302804042721159,40.580870864736525],[-3.388835018144085,40.53134803905373],[-3.4103427619998166,40.49831247354882],[-3.474865993567011,40.49831247354882],[-3.5608969689899372,40.432192519765586],[-3.5608969689899372,40.41565236209225],[-3.6899434321243265,40.41565236209225],[-3.711451175980058,40.39910813748237],[-3.711451175980058,40.29975740552371],[-3.7329589198357893,40.28318472307256],[-3.7974821514029844,40.28318472307256],[-3.818989895258716,40.29975740552371],[-3.9265286145373732,40.29975740552371],[-3.969544102248836,40.2666079767636],[-3.969544102248836,40.150456997642614],[-4.034067333816031,40.13384775468366],[-4.077082821527495,40.10061708832187],[-4.077082821527495,40.067370184072466],[-4.0555750776717625,40.050740643759475],[-4.0125595899603,40.050740643759475],[-4.0125595899603,40.00082767499649],[-3.9910518461045683,39.9841819041786],[-3.9910518461045683,39.95087819319289],[-3.8835131268259104,39.867547947451946],[-3.8620053829701786,39.867547947451946],[-3.840497639114447,39.81750115300654],[-3.7974821514029844,39.78411636093325],[-3.7974821514029844,39.717298162533574],[-3.775974407547252,39.7005834875153],[-3.711451175980058,39.7005834875153],[-3.6684356882685947,39.717298162533574],[-3.6039124567014005,39.61694938200267],[-3.6039124567014005,39.56672035043595],[-3.625420200557132,39.54996924790585],[-3.625420200557132,39.415814837284564],[-3.6684356882685947,39.39902734408237],[-3.6684356882685947,39.31502927119038],[-3.6469279444128633,39.29821753854526],[-3.6469279444128633,39.23093023030633],[-3.625420200557132,39.21409831123729],[-3.625420200557132,39.0792977096206],[-3.6469279444128633,39.0792977096206],[-3.7329589198357893,39.02868094402439],[-3.7329589198357893,38.99491628077696],[-3.6899434321243265,38.96113549994787],[-3.6899434321243265,38.8935256017868],[-3.7544666636915207,38.84277589984629],[-3.8835131268259104,38.84277589984629],[-3.905020870681642,38.825851282269205],[-3.905020870681642,38.67334869494716],[-3.969544102248836,38.67334869494716],[-3.9910518461045683,38.65638385834427],[-4.034067333816031,38.65638385834427],[-4.077082821527495,38.62244212872041],[-4.077082821527495,38.58848432745765],[-4.034067333816031,38.53751750070555],[-3.905020870681642,38.53751750070555],[-3.818989895258716,38.58848432745765],[-3.775974407547252,38.58848432745765],[-3.7544666636915207,38.605465236774236],[-3.6684356882685947,38.605465236774236],[-3.6469279444128633,38.58848432745765],[-3.6039124567014005,38.58848432745765],[-3.539389225134206,38.63941500275648],[-3.302804042721159,38.63941500275648],[-3.259788555009696,38.67334869494716],[-3.2167730672982326,38.67334869494716],[-3.2167730672982326,38.605465236774236],[-3.1952653234425017,38.58848432745765],[-3.109234348019575,38.58848432745765],[-3.087726604163844,38.605465236774236],[-2.937172397173723,38.605465236774236],[-2.89415690946226,38.63941500275648],[-2.851141421750797,38.63941500275648],[-2.8296336778950657,38.62244212872041],[-2.765110446327871,38.62244212872041],[-2.722094958616408,38.65638385834427],[-2.722094958616408,38.690309512030055],[-2.851141421750797,38.791989974836],[-2.851141421750797,38.825851282269205],[-2.743602702472139,38.825851282269205],[-2.700587214760677,38.791989974836],[-2.507017520059093,38.791989974836],[-2.442494288491898,38.75811257451367],[-2.4209865446361665,38.724219085503194],[-2.377971056924704,38.724219085503194],[-2.3564633130689723,38.707266309059406],[-2.3564633130689723,38.690309512030055],[-2.399478800780435,38.67334869494716],[-2.399478800780435,38.58848432745765],[-2.4209865446361665,38.5714994013119],[-2.4209865446361665,38.43547545175329],[-2.377971056924704,38.40142933442522],[-2.377971056924704,38.350330079033576],[-2.3349555692132404,38.316243862388205],[-2.3564633130689723,38.29919474184351],[-2.3564633130689723,38.26508447914771],[-2.5500330077705557,38.26508447914771],[-2.5930484954820185,38.21388903964752],[-2.636063983193482,38.19681588331914],[-2.851141421750797,38.19681588331914],[-2.872649165606529,38.17973872303673],[-2.937172397173723,38.17973872303673],[-2.9586801410294545,38.14557239292507],[-3.1522498357310385,38.14557239292507],[-3.1952653234425017,38.094292882613395],[-3.259788555009696,38.094292882613395],[-3.3243117865768905,38.06008653913048],[-3.3243117865768905,37.95737154485765],[-3.2812962988654273,37.90596009753319],[-3.259788555009696,37.90596009753319],[-3.2382808111539645,37.85451270504189],[-3.2812962988654273,37.85451270504189],[-3.3673272742883538,37.92310124135388],[-3.388835018144085,37.95737154485765],[-3.388835018144085,37.99162586550658],[-3.45335824971128,38.077191710808115],[-3.5178814812784744,38.077191710808115],[-3.5608969689899372,38.042977368169815],[-3.711451175980058,38.042977368169815],[-3.7544666636915207,38.00874703076462],[-3.905020870681642,38.00874703076462],[-3.9265286145373732,37.99162586550658],[-4.0555750776717625,37.99162586550658],[-4.1631137969504195,37.940238390662664],[-4.227637028517615,37.940238390662664],[-4.378191235507735,37.85451270504189],[-4.378191235507735,37.785860295342054],[-4.3996989793634675,37.76868721728211],[-4.464222210930661,37.76868721728211],[-4.485729954786392,37.73432909470697],[-4.528745442497856,37.71714405142857],[-4.59326867406505,37.71714405142857],[-4.636284161776514,37.73432909470697],[-4.636284161776514,37.76868721728211],[-4.657791905632245,37.785860295342054],[-4.700807393343708,37.785860295342054],[-4.72231513719944,37.76868721728211],[-4.808346112622365,37.76868721728211],[-4.829853856478097,37.785860295342054],[-4.8943770880452915,37.785860295342054],[-4.8943770880452915,37.803029383761675],[-4.937392575756755,37.82019448192652],[-4.937392575756755,37.83735558922369],[-4.980408063468218,37.871665828771384],[-5.023423551179681,37.871665828771384],[-5.044931295035413,37.85451270504189],[-5.044931295035413,37.76868721728211],[-5.087946782746875,37.76868721728211],[-5.109454526602606,37.75151015019787],[-5.109454526602606,37.68276200399397],[-5.195485502025533,37.75151015019787],[-5.346039709015655,37.75151015019787],[-5.389055196727117,37.69995502098347],[-5.389055196727117,37.66556500108404],[-5.367547452871386,37.64836401287917],[-5.367547452871386,37.596737142773776],[-5.324531965159922,37.56229931443436],[-5.324531965159922,37.42438879186473],[-5.346039709015655,37.407132076096154],[-5.346039709015655,37.3726067180436],[-5.432070684438579,37.3726067180436],[-5.453578428294311,37.355338077063],[-5.453578428294311,37.217045948970586],[-5.561117147572969,37.217045948970586],[-5.604132635284432,37.25164280512724],[-5.582624891428701,37.338065462317786],[-5.604132635284432,37.355338077063],[-5.668655866851628,37.355338077063],[-5.6901636107073585,37.38987138460548],[-5.71167135456309,37.38987138460548],[-5.754686842274552,37.42438879186473],[-5.754686842274552,37.4588902936399],[-5.776194586130284,37.49337588475561],[-5.819210073841747,37.527845560061934],[-5.86222556155321,37.527845560061934],[-5.883733305408942,37.54507442768418],[-5.883733305408942,37.57952021967589],[-5.948256536976136,37.64836401287917],[-6.0773030001105255,37.68276200399397],[-6.0773030001105255,37.71714405142857],[-6.098810743966257,37.73432909470697],[-6.034287512399063,37.76868721728211],[-6.034287512399063,37.803029383761675],[-6.055795256254794,37.82019448192652],[-6.055795256254794,37.90596009753319],[-6.0773030001105255,37.92310124135388],[-6.120318487821988,37.92310124135388],[-6.14182623167772,37.90596009753319],[-6.163333975533451,37.940238390662664],[-6.206349463244915,37.940238390662664],[-6.292380438667841,37.97450070333853],[-6.335395926379305,38.02586419851704],[-6.335395926379305,38.077191710808115],[-6.3138881825235735,38.094292882613395],[-6.184841719389183,38.094292882613395],[-6.120318487821988,38.14557239292507],[-6.120318487821988,38.23095819144501],[-6.0773030001105255,38.28214161390699],[-6.0773030001105255,38.316243862388205],[-6.14182623167772,38.36736717400384],[-6.14182623167772,38.40142933442522],[-6.120318487821988,38.40142933442522],[-6.055795256254794,38.45249249286275],[-6.055795256254794,38.520520527335144],[-5.991272024687601,38.554510458879754],[-5.991272024687601,38.58848432745765],[-5.969764280831868,38.605465236774236],[-5.969764280831868,38.67334869494716],[-5.926748793120405,38.67334869494716],[-5.926748793120405,38.62244212872041],[-5.883733305408942,38.58848432745765],[-5.86222556155321,38.58848432745765],[-5.840717817697478,38.554510458879754],[-5.7977023299860155,38.554510458879754],[-5.776194586130284,38.520520527335144],[-5.733179098418821,38.50351953931594],[-5.6901636107073585,38.50351953931594],[-5.668655866851628,38.53751750070555],[-5.668655866851628,38.50351953931594],[-5.6256403791401635,38.46950552152848],[-5.582624891428701,38.46950552152848],[-5.539609403717237,38.41845439875522],[-5.496593916005774,38.40142933442522],[-5.389055196727117,38.40142933442522],[-5.346039709015655,38.36736717400384],[-5.281516477448459,38.36736717400384],[-5.281516477448459,38.29919474184351],[-5.238500989736996,38.26508447914771],[-5.238500989736996,38.14557239292507],[-5.195485502025533,38.11139005395852],[-5.15247001431407,38.11139005395852],[-5.109454526602606,38.14557239292507],[-5.066439038891144,38.14557239292507],[-5.023423551179681,38.17973872303673],[-5.023423551179681,38.19681588331914],[-4.915884831901023,38.19681588331914],[-4.87286934418956,38.23095819144501],[-4.87286934418956,38.29919474184351],[-4.829853856478097,38.29919474184351],[-4.808346112622365,38.316243862388205],[-4.765330624910902,38.316243862388205],[-4.743822881055171,38.29919474184351],[-4.743822881055171,38.26508447914771],[-4.72231513719944,38.24802333813632],[-4.636284161776514,38.24802333813632],[-4.614776417920782,38.26508447914771],[-4.614776417920782,38.316243862388205],[-4.657791905632245,38.350330079033576],[-4.679299649487977,38.350330079033576],[-4.679299649487977,38.45249249286275],[-4.72231513719944,38.48651453719689],[-4.765330624910902,38.48651453719689],[-4.786838368766634,38.50351953931594],[-4.808346112622365,38.554510458879754],[-4.851361600333829,38.58848432745765],[-4.87286934418956,38.58848432745765],[-4.87286934418956,38.62244212872041],[-4.915884831901023,38.65638385834427],[-4.8943770880452915,38.690309512030055],[-4.8943770880452915,38.724219085503194],[-4.87286934418956,38.74116784083093],[-4.87286934418956,38.77505328602398],[-4.915884831901023,38.84277589984629],[-4.851361600333829,38.87661306012256],[-4.786838368766634,38.87661306012256],[-4.765330624910902,38.8935256017868],[-4.765330624910902,38.92733860559154],[-4.808346112622365,38.96113549994787],[-4.851361600333829,38.96113549994787],[-4.87286934418956,38.99491628077696],[-4.937392575756755,38.99491628077696],[-4.958900319612487,39.01180062735083],[-5.238500989736996,39.01180062735083],[-5.281516477448459,39.02868094402439],[-5.281516477448459,39.0792977096206],[-5.303024221304191,39.096161901677974],[-5.303024221304191,39.36544023488794],[-5.260008733592728,39.39902734408237],[-5.260008733592728,39.51645490756044],[-5.303024221304191,39.533214100128575],[-5.303024221304191,39.54996924790585],[-5.367547452871386,39.600210417936935],[-5.453578428294311,39.600210417936935],[-5.518101659861506,39.56672035043595],[-5.561117147572969,39.482924389884225],[-5.6256403791401635,39.432598288931885],[-5.7977023299860155,39.432598288931885],[-5.840717817697478,39.39902734408237],[-5.883733305408942,39.39902734408237],[-5.948256536976136,39.432598288931885],[-6.0773030001105255,39.432598288931885],[-6.098810743966257,39.415814837284564],[-6.098810743966257,39.29821753854526],[-6.184841719389183,39.26458195899762],[-6.184841719389183,39.180422366076584],[-6.270872694812109,39.12987818809678],[-6.292380438667841,39.12987818809678],[-6.3138881825235735,39.096161901677974],[-6.378411414090767,39.0455572302946],[-6.378411414090767,38.94423906670625],[-6.42142690180223,38.94423906670625],[-6.442934645657961,38.92733860559154],[-6.593488852648082,38.92733860559154],[-6.679519828071009,38.87661306012256],[-6.679519828071009,38.84277589984629],[-6.636504340359545,38.808922640425344],[-6.57198110879235,38.808922640425344],[-6.550473364936619,38.791989974836],[-6.507457877225156,38.791989974836],[-6.485950133369424,38.75811257451367],[-6.57198110879235,38.75811257451367],[-6.593488852648082,38.74116784083093],[-6.765550803493934,38.74116784083093],[-6.787058547349665,38.724219085503194],[-6.787058547349665,38.63941500275648],[-6.830074035061129,38.62244212872041],[-6.894597266628323,38.5714994013119],[-6.937612754339787,38.5714994013119],[-6.937612754339787,38.63941500275648],[-6.959120498195518,38.65638385834427],[-6.959120498195518,38.690309512030055],[-7.066659217474175,38.825851282269205],[-7.066659217474175,38.85969649263682],[-7.0881669613299065,38.8935256017868],[-7.174197936752834,38.9780279048073],[-7.195705680608565,39.01180062735083],[-7.195705680608565,39.0455572302946],[-7.346259887598685,39.16357834095912],[-7.3677676314544165,39.197262356331926],[-7.3677676314544165,39.23093023030633],[-7.41078311916588,39.26458195899762],[-7.41078311916588,39.44937769855753],[-7.346259887598685,39.51645490756044],[-7.346259887598685,39.56672035043595],[-7.324752143742954,39.58346740726409],[-7.324752143742954,39.63368429901097],[-7.303244399887222,39.66714199006139],[-7.2602289121757595,39.66714199006139],[-7.238721168320028,39.68386476321028],[-6.98062824205125,39.68386476321028],[-6.937612754339787,39.717298162533574],[-6.916105010484055,39.7507153629457],[-6.916105010484055,39.81750115300654],[-6.85158177891686,39.867547947451946],[-6.85158177891686,39.934220253862044],[-6.830074035061129,39.95087819319289],[-6.830074035061129,40.083995665729574],[-6.765550803493934,40.083995665729574],[-6.744043059638202,40.10061708832187],[-6.636504340359545,40.10061708832187],[-6.57198110879235,40.067370184072466],[-6.5289656210808875,40.067370184072466],[-6.464442389513692,40.13384775468366],[-6.356903670235035,40.13384775468366],[-6.292380438667841,40.10061708832187],[-6.184841719389183,40.117234451441895],[-6.120318487821988,40.067370184072466],[-5.991272024687601,40.067370184072466],[-5.926748793120405,40.034107045201],[-5.7977023299860155,40.034107045201],[-5.776194586130284,40.01746938880889],[-5.539609403717237,40.01746938880889],[-5.432070684438579,40.067370184072466],[-5.389055196727117,40.067370184072466],[-5.367547452871386,40.10061708832187],[-5.324531965159922,40.10061708832187],[-5.346039709015655,40.083995665729574],[-5.346039709015655,39.95087819319289],[-5.367547452871386,39.934220253862044],[-5.367547452871386,39.90089220962779],[-5.410562940582848,39.884222105570196],[-5.410562940582848,39.850869735699625],[-5.389055196727117,39.83418747074131],[-5.324531965159922,39.83418747074131],[-5.281516477448459,39.850869735699625],[-5.260008733592728,39.800810782926355],[-5.303024221304191,39.78411636093325],[-5.303024221304191,39.7507153629457],[-5.260008733592728,39.7005834875153],[-5.195485502025533,39.7005834875153],[-5.130962270458338,39.7507153629457],[-5.130962270458338,39.7005834875153],[-5.087946782746875,39.65041516851299],[-5.044931295035413,39.65041516851299],[-5.001915807323949,39.7005834875153],[-5.001915807323949,39.734008787823676],[-5.066439038891144,39.78411636093325],[-5.066439038891144,39.850869735699625],[-5.001915807323949,39.850869735699625],[-4.980408063468218,39.83418747074131],[-4.87286934418956,39.83418747074131],[-4.851361600333829,39.81750115300654],[-4.679299649487977,39.81750115300654],[-4.657791905632245,39.83418747074131],[-4.657791905632245,39.867547947451946],[-4.700807393343708,39.884222105570196],[-4.700807393343708,39.90089220962779],[-4.679299649487977,39.91755825919962]],[[-4.657791905632245,39.800810782926355],[-4.636284161776514,39.78411636093325],[-4.59326867406505,39.78411636093325],[-4.571760930209319,39.800810782926355],[-4.571760930209319,39.83418747074131],[-4.59326867406505,39.850869735699625],[-4.636284161776514,39.850869735699625],[-4.657791905632245,39.83418747074131],[-4.657791905632245,39.800810782926355]],[[-4.120098309238957,38.46950552152848],[-4.120098309238957,38.50351953931594],[-4.184621540806151,38.53751750070555],[-4.270652516229077,38.53751750070555],[-4.292160260084809,38.520520527335144],[-4.292160260084809,38.48651453719689],[-4.249144772373346,38.45249249286275],[-4.141606053094688,38.45249249286275],[-4.120098309238957,38.46950552152848]],[[-4.937392575756755,39.39902734408237],[-4.980408063468218,39.38223580979357],[-4.980408063468218,39.348640619836765],[-4.937392575756755,39.331836965112814],[-4.87286934418956,39.28140176765474],[-4.786838368766634,39.28140176765474],[-4.743822881055171,39.31502927119038],[-4.700807393343708,39.31502927119038],[-4.657791905632245,39.348640619836765],[-4.657791905632245,39.432598288931885],[-4.636284161776514,39.44937769855753],[-4.636284161776514,39.482924389884225],[-4.700807393343708,39.51645490756044],[-4.72231513719944,39.54996924790585],[-4.765330624910902,39.56672035043595],[-4.808346112622365,39.56672035043595],[-4.851361600333829,39.51645490756044],[-4.851361600333829,39.482924389884225],[-4.87286934418956,39.44937769855753],[-4.937392575756755,39.39902734408237]],[[-6.593488852648082,39.66714199006139],[-6.57198110879235,39.68386476321028],[-6.57198110879235,39.734008787823676],[-6.614996596503814,39.7674178874612],[-6.658012084215278,39.7674178874612],[-6.70102757192674,39.717298162533574],[-6.70102757192674,39.68386476321028],[-6.679519828071009,39.66714199006139],[-6.593488852648082,39.66714199006139]],[[-5.410562940582848,39.7674178874612],[-5.410562940582848,39.800810782926355],[-5.453578428294311,39.83418747074131],[-5.561117147572969,39.850869735699625],[-5.582624891428701,39.83418747074131],[-5.582624891428701,39.800810782926355],[-5.496593916005774,39.7507153629457],[-5.432070684438579,39.7507153629457],[-5.410562940582848,39.7674178874612]]]]}}
