{"type":"Feature","properties":{"id":"kaiseradler","sourceUrl":"https://commons.wikimedia.org/wiki/File:AquilaHeliacaIUCNver2019_1.png","author":"Alexander K\u00fcrthy","license":"CC BY-SA 3.0","licenseUrl":"https://creativecommons.org/licenses/by-sa/3.0","sourceImageSha256":"0369693f19bc9ea1ae9211f1fb66f05389a355cda1b0df5ab49fd4781540eaea","registration":{"status":"candidate","projection":"merc","proj_string":"+proj=merc +R=1 +lon_0=0","image_width":1280,"image_height":896,"parameters_1000px":[463.60407503729954,-463.2497808001716,-91.71740462614802,660.4967574682014],"pixel_transform_native":[593.4132160477435,-592.9597194242197,-117.39827792146947,845.4358495592978],"transform_definition":"pixel_x=sx*projected_x+tx; pixel_y=sy*projected_y+ty; inverse: lonlat = pyproj.Proj(proj_string)((px-tx)/sx,(py-ty)/sy,inverse=True)","coast_count":4756,"coast_median_px_at1000":0.35083943605422974,"coast_p90_px_at1000":2.1719541549682617,"coast_rmse_px_at1000":1.854542851448059,"coast_rmse_capped15_px_at1000":1.8195773363113403,"sift_matches":291,"sift_inliers":181,"sift_inlier_median_px":0.5824056973006122,"sift_affine_initialization":[[1.5432804776969007,6.0926893756870195e-05,-275.4913338065465],[-6.0926893756870195e-05,1.5432804776969007,-302.8644880489426]],"independent_border_validation":{"method":"Natural Earth international boundaries >0.22 degrees away from coast; not used in fitting; nearest pale raster boundary pixels; only unsaturated grey base regions sampled","count":1791,"median_px_at1000":0.9865850806236267,"p90_px_at1000":2.916630983352661,"rmse_px_at1000":2.339402675628662},"inverse_roundtrip_checks":[{"name":"Gibraltar","lonlat":[-5.6,36],"pixel_native":[-175.3975588128063,445.61765153106893],"roundtrip_degree_error":0.0},{"name":"Lindesnes","lonlat":[7.05,57.98],"pixel_native":[-44.38132608505437,105.1244045072799],"roundtrip_degree_error":8.881784197001252e-16},{"name":"CapeComorin","lonlat":[77.55,8.08],"pixel_native":[685.7881922790967,761.536573971618],"roundtrip_degree_error":7.105427357601002e-15},{"name":"Tokyo","lonlat":[139.7,35.7],"pixel_native":[1329.4766400284866,449.44804501994514],"roundtrip_degree_error":0.0},{"name":"Cairo","lonlat":[31.2,30.0],"pixel_native":[205.7405727588357,519.7194323369769],"roundtrip_degree_error":7.105427357601002e-15}]},"includedColors":["#00FF00","#008000","#00FFFF","#007FFF"],"adaptation":"Hue-based extraction of current seasonal colors; inverse Mercator registration; 3px closing of printed border gaps; 0.45px contour simplification; components smaller than 4 source pixels omitted; antimeridian split."},"geometry":{"type":"MultiPolygon","coordinates":[[[[121.88824150432129,24.480910653083257],[121.59858274059496,23.95217062211785],[121.59858274059496,23.59846587328415],[121.40547689811076,23.24380465689447],[121.40547689811076,23.0661188162892],[120.92271229190024,22.442377298413238],[120.92271229190024,21.99511917237449],[120.72960644941601,21.905497048461925],[120.63305352817392,22.084684706707975],[120.63305352817392,22.263645275328052],[120.24684184320549,22.620879330815455],[120.24684184320549,22.799149938181042],[120.05373600072127,23.0661188162892],[120.05373600072127,23.332559029112183],[120.1502889219634,23.421254137690372],[120.1502889219634,23.77543848924248],[120.43994768568969,24.128660919473944],[120.63305352817392,24.568819856743833],[120.92271229190024,24.83217709169768],[121.01926521314233,25.094975357887172],[121.59858274059496,25.35721032482582],[121.98479442556338,25.094975357887172],[121.88824150432129,24.91983883641429],[121.88824150432129,24.480910653083257]]],[[[121.30892397686864,57.98637304739926],[121.69513566183709,57.78089088638878],[121.69513566183709,57.72933674634375],[122.17790026804761,57.47046129188461],[122.17790026804761,57.41846481126247],[122.95032363798445,56.94716167173535],[122.95032363798445,56.78872191320056],[123.14342948046865,56.57642315153834],[123.14342948046865,56.46982451367119],[123.23998240171075,56.41641267231744],[123.23998240171075,56.30936364937983],[123.33653532295286,56.25572635017638],[123.33653532295286,56.094362599711225],[123.52964116543707,55.878154442509455],[123.52964116543707,55.76959654631823],[123.62619408667918,55.71520394400103],[123.62619408667918,55.60619114762814],[123.7227470079213,55.55157084084003],[123.7227470079213,55.38725361382345],[123.81929992916339,55.33232891703027],[123.81929992916339,55.22225075985701],[123.9158528504055,55.167097189556145],[123.9158528504055,54.274213048711935],[124.0124057716476,54.2177534070676],[124.0124057716476,51.95505707648092],[124.1089586928897,51.89546844013838],[124.1089586928897,51.174221394292154],[124.20551161413182,51.113601017030554],[124.20551161413182,50.809303957262365],[124.30206453537392,50.74820526029639],[124.30206453537392,50.44151343567407],[124.39861745661602,50.37993516581076],[124.39861745661602,50.07084248343319],[124.49517037785814,50.008783457100385],[124.49517037785814,49.69728417726737],[124.59172329910024,49.634743282556016],[124.59172329910024,49.320832029024075],[124.68827622034235,49.25780822774796],[124.68827622034235,48.94147999807004],[124.78482914158444,48.877972327841704],[124.78482914158444,48.55922250378456],[124.88138206282655,48.49523008010607],[124.88138206282655,48.17405443813878],[124.97793498406867,48.109576456506105],[124.97793498406867,47.78597117835252],[125.07448790531076,47.72100691637185],[125.07448790531076,47.39496859961982],[125.17104082655287,47.329517419134596],[125.17104082655287,47.00104308789403],[125.26759374779496,46.93510443712088],[125.26759374779496,46.60419155272267],[125.36414666903708,46.537764968394654],[125.36414666903708,46.20441144012179],[125.46069959027919,46.13749654963732],[125.46069959027919,45.801700745479465],[125.55725251152128,45.73429726905483],[125.55725251152128,45.39605802647696],[125.65380543276339,45.32816577930082],[125.65380543276339,44.98748241601623],[125.75035835400551,44.919101310404],[125.75035835400551,44.575973635141665],[125.8469112752476,44.50710368268768],[125.8469112752476,44.161532005943535],[125.94346419648971,44.092173319668944],[125.94346419648971,43.74415846443018],[126.04001711773181,43.6743112609243],[126.04001711773181,43.323854573355376],[126.13657003897393,43.253519174908334],[126.13657003897393,42.90062253498727],[126.23312296021604,42.829799371711424],[126.23312296021604,42.474465203804144],[126.32967588145813,42.4031548157419],[126.32967588145813,42.04538609910247],[126.42622880270024,41.97358913831804],[126.42622880270024,41.61338941750186],[126.52278172394236,41.5411066501543],[126.52278172394236,41.178480045331234],[126.61933464518445,41.10571235372614],[126.61933464518445,40.74066357088017],[126.71588756642656,40.667411955497286],[126.71588756642656,40.29994629649876],[126.81244048766865,40.22621187799272],[126.81244048766865,39.85633525052911],[127.00554633015288,39.558990706725574],[127.00554633015288,39.4098381990513],[127.29520509387918,39.035558855905236],[127.29520509387918,38.885288784593314],[127.4883109363634,38.65928657312326],[127.4883109363634,38.50822090161463],[127.77796970008973,38.129168166923186],[127.77796970008973,37.97699269714006],[127.97107554257393,37.748136809761796],[127.97107554257393,37.59517172052121],[128.26073430630026,37.211381484428316],[128.26073430630026,37.05731558629586],[128.5503930700266,36.67078048997904],[128.5503930700266,36.51561960480387],[128.74349891251077,36.282293957620205],[128.74349891251077,36.12635474311028],[129.0331576762371,35.735149894476585],[129.0331576762371,35.57812668487457],[129.2262635187213,35.342013718652616],[129.2262635187213,35.1842204936325],[129.0331576762371,35.026120300586804],[128.936604754995,35.105208730299374],[128.64694599126867,35.105208730299374],[128.45384014878445,34.86771374847653],[128.16418138505813,34.86771374847653],[128.06762846381602,34.946955280943435],[127.87452262133182,34.946955280943435],[127.77796970008973,34.86771374847653],[127.77796970008973,34.709001456800415],[127.3917580151213,34.470361138775175],[126.81244048766865,34.470361138775175],[126.61933464518445,34.31088727793999],[126.52278172394236,34.31088727793999],[126.23312296021604,34.62953085510801],[126.32967588145813,35.026120300586804],[126.23312296021604,35.1842204936325],[126.42622880270024,35.42079503072595],[126.42622880270024,35.65667688125931],[126.61933464518445,35.813545653308424],[126.61933464518445,36.0482687010385],[126.52278172394236,36.12635474311028],[126.52278172394236,36.4379222335517],[126.13657003897393,36.74824387625261],[126.13657003897393,36.90293622181199],[126.61933464518445,37.211381484428316],[126.61933464518445,37.59517172052121],[126.42622880270024,37.82450105919932],[126.23312296021604,37.82450105919932],[126.13657003897393,37.748136809761796],[126.04001711773181,37.82450105919932],[125.65380543276339,37.82450105919932],[125.36414666903708,37.67169367862551],[125.17104082655287,37.90078637282459],[124.97793498406867,37.97699269714006],[124.88138206282655,38.129168166923186],[124.68827622034235,38.129168166923186],[124.68827622034235,38.20513720846355],[124.88138206282655,38.28102705283683],[124.88138206282655,38.43256894893896],[124.97793498406867,38.58379345901415],[125.17104082655287,38.73470019653006],[125.17104082655287,39.035558855905236],[125.36414666903708,39.26036596398916],[125.36414666903708,39.48445443932406],[125.07448790531076,39.63344696096375],[124.59172329910024,39.63344696096375],[124.59172329910024,39.707823162330556],[124.39861745661602,39.85633525052911],[123.7227470079213,39.85633525052911],[123.33653532295286,39.707823162330556],[123.14342948046865,39.707823162330556],[123.04687655922655,39.63344696096375],[122.85377071674233,39.63344696096375],[122.66066487425813,39.48445443932406],[122.37100611053181,39.4098381990513],[122.2744531892897,39.26036596398916],[121.88824150432129,38.96046365742579],[121.50202981935286,38.81003428242379],[121.30892397686864,38.81003428242379],[121.11581813438444,38.73470019653006],[121.11581813438444,38.96046365742579],[121.30892397686864,39.11057433561115],[121.50202981935286,39.11057433561115],[121.59858274059496,39.18551005271705],[121.59858274059496,39.33514202678485],[121.50202981935286,39.4098381990513],[121.21237105562653,39.4098381990513],[121.21237105562653,39.48445443932406],[121.50202981935286,39.63344696096375],[121.50202981935286,39.85633525052911],[121.98479442556338,40.152397109800084],[121.98479442556338,40.22621187799272],[122.17790026804761,40.37360033080033],[122.17790026804761,40.5940797918295],[121.98479442556338,40.8138346068533],[121.11581813438444,40.886925032852034],[121.01926521314233,40.74066357088017],[120.63305352817392,40.44717394694882],[120.5365006069318,40.22621187799272],[119.95718307947917,40.004526665281844],[119.76407723699495,40.004526665281844],[119.37786555202655,39.707823162330556],[119.28131263078443,39.558990706725574],[119.28131263078443,39.4098381990513],[118.9916538670581,39.18551005271705],[118.6054421820897,39.18551005271705],[118.31578341836338,39.035558855905236],[118.12267757587918,39.18551005271705],[117.92957173339495,39.18551005271705],[117.83301881215286,39.11057433561115],[117.83301881215286,39.035558855905236],[117.63991296966866,38.885288784593314],[117.63991296966866,38.50822090161463],[117.92957173339495,38.28102705283683],[118.12267757587918,38.20513720846355],[118.7019951033318,38.20513720846355],[118.7985480245739,38.28102705283683],[118.9916538670581,38.129168166923186],[119.08820678830023,37.97699269714006],[119.08820678830023,37.67169367862551],[118.9916538670581,37.59517172052121],[118.9916538670581,37.441891545425726],[119.28131263078443,37.211381484428316],[119.76407723699495,37.211381484428316],[119.86063015823707,37.288296734716106],[119.86063015823707,37.441891545425726],[120.24684184320549,37.59517172052121],[120.24684184320549,37.748136809761796],[120.43994768568969,37.82450105919932],[120.63305352817392,37.82450105919932],[120.72960644941601,37.90078637282459],[120.92271229190024,37.90078637282459],[121.21237105562653,37.67169367862551],[121.40547689811076,37.67169367862551],[121.59858274059496,37.51857099079822],[121.88824150432129,37.51857099079822],[121.98479442556338,37.59517172052121],[122.17790026804761,37.59517172052121],[122.37100611053181,37.441891545425726],[122.75721779550022,37.441891545425726],[122.56411195301601,37.134387748592296],[122.56411195301601,36.90293622181199],[122.2744531892897,36.825629140942915],[122.17790026804761,36.90293622181199],[121.79168858307916,36.90293622181199],[121.59858274059496,36.74824387625261],[121.30892397686864,36.74824387625261],[121.11581813438444,36.67078048997904],[120.92271229190024,36.4379222335517],[120.72960644941601,36.36014699601758],[120.72960644941601,36.12635474311028],[120.5365006069318,36.12635474311028],[120.3433947644476,36.0482687010385],[120.05373600072127,35.813545653308424],[119.95718307947917,35.65667688125931],[119.86063015823707,35.65667688125931],[119.47441847326864,35.342013718652616],[119.28131263078443,35.026120300586804],[119.28131263078443,34.86771374847653],[119.37786555202655,34.788395780953],[119.47441847326864,34.788395780953],[119.76407723699495,34.549984055627725],[119.95718307947917,34.470361138775175],[120.1502889219634,34.470361138775175],[120.3433947644476,34.31088727793999],[120.3433947644476,34.15110992923808],[120.5365006069318,33.91087632911804],[120.5365006069318,33.66996368268204],[120.72960644941601,33.42837434178829],[120.72960644941601,33.18611071295702],[120.92271229190024,32.943175257578304],[120.92271229190024,32.69957049211216],[121.11581813438444,32.536796743903786],[121.40547689811076,32.45529898828083],[121.40547689811076,32.29208220393724],[121.88824150432129,31.96476632982021],[121.88824150432129,31.718510596563917],[121.69513566183709,31.718510596563917],[121.59858274059496,31.63627945801959],[121.59858274059496,31.47159896801554],[121.79168858307916,31.306628234782927],[121.98479442556338,30.975819483811552],[121.88824150432129,30.89293724895628],[121.59858274059496,30.89293724895628],[121.21237105562653,30.643860206839808],[121.21237105562653,30.4774513579578],[121.40547689811076,30.310757584163536],[121.50202981935286,30.310757584163536],[121.50202981935286,30.227304139209867],[121.69513566183709,30.06018471689342],[121.88824150432129,29.976518975116754],[122.17790026804761,29.976518975116754],[122.17790026804761,29.89278270448856],[121.98479442556338,29.725099055574933],[121.98479442556338,29.22036799431346],[121.79168858307916,29.13600242811173],[121.79168858307916,28.967063517188425],[121.59858274059496,28.713137613926726],[121.59858274059496,28.45859375959476],[121.69513566183709,28.288556292523058],[121.50202981935286,28.288556292523058],[121.40547689811076,28.203435486441432],[121.11581813438444,28.203435486441432],[120.72960644941601,27.691290098720323],[120.72960644941601,27.434310334738154],[120.1502889219634,26.832365257945273],[120.1502889219634,26.659788067361564],[119.95718307947917,26.57340138298793],[119.95718307947917,26.31385074040955],[119.76407723699495,26.227204157970014],[119.76407723699495,25.966877404221385],[119.66752431575287,25.879973321781044],[119.66752431575287,25.35721032482582],[119.47441847326864,25.35721032482582],[119.28131263078443,25.182449814562972],[119.18475970954232,25.182449814562972],[119.08820678830023,25.007438311940433],[118.7019951033318,24.656667439732512],[118.7019951033318,24.568819856743833],[118.31578341836338,24.568819856743833],[118.21923049712126,24.480910653083257],[118.21923049712126,24.30490803990985],[117.83301881215286,23.95217062211785],[117.63991296966866,23.86383470085117],[117.63991296966866,23.77543848924248],[117.44680712718441,23.77543848924248],[117.25370128470021,23.59846587328415],[116.96404252097389,23.59846587328415],[116.86748959973181,23.50988980979679],[116.86748959973181,23.24380465689447],[116.77093667848969,23.24380465689447],[116.57783083600549,23.0661188162892],[116.57783083600549,22.97718769698325],[116.28817207227917,22.97718769698325],[115.99851330855284,22.799149938181042],[115.70885454482652,22.799149938181042],[115.61230162358443,22.71004365185238],[115.0329840961318,22.71004365185238],[114.93643117488968,22.531657153350203],[114.64677241116335,22.531657153350203],[114.26056072619495,22.174193468467372],[113.39158443501599,22.174193468467372],[113.0053727500476,21.905497048461925],[112.81226690756336,21.905497048461925],[112.61916106507915,21.726083767224928],[111.94329061638442,21.726083767224928],[111.36397308893177,21.456544036824628],[110.97776140396337,21.456544036824628],[110.39844387651073,21.096381926752823],[110.39844387651073,20.735344261659094],[110.59154971899494,20.55450091490495],[110.59154971899494,20.463998787580575],[110.39844387651073,20.282834596073084],[109.9156792703002,20.282834596073084],[109.72257342781599,20.644949470783892],[109.72257342781599,20.82568509462274],[109.62602050657388,20.91597177741892],[109.72257342781599,21.096381926752823],[109.72257342781599,21.366586255732777],[109.62602050657388,21.456544036824628],[109.04670297912125,21.456544036824628],[108.95015005787914,21.6362929792324],[108.56393837291073,21.6362929792324],[108.4673854516686,21.546446340322316],[108.08117376670019,21.546446340322316],[107.98462084545808,21.456544036824628],[107.79151500297388,21.456544036824628],[107.40530331800545,21.186505012050294],[107.40530331800545,21.006204118444977],[107.21219747552124,20.91597177741892],[106.92253871179491,20.91597177741892],[106.6328799480686,20.55450091490495],[106.6328799480686,20.282834596073084],[106.24666826310019,20.010691399178192],[106.15011534185808,20.010691399178192],[105.95700949937387,19.82900029069524],[105.86045657813176,19.647101183926335],[105.86045657813176,19.28268537498352],[105.76390365688967,19.19145393191718],[105.76390365688967,18.826024290462883],[105.86045657813176,18.6430100162057],[106.34322118434231,18.18461418857642],[106.43977410558439,18.18461418857642],[106.6328799480686,17.540836745346883],[106.92253871179491,17.264225428278976],[107.11564455427916,17.171929001960308],[107.11564455427916,16.98719846650083],[106.24666826310019,16.98719846650083],[105.86045657813176,17.171929001960308],[105.66735073564755,17.171929001960308],[105.57079781440547,17.264225428278976],[105.37769197192124,17.264225428278976],[104.60526860198439,18.000916183654603],[104.21905691701598,18.18461418857642],[104.02595107453178,18.36811893204248],[103.83284523204755,18.36811893204248],[103.25352770459492,18.6430100162057],[102.77076309838439,19.00883947656078],[102.48110433465807,19.10017189785446],[102.28799849217386,19.28268537498352],[101.80523388596333,19.28268537498352],[101.61212804347912,19.10017189785446],[101.51557512223701,18.91745687242603],[101.51557512223701,18.6430100162057],[101.41902220099492,18.551428737035447],[101.41902220099492,17.632947145994503],[101.32246927975281,17.540836745346883],[101.32246927975281,16.246472584528426],[101.41902220099492,16.153682560501306],[101.41902220099492,15.875052100782327],[101.51557512223701,15.782089231476615],[101.51557512223701,15.409813512420014],[101.61212804347912,15.316639654362165],[101.61212804347912,15.036869894838404],[101.99833972844755,14.663273009320998],[102.09489264968965,14.476234200572202],[102.38455141341596,14.476234200572202],[102.48110433465807,14.38265551643581],[102.86731601962649,14.38265551643581],[102.96386894086861,14.289037623080928],[103.35008062583702,14.289037623080928],[103.44663354707913,14.38265551643581],[104.31560983825808,14.38265551643581],[104.41216275950018,14.476234200572202],[104.60526860198439,14.38265551643581],[104.8949273657107,14.38265551643581],[104.99148028695282,14.476234200572202],[105.57079781440547,14.476234200572202],[105.76390365688967,14.38265551643581],[105.95700949937387,14.195380754120698],[105.95700949937387,13.914178637429924],[106.15011534185808,13.632634199388587],[106.15011534185808,13.068543958018644],[105.66735073564755,12.31442272310369],[105.08803320819493,12.031060318875047],[103.83284523204755,12.031060318875047],[103.73629231080545,12.125548001281658],[103.15697478335281,12.125548001281658],[103.0604218621107,12.220002217608277],[102.77076309838439,12.220002217608277],[102.67421017714229,12.31442272310369],[102.28799849217386,12.31442272310369],[101.90178680720544,12.597479533912011],[100.93625759478441,12.597479533912011],[100.83970467354227,12.69176275768595],[100.83970467354227,13.444750882561834],[100.74315175230016,13.538711085186984],[100.55004590981596,13.538711085186984],[100.45349298857387,13.444750882561834],[100.16383422484756,13.444750882561834],[100.06728130360543,13.35075382965607],[100.06728130360543,13.16265012802188],[100.16383422484756,13.068543958018644],[99.97072838236332,12.786011053734393],[99.97072838236332,12.503161624866964],[100.06728130360543,12.408809273470283],[100.06728130360543,12.220002217608277],[99.97072838236332,12.031060318875047],[99.77762253987912,12.031060318875047],[99.77762253987912,12.220002217608277],[99.68106961863703,12.31442272310369],[99.68106961863703,12.69176275768595],[99.5845166973949,12.786011053734393],[99.5845166973949,13.35075382965607],[99.4879637761528,13.444750882561834],[99.5845166973949,13.632634199388587],[99.5845166973949,14.10168514368199],[99.68106961863703,14.195380754120698],[99.68106961863703,16.431921100984283],[99.2948579336686,17.171929001960308],[99.10175209118438,17.356475671460505],[99.00519916994227,17.632947145994503],[98.81209332745806,17.81702660400266],[98.81209332745806,17.908995234871945],[98.61898748497384,18.092789238603963],[98.61898748497384,18.18461418857642],[98.32932872124752,18.551428737035447],[98.32932872124752,18.826024290462883],[98.13622287876333,19.19145393191718],[98.13622287876333,19.46499567619775],[97.94311703627909,19.82900029069524],[97.94311703627909,20.373443283018233],[97.846564115037,20.463998787580575],[97.846564115037,21.096381926752823],[97.75001119379489,21.186505012050294],[97.75001119379489,23.86383470085117],[97.846564115037,23.95217062211785],[97.846564115037,24.83217709169768],[97.94311703627909,24.91983883641429],[97.94311703627909,25.182449814562972],[98.03966995752121,25.269861522974235],[98.03966995752121,26.227204157970014],[97.75001119379489,26.4869495017423],[97.6534582725528,26.4869495017423],[97.26724658758437,26.746109407800123],[96.88103490261595,26.746109407800123],[96.78448198137383,26.832365257945273],[93.69478850162646,26.832365257945273],[93.59823558038435,26.746109407800123],[92.4396005254791,26.746109407800123],[92.34304760423697,26.659788067361564],[91.47407131305805,26.659788067361564],[91.37751839181593,26.57340138298793],[90.70164794312119,26.57340138298793],[90.02577749442645,25.966877404221385],[90.02577749442645,25.444496062521523],[90.99130670684751,23.686982156691],[90.99130670684751,23.50988980979679],[91.0878596280896,23.421254137690372],[91.0878596280896,22.97718769698325],[90.99130670684751,22.8881980121992],[90.7982008643633,22.8881980121992],[90.41198917939488,22.620879330815455],[89.83267165194223,22.620879330815455],[89.73611873070013,22.531657153350203],[88.28782491206854,22.531657153350203],[88.19127199082644,22.620879330815455],[87.99816614834224,22.620879330815455],[87.80506030585802,22.8881980121992],[87.80506030585802,23.154991194553606],[87.70850738461591,23.24380465689447],[87.70850738461591,23.421254137690372],[86.93608401467907,24.128660919473944],[86.54987232971065,24.30490803990985],[86.35676648722645,24.30490803990985],[86.26021356598433,24.392939992618174],[86.06710772350013,24.392939992618174],[85.97055480225802,24.480910653083257],[85.7774489597738,24.480910653083257],[85.6808960385317,24.568819856743833],[85.48779019604748,24.568819856743833],[85.19813143232118,24.744453238876392],[84.71536682611065,24.83217709169768],[84.61881390486853,24.91983883641429],[83.74983761368959,24.91983883641429],[83.65328469244749,24.83217709169768],[83.46017884996327,24.83217709169768],[83.26707300747907,24.744453238876392],[82.88086132251064,24.392939992618174],[82.88086132251064,24.30490803990985],[82.59120255878432,24.040446084332288],[82.1084379525738,23.0661188162892],[81.43256750387906,22.442377298413238],[81.14290874015275,22.442377298413238],[81.04635581891063,22.353039945636866],[80.17737952773169,22.353039945636866],[80.08082660648958,22.442377298413238],[79.69461492152116,22.442377298413238],[79.21185031531063,22.799149938181042],[79.11529739406853,22.799149938181042],[78.92219155158432,22.97718769698325],[78.92219155158432,23.154991194553606],[78.82563863034221,23.24380465689447],[78.82563863034221,24.128660919473944],[78.92219155158432,24.21681496021277],[78.92219155158432,24.568819856743833],[79.11529739406853,24.91983883641429],[79.11529739406853,25.094975357887172],[79.21185031531063,25.182449814562972],[79.21185031531063,25.35721032482582],[79.30840323655273,25.444496062521523],[79.30840323655273,26.227204157970014],[78.92219155158432,26.57340138298793],[78.7290857091001,26.659788067361564],[78.53597986661589,26.659788067361564],[78.43942694537378,26.746109407800123],[77.66700357543694,26.746109407800123],[77.57045065419484,26.832365257945273],[76.31526267804749,26.832365257945273],[76.21870975680537,26.91855547214363],[75.92905099307904,26.91855547214363],[75.83249807183695,26.832365257945273],[75.54283930811063,26.832365257945273],[74.77041593817378,26.31385074040955],[74.67386301693168,26.31385074040955],[73.70833380451062,25.35721032482582],[73.51522796202642,25.007438311940433],[73.51522796202642,24.83217709169768],[72.74280459208957,23.50988980979679],[72.74280459208957,23.332559029112183],[72.64625167084746,23.24380465689447],[72.64625167084746,22.8881980121992],[72.54969874960534,22.799149938181042],[72.54969874960534,22.353039945636866],[72.26003998587903,21.99511917237449],[72.26003998587903,21.726083767224928],[72.35659290712114,21.6362929792324],[72.16348706463693,21.27657318470243],[71.97038122215272,21.096381926752823],[71.3910636947001,20.82568509462274],[71.1979578522159,20.82568509462274],[71.10140493097377,20.735344261659094],[70.61864032476325,20.735344261659094],[70.42553448227905,20.82568509462274],[68.97724066364745,22.174193468467372],[68.88068774240534,22.353039945636866],[69.07379358488956,22.531657153350203],[69.17034650613166,22.442377298413238],[69.55655819110008,22.442377298413238],[69.65311111234219,22.531657153350203],[69.65311111234219,22.71004365185238],[69.55655819110008,22.799149938181042],[69.26689942737376,22.799149938181042],[68.88068774240534,22.97718769698325],[68.68758189992113,23.154991194553606],[68.59102897867903,23.154991194553606],[68.39792313619482,23.50988980979679],[68.2048172937106,23.59846587328415],[68.1082643724685,23.77543848924248],[67.62549976625797,23.77543848924248],[67.33584100253167,24.040446084332288],[67.33584100253167,24.21681496021277],[67.23928808128954,24.30490803990985],[67.23928808128954,24.656667439732512],[66.94962931756324,24.83217709169768],[66.65997055383691,24.83217709169768],[66.65997055383691,25.269861522974235],[66.4668647113527,25.444496062521523],[65.79099426265799,25.444496062521523],[65.69444134141585,25.35721032482582],[64.8254650502369,25.35721032482582],[64.7289121289948,25.182449814562972],[64.5358062865106,25.182449814562972],[64.24614752278428,25.35721032482582],[63.66682999533164,25.35721032482582],[63.47372415284743,25.182449814562972],[63.37717123160533,25.269861522974235],[62.508194940426385,25.269861522974235],[62.41164201918427,25.094975357887172],[61.92887741297374,25.094975357887172],[61.73577157048954,25.007438311940433],[61.639218649247425,25.094975357887172],[61.253006964279,25.094975357887172],[60.963348200552694,25.269861522974235],[60.67368943682637,25.269861522974235],[60.57713651558427,25.35721032482582],[59.804713145647426,25.35721032482582],[59.708160224405326,25.444496062521523],[58.93573685446848,25.444496062521523],[58.74263101198426,25.618877718558156],[57.77710179956321,25.618877718558156],[57.48744303583689,25.79300524431151],[57.29433719335268,25.79300524431151],[57.197784272110574,25.966877404221385],[57.197784272110574,26.140492973953094],[57.00467842962637,26.40043257139223],[57.00467842962637,26.832365257945273],[56.715019665900044,27.17673085310312],[56.135702138447414,27.17673085310312],[55.942596295963206,27.004679905447016],[55.74949045347899,27.004679905447016],[55.459831689752676,26.746109407800123],[55.17017292602636,26.746109407800123],[54.78396124105794,26.4869495017423],[54.59085539857373,26.4869495017423],[54.397749556089515,26.57340138298793],[54.20464371360531,26.746109407800123],[53.62532618615267,26.746109407800123],[53.23911450118425,27.090738413612605],[53.046008658700046,27.090738413612605],[52.65979697373162,27.34851695543858],[52.56324405248951,27.34851695543858],[52.56324405248951,27.52003707827215],[52.3701382100053,27.691290098720323],[52.177032367521086,27.691290098720323],[51.98392652503688,27.86227490520043],[51.501161918826355,27.86227490520043],[51.21150315510003,28.118246809959416],[51.21150315510003,28.288556292523058],[51.01839731261582,28.54351015540564],[51.01839731261582,28.713137613926726],[50.82529147013161,28.88249042635107],[50.82529147013161,29.05156756020691],[50.632185627647395,29.13600242811173],[50.632185627647395,29.473047627382076],[50.14942102143687,29.89278270448856],[50.14942102143687,30.06018471689342],[50.052868100194765,30.143779810972447],[49.76320933646845,30.143779810972447],[49.66665641522634,30.06018471689342],[49.473550572742134,30.06018471689342],[49.37699765150003,30.143779810972447],[48.990785966531604,30.143779810972447],[48.21836259659476,29.80897602455747],[48.21836259659476,29.557134734977325],[48.12180967535266,29.473047627382076],[48.12180967535266,29.13600242811173],[48.41146843907897,28.79784841569516],[48.50802136032108,28.373609094555093],[48.797680124047396,28.0329903974327],[48.8942330452895,27.7768160977388],[49.08733888777371,27.60569704603322],[49.280444730257926,27.60569704603322],[49.37699765150003,27.34851695543858],[49.57010349398425,27.262657081087003],[49.85976225771055,26.91855547214363],[49.95631517895267,26.91855547214363],[50.14942102143687,26.746109407800123],[50.24597394267897,26.140492973953094],[50.14942102143687,26.05371733894159],[50.14942102143687,25.879973321781044],[50.24597394267897,25.705973325205704],[50.43907978516319,25.531718579164593],[50.72873854888952,25.531718579164593],[50.92184439137372,25.79300524431151],[50.92184439137372,25.966877404221385],[51.21150315510003,26.227204157970014],[51.40460899758424,26.140492973953094],[51.501161918826355,25.966877404221385],[51.597714840068456,25.966877404221385],[51.597714840068456,25.269861522974235],[51.69426776131056,25.094975357887172],[51.501161918826355,24.83217709169768],[51.501161918826355,24.480910653083257],[51.79082068255266,24.30490803990985],[51.79082068255266,24.128660919473944],[51.88737360379478,24.040446084332288],[52.2735852887632,24.040446084332288],[52.56324405248951,24.21681496021277],[53.14256157994215,24.21681496021277],[53.23911450118425,24.128660919473944],[54.01153787112109,24.128660919473944],[54.10809079236319,24.21681496021277],[54.10809079236319,24.392939992618174],[54.397749556089515,24.392939992618174],[54.494302477331615,24.480910653083257],[54.59085539857373,24.744453238876392],[55.17017292602636,25.182449814562972],[55.17017292602636,25.269861522974235],[55.652937532236884,25.705973325205704],[55.74949045347899,25.705973325205704],[56.039149217205306,25.966877404221385],[56.039149217205306,26.140492973953094],[56.32880798093162,26.40043257139223],[56.52191382341584,26.40043257139223],[56.52191382341584,26.140492973953094],[56.32880798093162,25.79300524431151],[56.32880798093162,25.618877718558156],[56.42536090217373,25.531718579164593],[56.42536090217373,24.83217709169768],[56.52191382341584,24.656667439732512],[57.197784272110574,23.95217062211785],[57.680548878321105,23.86383470085117],[57.77710179956321,23.77543848924248],[58.163313484531635,23.77543848924248],[58.259866405773735,23.686982156691],[58.54952516950006,23.686982156691],[58.74263101198426,23.59846587328415],[59.03228977571058,23.24380465689447],[59.03228977571058,23.154991194553606],[59.22539561819479,22.97718769698325],[59.22539561819479,22.8881980121992],[59.515054381921104,22.620879330815455],[59.804713145647426,22.620879330815455],[59.804713145647426,22.174193468467372],[59.515054381921104,21.815818518634586],[59.418501460679,21.546446340322316],[58.74263101198426,20.91597177741892],[58.54952516950006,20.463998787580575],[58.45297224825795,20.373443283018233],[58.06676056328953,20.373443283018233],[57.87365472080531,20.19217292224659],[57.87365472080531,20.010691399178192],[57.77710179956321,19.91987194415758],[57.77710179956321,19.19145393191718],[57.87365472080531,19.00883947656078],[57.680548878321105,18.91745687242603],[57.10123135086847,18.91745687242603],[56.90812550838426,18.826024290462883],[56.618466744657944,18.551428737035447],[56.618466744657944,18.276390823033235],[56.32880798093162,17.908995234871945],[55.55638461099478,17.908995234871945],[55.363278768510575,17.725010503394515],[55.363278768510575,17.44867951559124],[55.17017292602636,17.07958660900549],[54.97706708354215,16.98719846650083],[54.10809079236319,16.98719846650083],[53.52877326491057,16.709761721286828],[53.14256157994215,16.709761721286828],[53.046008658700046,16.617192763079338],[52.852902816215824,16.617192763079338],[52.4666911312474,16.431921100984283],[52.2735852887632,16.246472584528426],[52.177032367521086,16.060848989517922],[52.177032367521086,15.782089231476615],[52.2735852887632,15.689083712103074],[52.177032367521086,15.59603576827121],[51.40460899758424,15.223424279764272],[50.535632706405295,15.036869894838404],[50.24597394267897,14.85015219079371],[49.85976225771055,14.85015219079371],[49.76320933646845,14.756732669298739],[49.57010349398425,14.756732669298739],[49.18389180901582,14.56977344239327],[48.70112720280529,14.007951026402859],[47.92870383286844,14.007951026402859],[47.735597990384235,13.914178637429924],[47.44593922665791,13.632634199388587],[47.252833384173705,13.632634199388587],[47.1562804629316,13.538711085186984],[46.86662169920529,13.538711085186984],[46.770068777963175,13.444750882561834],[45.99764540802634,13.444750882561834],[45.90109248678423,13.35075382965607],[45.70798664430002,13.35075382965607],[45.4183278805737,13.068543958018644],[45.3217749593316,13.068543958018644],[45.032116195605276,12.786011053734393],[44.83901035312107,12.69176275768595],[44.74245743187896,12.786011053734393],[44.54935158939475,12.786011053734393],[44.25969282566844,12.597479533912011],[43.873481140700015,12.597479533912011],[43.77692821945791,12.69176275768595],[43.19761069200527,12.69176275768595],[42.71484608579475,12.220002217608277],[42.61829316455265,12.031060318875047],[42.61829316455265,11.84198553707737],[42.42518732206843,11.652779839186545],[42.42518732206843,10.799787203539285],[42.135528558342116,10.229764536069224],[42.135528558342116,10.039526441504844],[41.9424227158579,9.849176456048172],[41.9424227158579,9.753960140356899],[41.26655226716316,9.086698422051766],[41.169999345921056,9.086698422051766],[39.81825844853159,7.74852838822529],[39.72170552728947,7.556996196208019],[39.528599684805265,7.461198101772569],[39.33549384232105,7.461198101772569],[39.23894092107895,7.365379025828083],[38.94928215735263,7.365379025828083],[38.85272923611053,7.461198101772569],[38.65962339362632,7.461198101772569],[38.466517551142104,7.556996196208019],[38.273411708657896,7.844261960386949],[38.273411708657896,8.322594101701787],[38.466517551142104,8.609315408915421],[38.466517551142104,8.89581964635962],[38.65962339362632,9.277475547835992],[38.65962339362632,9.563446138600433],[38.85272923611053,9.944365308008887],[38.85272923611053,10.229764536069224],[39.04583507859475,10.609896937898014],[39.04583507859475,10.989557495244176],[38.94928215735263,11.084397024153143],[38.94928215735263,11.463445199244266],[38.85272923611053,11.558128513320634],[38.85272923611053,11.936539415590381],[38.75617631486842,12.031060318875047],[38.75617631486842,12.408809273470283],[38.65962339362632,12.503161624866964],[38.65962339362632,12.786011053734393],[38.466517551142104,13.16265012802188],[38.466517551142104,13.35075382965607],[38.3699646299,13.444750882561834],[38.3699646299,13.632634199388587],[38.273411708657896,13.726519987516452],[38.273411708657896,13.914178637429924],[38.17685878741579,14.007951026402859],[38.273411708657896,14.195380754120698],[38.273411708657896,14.38265551643581],[38.17685878741579,14.56977344239327],[38.273411708657896,14.663273009320998],[38.273411708657896,14.943531342799464],[38.3699646299,15.130167616964199],[38.85272923611053,15.59603576827121],[39.43204676356317,15.875052100782327],[39.43204676356317,15.689083712103074],[39.62515260604737,15.502945626140892],[39.91481136977369,15.502945626140892],[40.107917212257895,15.409813512420014],[40.107917212257895,15.130167616964199],[40.20447013350001,15.036869894838404],[40.590681818468425,15.036869894838404],[40.88034058219474,14.756732669298739],[41.169999345921056,14.663273009320998],[41.8458697946158,13.914178637429924],[42.232081479584224,13.726519987516452],[42.328634400826324,13.444750882561834],[42.81139900703685,12.974401895179692],[43.10105777076317,12.974401895179692],[43.19761069200527,13.068543958018644],[43.19761069200527,13.914178637429924],[42.90795192827896,14.476234200572202],[42.81139900703685,15.130167616964199],[42.61829316455265,15.223424279764272],[42.61829316455265,15.689083712103074],[42.81139900703685,15.967972094963388],[42.81139900703685,16.246472584528426],[42.71484608579475,16.33921883877588],[42.71484608579475,16.709761721286828],[42.42518732206843,17.07958660900549],[42.328634400826324,17.07958660900549],[42.328634400826324,17.264225428278976],[42.232081479584224,17.44867951559124],[41.8458697946158,17.81702660400266],[41.652763952131586,17.908995234871945],[41.45965810964738,18.36811893204248],[41.169999345921056,18.6430100162057],[41.073446424678956,19.10017189785446],[40.78378766095263,19.647101183926335],[40.20447013350001,20.19217292224659],[40.011364291015795,20.282834596073084],[39.81825844853159,20.282834596073084],[39.528599684805265,20.55450091490495],[39.33549384232105,20.91597177741892],[39.14238799983684,21.096381926752823],[39.04583507859475,21.27657318470243],[39.04583507859475,21.726083767224928],[38.94928215735263,21.815818518634586],[39.04583507859475,22.620879330815455],[38.75617631486842,22.97718769698325],[38.75617631486842,23.154991194553606],[38.3699646299,23.86383470085117],[37.98375294493158,24.128660919473944],[37.40443541747894,24.392939992618174],[37.307882496236836,24.656667439732512],[37.11477665375263,24.83217709169768],[37.211329574994735,25.007438311940433],[37.211329574994735,25.182449814562972],[37.01822373251052,25.35721032482582],[36.92167081126841,25.618877718558156],[36.6320120475421,25.79300524431151],[36.6320120475421,25.966877404221385],[36.43890620505789,26.140492973953094],[36.245800362573675,26.57340138298793],[35.76303575636315,27.090738413612605],[35.76303575636315,27.262657081087003],[35.47337699263683,27.52003707827215],[35.47337699263683,27.691290098720323],[34.99061238642631,28.118246809959416],[34.7975065439421,28.118246809959416],[34.70095362269999,28.0329903974327],[34.507847780215776,28.0329903974327],[34.31474193773157,27.86227490520043],[34.31474193773157,27.7768160977388],[34.121636095247354,27.7768160977388],[34.02508317400525,27.86227490520043],[33.73542441027894,27.86227490520043],[33.63887148903683,27.7768160977388],[33.63887148903683,27.52003707827215],[33.83197733152104,27.34851695543858],[33.83197733152104,27.17673085310312],[34.02508317400525,26.91855547214363],[34.02508317400525,26.659788067361564],[34.21818901648946,26.40043257139223],[34.21818901648946,26.227204157970014],[34.507847780215776,25.879973321781044],[35.18371822891052,24.568819856743833],[35.666482835121045,24.040446084332288],[35.76303575636315,24.040446084332288],[35.76303575636315,23.95217062211785],[35.569929913878944,23.86383470085117],[35.569929913878944,22.97718769698325],[35.47337699263683,22.8881980121992],[35.47337699263683,22.620879330815455],[35.28027115015262,22.263645275328052],[35.28027115015262,22.084684706707975],[35.18371822891052,21.99511917237449],[35.18371822891052,21.6362929792324],[35.087165307668414,21.546446340322316],[35.087165307668414,21.27657318470243],[34.99061238642631,21.186505012050294],[34.99061238642631,20.91597177741892],[34.7975065439421,20.55450091490495],[34.7975065439421,20.373443283018233],[34.8940594651842,20.282834596073084],[34.8940594651842,19.647101183926335],[34.99061238642631,19.556074129952123],[34.99061238642631,19.00883947656078],[35.087165307668414,18.91745687242603],[35.087165307668414,18.36811893204248],[34.99061238642631,18.276390823033235],[34.99061238642631,17.725010503394515],[34.8940594651842,17.632947145994503],[34.8940594651842,17.264225428278976],[34.70095362269999,16.89476479211584],[34.70095362269999,16.617192763079338],[34.604400701457884,16.524579149460386],[34.604400701457884,15.967972094963388],[34.507847780215776,15.875052100782327],[34.507847780215776,15.223424279764272],[34.411294858973676,15.130167616964199],[34.411294858973676,14.38265551643581],[34.31474193773157,14.289037623080928],[34.31474193773157,13.256720165102655],[34.21818901648946,13.16265012802188],[34.21818901648946,12.503161624866964],[34.02508317400525,12.220002217608277],[34.02508317400525,12.031060318875047],[33.83197733152104,11.747398929430599],[33.83197733152104,11.558128513320634],[33.54231856779472,10.989557495244176],[33.54231856779472,10.799787203539285],[33.25265980406841,10.229764536069224],[33.25265980406841,9.563446138600433],[33.54231856779472,9.182099820054919],[33.54231856779472,9.086698422051766],[33.73542441027894,8.89581964635962],[33.73542441027894,8.800342785033893],[33.928530252763146,8.609315408915421],[33.928530252763146,8.513765412539119],[34.31474193773157,8.131329435322431],[34.507847780215776,7.74852838822529],[35.087165307668414,7.077798544860178],[35.28027115015262,6.694080177534222],[35.569929913878944,6.406092382088037],[35.76303575636315,6.021856945142654],[35.95614159884737,5.8296361523488285],[35.95614159884737,5.73350092307521],[36.14924744133157,5.541182138128509],[36.43890620505789,4.963858502976824],[36.53545912629999,4.482366714208818],[36.728564968784205,4.289679230897582],[37.01822373251052,3.7113337449183317],[37.11477665375263,3.2290872256145797],[37.211329574994735,3.132609338350024],[37.211329574994735,2.9396271612633753],[37.307882496236836,2.8431234172267117],[37.307882496236836,2.5535648403404347],[37.40443541747894,2.4570304441063153],[37.40443541747894,2.1673864726564576],[37.50098833872105,2.0708258002569115],[37.50098833872105,1.7811095715989764],[37.59754125996316,1.6845270050326222],[37.59754125996316,1.3947516729347482],[37.69409418120526,1.2981515991747412],[37.69409418120526,0.8151013582333516],[37.790647102447366,0.7184832576906136],[37.790647102447366,0.3319931704489895],[37.88720002368947,0.2353676011655012],[37.88720002368947,-0.0545120238818172],[38.08030586617368,-0.44101473763165033],[38.08030586617368,-0.634259668186683],[38.17685878741579,-0.7308795651853841],[38.17685878741579,-1.6003321511626065],[38.273411708657896,-1.6969189069770603],[38.273411708657896,-2.75899459334294],[38.17685878741579,-2.855505389827483],[38.17685878741579,-3.0485023857972333],[37.790647102447366,-3.434390348378328],[35.76303575636315,-3.434390348378328],[35.666482835121045,-3.3379322932015563],[35.087165307668414,-3.3379322932015563],[34.99061238642631,-3.241464765984809],[34.7975065439421,-3.241464765984809],[34.604400701457884,-3.1449880392869676],[34.604400701457884,-3.0485023857972333],[34.31474193773157,-2.75899459334294],[34.31474193773157,-2.1797748520390434],[34.70095362269999,-1.4071452663018476],[34.70095362269999,-1.2139423795305846],[34.99061238642631,-0.7308795651853841],[34.99061238642631,-0.5376379674198212],[35.087165307668414,-0.44101473763165033],[35.087165307668414,-0.15113862191048066],[35.18371822891052,-0.0545120238818172],[35.18371822891052,0.3319931704489895],[35.28027115015262,0.4286177955226207],[35.28027115015262,1.1049406536098314],[35.37682407139473,1.201547834569143],[35.37682407139473,2.7466116002511876],[35.28027115015262,2.8431234172267117],[35.28027115015262,3.132609338350024],[35.087165307668414,3.5184648102264244],[35.087165307668414,3.7113337449183317],[34.99061238642631,3.807752559263969],[34.99061238642631,4.00055752261187],[34.8940594651842,4.096943128337529],[34.8940594651842,4.289679230897582],[34.70095362269999,4.675003411812862],[34.507847780215776,4.867587160118936],[34.507847780215776,4.963858502976824],[34.31474193773157,5.156358777171895],[34.31474193773157,5.252587169533052],[33.25265980406841,6.406092382088037],[32.866448119099985,6.598102757457123],[32.67334227661577,6.790038731574143],[32.57678935537367,6.790038731574143],[32.38368351288946,6.981898180229258],[32.28713059164735,6.981898180229258],[32.09402474916314,7.173678983492508],[31.997471827921036,7.173678983492508],[31.514707221710513,7.652773045978844],[31.12849553674209,8.418191556787598],[30.838836773015768,8.800342785033893],[30.838836773015768,9.468148963874855],[30.742283851773667,9.563446138600433],[30.742283851773667,10.134659602181905],[30.93538969425788,10.514907443100645],[30.93538969425788,10.704856941912333],[31.03194261549998,10.799787203539285],[31.12849553674209,11.463445199244266],[31.22504845798419,11.558128513320634],[31.22504845798419,13.820368212415797],[31.12849553674209,13.914178637429924],[31.12849553674209,14.289037623080928],[31.03194261549998,14.38265551643581],[31.03194261549998,14.85015219079371],[30.93538969425788,14.943531342799464],[30.93538969425788,15.502945626140892],[30.838836773015768,15.59603576827121],[30.838836773015768,16.153682560501306],[30.742283851773667,16.246472584528426],[30.742283851773667,16.80228580410125],[30.645730930531556,16.89476479211584],[30.645730930531556,17.264225428278976],[30.452625088047345,17.632947145994503],[30.452625088047345,17.81702660400266],[30.356072166805244,17.908995234871945],[30.356072166805244,18.18461418857642],[30.259519245563133,18.276390823033235],[30.259519245563133,18.826024290462883],[30.162966324321033,18.91745687242603],[30.162966324321033,19.373866023914204],[30.066413403078922,19.46499567619775],[30.066413403078922,20.735344261659094],[30.162966324321033,20.82568509462274],[30.162966324321033,21.905497048461925],[30.259519245563133,21.99511917237449],[30.259519245563133,22.531657153350203],[30.356072166805244,22.620879330815455],[30.356072166805244,22.8881980121992],[30.452625088047345,22.97718769698325],[30.452625088047345,23.24380465689447],[30.549178009289456,23.332559029112183],[30.549178009289456,23.686982156691],[30.645730930531556,23.77543848924248],[30.645730930531556,25.182449814562972],[30.549178009289456,25.269861522974235],[30.549178009289456,25.705973325205704],[30.452625088047345,25.79300524431151],[30.452625088047345,26.140492973953094],[30.356072166805244,26.227204157970014],[30.356072166805244,26.57340138298793],[30.259519245563133,26.659788067361564],[30.259519245563133,27.004679905447016],[30.162966324321033,27.090738413612605],[30.162966324321033,28.713137613926726],[30.066413403078922,28.79784841569516],[30.066413403078922,29.89278270448856],[30.162966324321033,29.976518975116754],[30.162966324321033,30.4774513579578],[30.066413403078922,30.560691455419736],[30.066413403078922,30.89293724895628],[29.96986048183682,30.975819483811552],[29.96986048183682,31.306628234782927],[30.066413403078922,31.38914982840633],[30.259519245563133,31.38914982840633],[30.356072166805244,31.553975546644015],[30.742283851773667,31.553975546644015],[30.838836773015768,31.63627945801959],[31.3216013792263,31.63627945801959],[31.4181543004684,31.553975546644015],[31.804365985436824,31.553975546644015],[31.90091890667893,31.63627945801959],[32.09402474916314,31.38914982840633],[32.38368351288946,31.306628234782927],[32.57678935537367,31.141368116834773],[32.769895197857885,31.141368116834773],[32.866448119099985,31.224034294806767],[33.928530252763146,31.224034294806767],[34.121636095247354,31.306628234782927],[34.411294858973676,31.553975546644015],[34.7975065439421,32.21036337325308],[34.7975065439421,32.45529898828083],[34.8940594651842,32.536796743903786],[34.8940594651842,32.86204791101734],[35.087165307668414,33.02422823589694],[35.18371822891052,33.42837434178829],[35.569929913878944,34.07110765505548],[35.569929913878944,34.23103649811578],[35.85958867760525,34.549984055627725],[35.85958867760525,35.42079503072595],[35.76303575636315,35.499499377190396],[35.76303575636315,35.891864087185745],[35.85958867760525,35.970105126187306],[35.85958867760525,36.20436318441798],[35.76303575636315,36.282293957620205],[35.76303575636315,36.51561960480387],[35.666482835121045,36.59323904499391],[35.28027115015262,36.59323904499391],[34.7975065439421,36.825629140942915],[34.604400701457884,36.825629140942915],[34.121636095247354,36.4379222335517],[34.02508317400525,36.282293957620205],[33.83197733152104,36.282293957620205],[33.63887148903683,36.12635474311028],[32.96300104034209,36.12635474311028],[32.866448119099985,36.0482687010385],[32.67334227661577,36.0482687010385],[32.28713059164735,36.20436318441798],[32.28713059164735,36.282293957620205],[31.90091890667893,36.59323904499391],[31.3216013792263,36.825629140942915],[31.12849553674209,36.825629140942915],[31.03194261549998,36.90293622181199],[30.645730930531556,36.90293622181199],[30.549178009289456,36.825629140942915],[30.549178009289456,36.36014699601758],[30.356072166805244,36.20436318441798],[30.259519245563133,36.282293957620205],[30.066413403078922,36.282293957620205],[29.77675463935261,36.12635474311028],[29.100884190657872,36.36014699601758],[29.100884190657872,36.51561960480387],[29.004331269415765,36.59323904499391],[28.811225426931554,36.59323904499391],[28.618119584447342,36.74824387625261],[28.23190789947892,36.74824387625261],[28.03880205699471,36.59323904499391],[27.8456962145105,36.67078048997904],[27.36293160829997,36.67078048997904],[27.36293160829997,36.90293622181199],[27.16982576581576,37.05731558629586],[27.16982576581576,37.59517172052121],[26.976719923331547,37.67169367862551],[26.976719923331547,37.748136809761796],[27.16982576581576,37.82450105919932],[27.16982576581576,37.97699269714006],[26.783614080847336,38.129168166923186],[26.49395531712102,38.129168166923186],[26.30084947463681,38.28102705283683],[26.204296553394702,38.28102705283683],[26.30084947463681,38.43256894893896],[26.30084947463681,38.65928657312326],[26.397402395878913,38.73470019653006],[26.687061159605232,38.73470019653006],[26.783614080847336,38.81003428242379],[26.783614080847336,39.18551005271705],[26.49395531712102,39.48445443932406],[26.107743632152598,39.48445443932406],[26.01119071091049,39.558990706725574],[26.107743632152598,39.63344696096375],[26.107743632152598,40.0785020270095],[26.204296553394702,40.152397109800084],[26.204296553394702,40.52066711156341],[26.01119071091049,40.667411955497286],[26.01119071091049,40.8138346068533],[25.914637789668387,40.886925032852034],[25.43187318345786,40.886925032852034],[25.335320262215756,40.959934818870366],[24.949108577247333,40.959934818870366],[24.852555656005226,40.886925032852034],[24.3697910497947,40.886925032852034],[24.176685207310488,40.8138346068533],[23.983579364826277,40.667411955497286],[23.983579364826277,40.52066711156341],[24.3697910497947,40.29994629649876],[24.3697910497947,40.152397109800084],[24.176685207310488,40.152397109800084],[23.983579364826277,40.004526665281844],[23.790473522342065,40.004526665281844],[23.69392060109996,39.930471060851765],[23.50081475861575,39.930471060851765],[23.30770891613154,40.004526665281844],[23.30770891613154,40.22621187799272],[23.018050152405223,40.37360033080033],[22.728391388678908,40.37360033080033],[22.6318384674368,40.29994629649876],[22.6318384674368,40.0785020270095],[22.728391388678908,39.930471060851765],[23.30770891613154,39.33514202678485],[23.30770891613154,39.18551005271705],[23.018050152405223,39.035558855905236],[23.018050152405223,38.81003428242379],[23.114603073647327,38.73470019653006],[23.30770891613154,38.73470019653006],[23.404261837373646,38.58379345901415],[23.50081475861575,38.58379345901415],[23.790473522342065,38.35683764960526],[23.983579364826277,38.35683764960526],[24.08013228606838,38.28102705283683],[24.08013228606838,37.67169367862551],[23.983579364826277,37.67169367862551],[23.597367679857857,37.97699269714006],[23.30770891613154,37.97699269714006],[23.211155994889435,37.90078637282459],[23.211155994889435,37.748136809761796],[23.404261837373646,37.67169367862551],[23.50081475861575,37.441891545425726],[23.404261837373646,37.441891545425726],[23.018050152405223,37.211381484428316],[23.018050152405223,36.980165057254375],[23.114603073647327,36.90293622181199],[23.114603073647327,36.59323904499391],[23.211155994889435,36.4379222335517],[23.114603073647327,36.4379222335517],[22.824944309921012,36.67078048997904],[22.6318384674368,36.67078048997904],[22.535285546194697,36.59323904499391],[22.535285546194697,36.4379222335517],[22.43873262495259,36.4379222335517],[22.342179703710485,36.51561960480387],[22.342179703710485,36.74824387625261],[22.245626782468378,36.825629140942915],[21.955968018742062,36.825629140942915],[21.859415097499955,36.74824387625261],[21.666309255015744,36.825629140942915],[21.666309255015744,36.980165057254375],[21.569756333773643,37.05731558629586],[21.569756333773643,37.51857099079822],[21.376650491289432,37.67169367862551],[21.280097570047324,37.67169367862551],[21.280097570047324,37.748136809761796],[21.086991727563113,37.90078637282459],[21.086991727563113,37.97699269714006],[21.280097570047324,38.129168166923186],[21.280097570047324,38.28102705283683],[21.086991727563113,38.35683764960526],[20.99043880632101,38.58379345901415],[20.70078004259469,38.81003428242379],[20.70078004259469,39.035558855905236],[20.218015436384167,39.4098381990513],[20.121462515142056,39.63344696096375],[20.218015436384167,39.63344696096375],[20.41112127886838,39.782119271700466],[20.41112127886838,39.85633525052911],[20.70078004259469,40.0785020270095],[20.8938858850789,40.37360033080033],[21.086991727563113,40.52066711156341],[21.086991727563113,41.39629848506447],[20.99043880632101,41.468742997659454],[20.99043880632101,41.75771219928109],[20.8938858850789,41.829752166328305],[20.8938858850789,41.97358913831804],[20.604227121352586,42.4031548157419],[20.218015436384167,42.758894963802085],[20.218015436384167,42.829799371711424],[19.735250830173634,43.253519174908334],[19.542144987689422,43.534372690083984],[19.542144987689422,43.6743112609243],[19.34903914520521,43.74415846443018],[19.34903914520521,43.88360866287311],[19.252486223963107,44.02273319598664],[19.059380381478903,44.161532005943535],[18.96282746023679,44.3691193826218],[18.76972161775258,44.50710368268768],[18.286957011542054,45.192136864049516],[17.997298247815735,45.39605802647696],[17.804192405331523,45.666812341076024],[17.611086562847312,45.801700745479465],[17.514533641605208,46.00342251903097],[17.128321956636785,46.271244924284105],[17.128321956636785,46.33799701033476],[16.83866319291047,46.537764968394654],[16.83866319291047,46.60419155272267],[16.452451507942047,46.869084493837995],[16.452451507942047,46.93510443712088],[15.680028138005204,47.39496859961982],[15.390369374278887,47.85085434699077],[15.197263531794675,47.98037747713442],[15.197263531794675,48.109576456506105],[15.10071061055257,48.17405443813878],[15.10071061055257,48.94147999807004],[15.486922295520992,49.446637998670646],[15.583475216763098,49.446637998670646],[15.96968690173152,49.634743282556016],[16.355898586699944,49.634743282556016],[16.452451507942047,49.69728417726737],[16.742110271668366,49.69728417726737],[17.128321956636785,49.57212197349221],[17.4179807203631,49.57212197349221],[17.514533641605208,49.50942022157968],[17.70763948408942,49.50942022157968],[17.804192405331523,49.446637998670646],[18.286957011542054,49.446637998670646],[18.383509932784158,49.38377527696743],[18.76972161775258,49.38377527696743],[18.866274538994688,49.320832029024075],[19.155933302721003,49.320832029024075],[19.252486223963107,49.25780822774796],[19.542144987689422,49.25780822774796],[19.63869790893153,49.1947038464014],[20.70078004259469,49.1947038464014],[20.797332963836798,49.25780822774796],[21.859415097499955,49.25780822774796],[21.955968018742062,49.1947038464014],[22.149073861226274,49.1947038464014],[22.342179703710485,49.13151885860325],[22.824944309921012,48.877972327841704],[23.018050152405223,48.877972327841704],[23.404261837373646,49.13151885860325],[23.597367679857857,49.38377527696743],[23.790473522342065,49.50942022157968],[23.790473522342065,49.57212197349221],[23.983579364826277,49.69728417726737],[24.08013228606838,50.13282130451109],[24.176685207310488,50.194719951560806],[24.176685207310488,50.44151343567407],[24.27323812855259,50.50301169262328],[24.27323812855259,51.113601017030554],[24.3697910497947,51.174221394292154],[24.3697910497947,52.133348615819486],[24.56289689227891,52.25181474612668],[24.852555656005226,52.25181474612668],[24.949108577247333,52.31092946764106],[25.914637789668387,52.31092946764106],[26.01119071091049,52.25181474612668],[27.073272844573655,52.25181474612668],[27.16982576581576,52.19262114285094],[28.135354978236816,52.19262114285094],[28.23190789947892,52.25181474612668],[28.71467250568945,52.25181474612668],[28.811225426931554,52.31092946764106],[29.293990033142077,52.31092946764106],[29.390542954384188,52.36996534966857],[29.96986048183682,52.36996534966857],[30.066413403078922,52.428922434762335],[30.742283851773667,52.428922434762335],[30.838836773015768,52.487800765752674],[31.707813064194717,52.487800765752674],[31.804365985436824,52.546600385745535],[32.09402474916314,52.546600385745535],[32.19057767040525,52.60532133812108],[32.48023643413156,52.60532133812108],[32.57678935537367,52.66396366653215],[32.769895197857885,52.66396366653215],[34.02508317400525,53.476725830036436],[34.121636095247354,53.64889737389535],[34.507847780215776,53.93429473508105],[34.604400701457884,54.10460218242602],[34.7975065439421,54.2177534070676],[35.18371822891052,54.7231136536301],[35.37682407139473,54.83456945393359],[35.95614159884737,55.49687452015759],[36.14924744133157,55.60619114762814],[36.245800362573675,55.60619114762814],[36.6320120475421,55.76959654631823],[37.307882496236836,55.82391336020336],[37.40443541747894,55.878154442509455],[37.69409418120526,55.878154442509455],[37.790647102447366,55.93231985028193],[38.08030586617368,55.93231985028193],[38.17685878741579,55.986409640757344],[38.466517551142104,55.986409640757344],[38.85272923611053,56.094362599711225],[39.14238799983684,56.094362599711225],[39.23894092107895,56.14822588360695],[39.43204676356317,56.14822588360695],[39.528599684805265,56.20201378103763],[39.81825844853159,56.20201378103763],[40.20447013350001,56.30936364937983],[40.39757597598422,56.30936364937983],[40.49412889722632,56.36292573718688],[40.78378766095263,56.36292573718688],[41.169999345921056,56.46982451367119],[41.45965810964738,56.46982451367119],[41.8458697946158,56.57642315153834],[42.03897563710001,56.57642315153834],[42.135528558342116,56.62961006673877],[42.42518732206843,56.62961006673877],[42.81139900703685,56.735759387703766],[43.10105777076317,56.735759387703766],[43.48726945573159,56.84160976214774],[43.68037529821581,56.84160976214774],[43.77692821945791,56.89442299483865],[44.06658698318423,56.89442299483865],[44.452798668152646,56.99982585346737],[44.74245743187896,56.99982585346737],[45.128669116847384,57.10493097478582],[45.3217749593316,57.10493097478582],[45.4183278805737,57.15737203645799],[45.70798664430002,57.15737203645799],[45.80453956554212,57.209738847134545],[45.99764540802634,57.209738847134545],[46.094198329268444,57.26203146826451],[47.735597990384235,57.26203146826451],[47.832150911626336,57.31424996145719],[48.12180967535266,57.31424996145719],[48.21836259659476,57.36639438848105],[48.60457428156318,57.36639438848105],[48.70112720280529,57.41846481126247],[48.990785966531604,57.41846481126247],[49.08733888777371,57.47046129188461],[50.43907978516319,57.47046129188461],[50.535632706405295,57.52238389258624],[51.40460899758424,57.52238389258624],[51.501161918826355,57.57423267576057],[51.79082068255266,57.57423267576057],[52.3701382100053,57.72933674634375],[53.046008658700046,58.037560305429274],[53.818432028636884,58.24157812485013],[54.59085539857373,58.64611735172607],[54.68740831981583,58.64611735172607],[55.07362000478425,58.84664708427059],[55.26672584726846,58.89659899044205],[55.459831689752676,58.89659899044205],[55.55638461099478,58.94647881791021],[55.8460433747211,58.94647881791021],[55.942596295963206,58.99628663293314],[56.135702138447414,58.99628663293314],[56.618466744657944,59.1452786677376],[56.81157258714215,59.1452786677376],[59.3219485394369,59.78347250872702],[60.19092483061585,59.78347250872702],[60.38403067310005,59.68607212532441],[61.639218649247425,59.39216469588964],[62.12198325545796,59.19479909798806],[62.41164201918427,59.1452786677376],[62.89440662539481,58.94647881791021],[63.184065389121116,58.89659899044205],[63.47372415284743,58.74652677140275],[63.859935837815854,58.64611735172607],[64.14959460154218,58.64611735172607],[64.24614752278428,58.595804062517715],[64.6323592077527,58.595804062517715],[64.7289121289948,58.54541829968298],[65.30822965644744,58.54541829968298],[65.79099426265799,58.393825516346006],[65.98410010514218,58.393825516346006],[66.75652347507902,58.19068322358731],[67.23928808128954,57.98637304739926],[68.01171145122639,57.78089088638878],[68.2048172937106,57.67770903986528],[68.88068774240534,57.52238389258624],[69.9427698760685,57.05241560083055],[70.61864032476325,57.05241560083055],[70.71519324600534,57.10493097478582],[71.10140493097377,57.10493097478582],[71.48761661594219,56.99982585346737],[71.6807224584264,56.99982585346737],[71.77727537966851,56.94716167173535],[71.97038122215272,56.94716167173535],[72.06693414339482,56.89442299483865],[72.26003998587903,56.89442299483865],[72.35659290712114,56.84160976214774],[72.54969874960534,56.84160976214774],[72.64625167084746,56.78872191320056],[72.83935751333166,56.78872191320056],[72.93591043457377,56.735759387703766],[73.12901627705799,56.735759387703766],[73.2255691983001,56.68272212553393],[74.28765133196326,56.68272212553393],[74.38420425320535,56.62961006673877],[75.44628638686852,56.62961006673877],[75.54283930811063,56.68272212553393],[76.70147436301589,56.68272212553393],[76.798027284258,56.62961006673877],[77.66700357543694,56.62961006673877],[78.05321526040537,56.52316132032634],[78.24632110288958,56.52316132032634],[78.34287402413169,56.46982451367119],[78.53597986661589,56.46982451367119],[78.63253278785801,56.41641267231744],[80.08082660648958,56.41641267231744],[80.46703829145801,56.52316132032634],[81.43256750387906,56.52316132032634],[81.52912042512116,56.57642315153834],[81.9153321100896,56.57642315153834],[82.2049908738159,56.68272212553393],[82.59120255878432,56.68272212553393],[82.68775548002644,56.62961006673877],[82.97741424375275,56.62961006673877],[83.07396716499485,56.68272212553393],[83.46017884996327,56.68272212553393],[83.55673177120538,56.735759387703766],[83.94294345617381,56.735759387703766],[84.03949637741592,56.78872191320056],[84.23260221990012,56.78872191320056],[84.32915514114222,56.735759387703766],[84.81191974735276,56.735759387703766],[84.90847266859485,56.68272212553393],[88.19127199082644,56.68272212553393],[88.57748367579487,56.57642315153834],[88.77058951827908,56.57642315153834],[88.86714243952119,56.52316132032634],[89.06024828200539,56.52316132032634],[89.15680120324753,56.46982451367119],[89.34990704573171,56.46982451367119],[89.44645996697382,56.41641267231744],[89.63956580945803,56.41641267231744],[89.73611873070013,56.36292573718688],[89.92922457318434,56.36292573718688],[90.02577749442645,56.30936364937983],[90.31543625815276,56.30936364937983],[90.70164794312119,56.14822588360695],[91.28096547057382,56.14822588360695],[92.7292592892054,55.66073549659245],[92.92236513168962,55.66073549659245],[93.01891805293174,55.60619114762814],[93.30857681665803,55.60619114762814],[93.50168265914225,55.49687452015759],[93.79134142286858,55.44210212970922],[93.98444726535278,55.33232891703027],[94.27410602907909,55.277327984062495],[94.46721187156331,55.167097189556145],[94.75687063528962,55.11186721850894],[94.94997647777383,55.001177856613374],[95.23963524150015,54.94571835750875],[95.81895276895278,54.667270534425384],[96.012058611437,54.667270534425384],[96.1086115326791,54.7231136536301],[96.39827029640541,54.7231136536301],[97.55690535131068,55.05656079227251],[97.75001119379489,55.167097189556145],[98.61898748497384,55.38725361382345],[98.81209332745806,55.49687452015759],[99.68106961863703,55.71520394400103],[99.87417546112123,55.82391336020336],[100.74315175230016,56.04042387136212],[101.32246927975281,56.30936364937983],[101.32246927975281,56.36292573718688],[101.80523388596333,56.62961006673877],[101.80523388596333,56.68272212553393],[102.28799849217386,56.94716167173535],[102.28799849217386,56.99982585346737],[102.48110433465807,57.10493097478582],[103.83284523204755,57.10493097478582],[105.28113905067913,56.36292573718688],[105.37769197192124,56.36292573718688],[106.15011534185808,55.93231985028193],[106.15011534185808,55.878154442509455],[107.01909163303704,55.38725361382345],[107.01909163303704,55.33232891703027],[107.98462084545808,54.778879942483144],[108.4673854516686,54.778879942483144],[109.04670297912125,54.94571835750875],[109.23980882160545,54.94571835750875],[110.78465556147914,55.38725361382345],[110.97776140396337,55.49687452015759],[111.26742016768966,55.55157084084003],[112.71571398632126,56.36292573718688],[112.71571398632126,56.41641267231744],[115.61230162358443,57.98637304739926],[117.73646589091074,58.49495999784894],[118.31578341836338,58.79662303326101],[118.7985480245739,58.74652677140275],[119.08820678830023,58.64611735172607],[119.57097139451075,58.595804062517715],[119.66752431575287,58.54541829968298],[119.86063015823707,58.54541829968298],[119.95718307947917,58.49495999784894],[120.1502889219634,58.49495999784894],[120.24684184320549,58.44442909177339],[120.43994768568969,58.44442909177339],[120.82615937065812,58.34314920658939],[120.82615937065812,58.29240009766016],[121.30892397686864,58.037560305429274],[121.30892397686864,57.98637304739926]],[[27.749143293268393,40.5940797918295],[27.942249135752604,40.5940797918295],[28.135354978236816,40.44717394694882],[28.71467250568945,40.44717394694882],[28.90777834817366,40.667411955497286],[29.100884190657872,40.667411955497286],[29.197437111899976,40.74066357088017],[29.197437111899976,40.886925032852034],[29.100884190657872,40.959934818870366],[28.618119584447342,40.959934818870366],[28.328460820721023,41.10571235372614],[28.135354978236816,41.10571235372614],[27.942249135752604,40.959934818870366],[27.8456962145105,41.03286393545947],[27.65259037202629,41.03286393545947],[27.36293160829997,40.8138346068533],[27.266378687057866,40.667411955497286],[27.266378687057866,40.52066711156341],[27.36293160829997,40.44717394694882],[27.55603745078418,40.44717394694882],[27.749143293268393,40.5940797918295]],[[59.997818988131634,46.20441144012179],[59.90126606688953,46.13749654963732],[59.708160224405326,46.13749654963732],[59.515054381921104,45.86902277548845],[59.22539561819479,45.801700745479465],[59.22539561819479,45.93626336466411],[59.12884269695268,46.00342251903097],[58.93573685446848,46.00342251903097],[58.64607809074216,45.801700745479465],[58.64607809074216,45.59924595685008],[58.54952516950006,45.53159811213117],[58.54952516950006,45.39605802647696],[58.356419327015836,45.26019205915336],[58.356419327015836,45.12400019246138],[58.259866405773735,45.05578204331984],[58.259866405773735,44.713469129216776],[58.356419327015836,44.644762118205016],[58.259866405773735,44.575973635141665],[58.259866405773735,44.3691193826218],[58.54952516950006,44.02273319598664],[58.839183933226366,44.02273319598664],[58.93573685446848,43.95321164139346],[59.515054381921104,43.95321164139346],[59.515054381921104,43.88360866287311],[59.708160224405326,43.74415846443018],[59.997818988131634,43.74415846443018],[60.28747775185795,44.02273319598664],[60.57713651558427,44.092173319668944],[60.963348200552694,44.3691193826218],[60.963348200552694,44.50710368268768],[60.86679527931058,44.644762118205016],[61.156454043036895,44.782094665988076],[61.44611280676322,44.782094665988076],[61.54266572800532,44.8506387268004],[61.54266572800532,44.98748241601623],[61.253006964279,45.12400019246138],[61.253006964279,45.26019205915336],[60.86679527931058,45.59924595685008],[60.86679527931058,45.86902277548845],[60.963348200552694,45.93626336466411],[60.963348200552694,46.07050024505408],[60.86679527931058,46.13749654963732],[60.57713651558427,46.13749654963732],[60.48058359434217,46.20441144012179],[59.997818988131634,46.20441144012179]],[[60.77024235806847,46.33799701033476],[60.86679527931058,46.20441144012179],[61.059901121794795,46.20441144012179],[61.156454043036895,46.271244924284105],[61.156454043036895,46.40466770691643],[61.059901121794795,46.47125702310235],[60.86679527931058,46.47125702310235],[60.77024235806847,46.60419155272267],[60.57713651558427,46.60419155272267],[60.48058359434217,46.537764968394654],[60.48058359434217,46.40466770691643],[60.57713651558427,46.33799701033476],[60.77024235806847,46.33799701033476]],[[28.03880205699471,41.829752166328305],[28.135354978236816,41.685591275198206],[28.42501374196313,41.468742997659454],[28.618119584447342,41.39629848506447],[28.811225426931554,41.39629848506447],[28.90777834817366,41.32377313796129],[29.77675463935261,41.25116698248815],[29.87330756059471,41.178480045331234],[30.066413403078922,41.178480045331234],[30.162966324321033,41.25116698248815],[30.452625088047345,41.25116698248815],[30.838836773015768,41.10571235372614],[31.03194261549998,41.10571235372614],[31.22504845798419,41.178480045331234],[31.4181543004684,41.39629848506447],[31.997471827921036,41.61338941750186],[32.19057767040525,41.75771219928109],[32.57678935537367,41.9017111534562],[32.866448119099985,41.9017111534562],[33.1561068828263,42.04538609910247],[34.7975065439421,42.04538609910247],[34.8940594651842,42.117102014531916],[35.18371822891052,42.117102014531916],[35.18371822891052,41.9017111534562],[35.47337699263683,41.685591275198206],[35.76303575636315,41.685591275198206],[35.85958867760525,41.75771219928109],[36.05269452008947,41.75771219928109],[36.14924744133157,41.685591275198206],[36.14924744133157,41.468742997659454],[36.245800362573675,41.39629848506447],[36.92167081126841,41.39629848506447],[37.11477665375263,41.178480045331234],[37.790647102447366,41.178480045331234],[37.88720002368947,41.03286393545947],[38.08030586617368,41.03286393545947],[38.17685878741579,40.959934818870366],[38.563070472384204,40.959934818870366],[38.94928215735263,41.10571235372614],[39.33549384232105,41.10571235372614],[39.43204676356317,41.178480045331234],[39.62515260604737,41.03286393545947],[40.30102305474211,41.03286393545947],[40.39757597598422,41.10571235372614],[40.590681818468425,41.10571235372614],[41.169999345921056,41.32377313796129],[41.7493168733737,41.829752166328305],[41.7493168733737,42.04538609910247],[41.55621103088948,42.26029062687493],[41.55621103088948,42.474465203804144],[41.45965810964738,42.54569442996651],[41.45965810964738,42.68790932677032],[41.26655226716316,42.829799371711424],[41.073446424678956,42.829799371711424],[41.073446424678956,42.90062253498727],[40.78378766095263,43.11260440961249],[40.49412889722632,43.11260440961249],[40.30102305474211,43.183102449511466],[40.107917212257895,43.39410863290977],[40.011364291015795,43.39410863290977],[38.75617631486842,44.30000504270696],[38.17685878741579,44.43815226397772],[37.88720002368947,44.644762118205016],[37.40443541747894,44.713469129216776],[37.307882496236836,44.919101310404],[36.92167081126841,45.12400019246138],[36.43890620505789,45.12400019246138],[36.34235328381578,45.05578204331984],[35.47337699263683,45.05578204331984],[35.087165307668414,44.8506387268004],[34.70095362269999,44.8506387268004],[34.507847780215776,44.782094665988076],[34.411294858973676,44.644762118205016],[34.121636095247354,44.43815226397772],[33.63887148903683,44.43815226397772],[33.445765646552616,44.50710368268768],[33.349212725310515,44.644762118205016],[33.54231856779472,44.782094665988076],[33.54231856779472,45.12400019246138],[33.445765646552616,45.192136864049516],[33.1561068828263,45.192136864049516],[32.96300104034209,45.32816577930082],[32.57678935537367,45.32816577930082],[32.48023643413156,45.39605802647696],[32.48023643413156,45.463868803122296],[32.67334227661577,45.59924595685008],[32.769895197857885,45.59924595685008],[33.1561068828263,45.86902277548845],[33.349212725310515,45.93626336466411],[33.349212725310515,46.07050024505408],[33.25265980406841,46.13749654963732],[32.57678935537367,46.13749654963732],[32.48023643413156,46.07050024505408],[31.997471827921036,46.271244924284105],[31.804365985436824,46.271244924284105],[31.707813064194717,46.40466770691643],[31.4181543004684,46.60419155272267],[30.93538969425788,46.60419155272267],[30.742283851773667,46.47125702310235],[30.549178009289456,46.13749654963732],[29.77675463935261,45.59924595685008],[29.77675463935261,45.26019205915336],[29.6802017181105,45.192136864049516],[29.6802017181105,44.919101310404],[29.5836487968684,44.8506387268004],[29.293990033142077,44.8506387268004],[29.100884190657872,44.782094665988076],[29.004331269415765,44.644762118205016],[28.71467250568945,44.43815226397772],[28.71467250568945,44.02273319598664],[28.618119584447342,43.95321164139346],[28.618119584447342,43.534372690083984],[28.42501374196313,43.39410863290977],[28.135354978236816,43.39410863290977],[27.942249135752604,43.183102449511466],[27.942249135752604,42.758894963802085],[27.749143293268393,42.68790932677032],[27.749143293268393,42.331763283888],[28.03880205699471,42.117102014531916],[28.03880205699471,41.829752166328305]],[[50.632185627647395,46.80298324558762],[50.342526863921094,46.80298324558762],[50.052868100194765,46.60419155272267],[49.85976225771055,46.537764968394654],[49.85976225771055,46.40466770691643],[49.66665641522634,46.33799701033476],[49.473550572742134,46.33799701033476],[49.37699765150003,46.271244924284105],[49.18389180901582,46.271244924284105],[48.797680124047396,46.00342251903097],[48.797680124047396,45.801700745479465],[48.70112720280529,45.666812341076024],[48.50802136032108,45.666812341076024],[48.41146843907897,45.59924595685008],[48.21836259659476,45.73429726905483],[48.02525675411055,45.73429726905483],[47.92870383286844,45.666812341076024],[47.92870383286844,45.53159811213117],[47.735597990384235,45.53159811213117],[47.44593922665791,45.32816577930082],[47.44593922665791,45.192136864049516],[47.252833384173705,45.12400019246138],[47.252833384173705,44.919101310404],[46.770068777963175,44.644762118205016],[46.770068777963175,44.50710368268768],[47.1562804629316,44.30000504270696],[47.252833384173705,44.30000504270696],[47.34938630541581,44.092173319668944],[47.54249214790002,43.95321164139346],[47.735597990384235,43.95321164139346],[47.54249214790002,43.6743112609243],[47.54249214790002,43.04202506816559],[47.735597990384235,42.90062253498727],[47.735597990384235,42.758894963802085],[47.92870383286844,42.61684247664342],[47.92870383286844,42.54569442996651],[48.12180967535266,42.4031548157419],[48.314915517836866,42.04538609910247],[48.50802136032108,41.97358913831804],[48.797680124047396,41.75771219928109],[48.797680124047396,41.685591275198206],[49.08733888777371,41.468742997659454],[49.18389180901582,41.32377313796129],[49.18389180901582,41.10571235372614],[49.57010349398425,40.8138346068533],[49.57010349398425,40.74066357088017],[49.66665641522634,40.667411955497286],[50.052868100194765,40.667411955497286],[50.342526863921094,40.44717394694882],[50.342526863921094,40.22621187799272],[50.24597394267897,40.37360033080033],[49.85976225771055,40.37360033080033],[49.473550572742134,40.152397109800084],[49.473550572742134,39.85633525052911],[49.37699765150003,39.782119271700466],[49.37699765150003,39.4098381990513],[49.473550572742134,39.33514202678485],[49.18389180901582,39.11057433561115],[49.08733888777371,38.96046365742579],[48.8942330452895,38.885288784593314],[48.8942330452895,38.053119979262796],[48.990785966531604,37.97699269714006],[48.990785966531604,37.82450105919932],[49.280444730257926,37.59517172052121],[49.473550572742134,37.51857099079822],[49.95631517895267,37.51857099079822],[50.052868100194765,37.441891545425726],[50.24597394267897,37.441891545425726],[50.24597394267897,37.288296734716106],[50.632185627647395,36.980165057254375],[51.21150315510003,36.74824387625261],[51.501161918826355,36.74824387625261],[51.597714840068456,36.67078048997904],[52.2735852887632,36.67078048997904],[52.3701382100053,36.74824387625261],[52.65979697373162,36.74824387625261],[52.756349894973724,36.825629140942915],[53.046008658700046,36.825629140942915],[53.14256157994215,36.90293622181199],[53.52877326491057,36.90293622181199],[53.91498494987899,37.05731558629586],[53.91498494987899,37.36513344099408],[53.818432028636884,37.441891545425726],[53.818432028636884,38.73470019653006],[53.91498494987899,38.81003428242379],[53.91498494987899,38.96046365742579],[53.62532618615267,39.11057433561115],[53.52877326491057,39.26036596398916],[53.14256157994215,39.26036596398916],[53.14256157994215,39.4098381990513],[53.046008658700046,39.48445443932406],[53.14256157994215,39.558990706725574],[53.14256157994215,39.707823162330556],[53.335667422426354,39.782119271700466],[53.335667422426354,39.930471060851765],[53.23911450118425,40.004526665281844],[53.046008658700046,40.004526665281844],[52.94945573745793,39.85633525052911],[52.756349894973724,40.004526665281844],[52.65979697373162,40.52066711156341],[52.852902816215824,40.74066357088017],[52.852902816215824,41.178480045331234],[52.756349894973724,41.25116698248815],[52.756349894973724,41.39629848506447],[52.56324405248951,41.5411066501543],[52.56324405248951,41.685591275198206],[52.3701382100053,41.829752166328305],[52.3701382100053,42.18873686386099],[52.56324405248951,42.331763283888],[52.56324405248951,42.758894963802085],[52.4666911312474,42.829799371711424],[51.88737360379478,42.829799371711424],[51.597714840068456,43.183102449511466],[51.21150315510003,43.183102449511466],[51.30805607634214,43.323854573355376],[51.30805607634214,43.46428134213195],[51.01839731261582,43.74415846443018],[51.01839731261582,43.88360866287311],[50.82529147013161,44.02273319598664],[50.82529147013161,44.161532005943535],[50.632185627647395,44.30000504270696],[50.342526863921094,44.30000504270696],[50.14942102143687,44.575973635141665],[50.342526863921094,44.713469129216776],[50.72873854888952,44.713469129216776],[50.82529147013161,44.782094665988076],[50.82529147013161,44.919101310404],[50.92184439137372,45.05578204331984],[51.01839731261582,45.05578204331984],[51.21150315510003,45.192136864049516],[51.30805607634214,45.39605802647696],[51.597714840068456,45.39605802647696],[51.69426776131056,45.463868803122296],[52.56324405248951,45.463868803122296],[52.756349894973724,45.73429726905483],[52.756349894973724,45.86902277548845],[52.852902816215824,45.93626336466411],[52.852902816215824,46.07050024505408],[52.756349894973724,46.13749654963732],[52.94945573745793,46.33799701033476],[52.94945573745793,46.67053678644126],[52.852902816215824,46.73680068032924],[52.65979697373162,46.73680068032924],[52.56324405248951,46.80298324558762],[51.79082068255266,46.80298324558762],[51.69426776131056,46.73680068032924],[51.69426776131056,46.80298324558762],[51.501161918826355,46.869084493837995],[51.40460899758424,47.00104308789403],[51.21150315510003,47.00104308789403],[51.11495023385793,46.93510443712088],[50.82529147013161,46.93510443712088],[50.632185627647395,46.80298324558762]],[[38.3699646299,47.5908350418535],[38.3699646299,47.26398502955575],[38.17685878741579,47.13267656381855],[38.17685878741579,47.066900459030826],[37.98375294493158,47.13267656381855],[37.59754125996316,47.13267656381855],[37.307882496236836,46.869084493837995],[37.01822373251052,46.869084493837995],[36.82511789002631,46.73680068032924],[36.82511789002631,46.67053678644126],[36.6320120475421,46.73680068032924],[36.43890620505789,46.73680068032924],[36.245800362573675,46.60419155272267],[36.245800362573675,46.537764968394654],[35.76303575636315,46.60419155272267],[35.569929913878944,46.47125702310235],[35.47337699263683,46.47125702310235],[35.18371822891052,46.13749654963732],[34.99061238642631,46.13749654963732],[34.8940594651842,46.07050024505408],[34.8940594651842,45.93626336466411],[35.087165307668414,45.666812341076024],[35.28027115015262,45.53159811213117],[35.28027115015262,45.463868803122296],[35.37682407139473,45.39605802647696],[35.666482835121045,45.39605802647696],[35.85958867760525,45.53159811213117],[36.43890620505789,45.53159811213117],[36.53545912629999,45.463868803122296],[37.01822373251052,45.463868803122296],[37.11477665375263,45.39605802647696],[37.40443541747894,45.39605802647696],[37.59754125996316,45.53159811213117],[37.59754125996316,45.73429726905483],[37.790647102447366,45.801700745479465],[37.88720002368947,45.93626336466411],[37.88720002368947,46.07050024505408],[37.98375294493158,46.07050024505408],[38.17685878741579,46.20441144012179],[38.17685878741579,46.33799701033476],[38.08030586617368,46.40466770691643],[37.88720002368947,46.40466770691643],[37.69409418120526,46.73680068032924],[38.17685878741579,46.73680068032924],[38.3699646299,46.869084493837995],[38.3699646299,46.93510443712088],[38.75617631486842,46.93510443712088],[38.94928215735263,47.066900459030826],[39.14238799983684,47.066900459030826],[39.23894092107895,47.13267656381855],[39.23894092107895,47.26398502955575],[39.14238799983684,47.329517419134596],[39.14238799983684,47.5908350418535],[38.94928215735263,47.72100691637185],[38.466517551142104,47.65596154331738],[38.3699646299,47.5908350418535]]],[[[131.44698070728973,33.66996368268204],[131.64008654977394,33.75034320369763],[131.83319239225816,33.58950897294347],[131.92974531350026,33.18611071295702],[132.12285115598445,33.02422823589694],[132.02629823474237,32.780846290779216],[131.83319239225816,32.69957049211216],[131.64008654977394,32.37372744206714],[131.64008654977394,32.21036337325308],[131.54353362853183,32.12857105006472],[131.54353362853183,31.63627945801959],[131.44698070728973,31.47159896801554],[130.67455733735287,30.975819483811552],[130.67455733735287,31.05862980991988],[130.48145149486868,31.224034294806767],[130.28834565238446,31.224034294806767],[130.09523980990025,31.38914982840633],[130.19179273114236,31.553975546644015],[130.19179273114236,32.12857105006472],[130.48145149486868,32.37372744206714],[130.48145149486868,32.536796743903786],[130.38489857362657,32.618220610948164],[129.70902812493182,32.618220610948164],[129.70902812493182,32.86204791101734],[129.6124752036897,32.943175257578304],[129.6124752036897,33.18611071295702],[129.51592228244763,33.347694599307324],[129.80558104617396,33.5089791629357],[129.80558104617396,33.58950897294347],[130.28834565238446,33.66996368268204],[130.48145149486868,33.83064744821129],[130.48145149486868,33.91087632911804],[130.67455733735287,33.991029759986],[131.06076902232132,33.991029759986],[131.06076902232132,33.75034320369763],[131.1573219435634,33.66996368268204],[131.44698070728973,33.66996368268204]]],[[[129.12971059747917,34.23103649811578],[129.3228164399634,34.549984055627725],[129.3228164399634,34.709001456800415],[129.51592228244763,34.709001456800415],[129.4193693612055,34.31088727793999],[129.2262635187213,34.07110765505548],[129.12971059747917,34.23103649811578]]]]}}
