{"type":"Feature","properties":{"id":"kampfadler","sourceUrl":"https://commons.wikimedia.org/wiki/File:Polemaetus_bellicosus_distribution_map.svg","license":"CC0","author":"Helmy oved","sourceImageSha256":"49d8796635851e62c8dbbe25dd1d387f3ed4f88be4031daa2e38c792e476f631","registration":{"proj_string":"+proj=robin +R=1 +lon_0=0","parameters_1000px":[940.6687526854181,-907.5147976254732,264.00376663879535,618.9641007272428],"coast_rmse_capped15_px":1.7027679681777954,"coast_median_px":0.8011304140090942,"coast_p90_px":2.8439390659332275,"sample_count":1309,"image_width":830,"image_height":955,"pixel_transform_native":[780.755064728897,-753.2372820291426,219.12312631020012,513.7402036036115],"transform_definition":"pixel_x=sx*projected_x+tx; pixel_y=sy*projected_y+ty","validation":"Odd coastline samples withheld from affine fit. Normalized to 1000px width.","controls":[[20,-34.8,455,946],[-17.5,14.7,17,331],[51.3,12,805,365],[49.3,-11.9,782,670],[-5.6,36,158,65],[8.7,-0.6,329,506]],"review_bounds":null,"all_fits":[{"proj_string":"+proj=wintri +R=1 +lon_0=0","parameters_1000px":[800.1397698992582,-868.6799682983532,264.0466994007092,618.7886577967281],"coast_rmse_capped15_px":2.267987012863159,"coast_median_px":1.2312172651290894,"coast_p90_px":3.510921001434326,"sample_count":1305},{"proj_string":"+proj=eqc +R=1 +lon_0=0","parameters_1000px":[786.1306312045268,-870.0121212614756,262.1227142024602,619.431073730086],"coast_rmse_capped15_px":3.6402909755706787,"coast_median_px":1.3853952884674072,"coast_p90_px":5.7552690505981445,"sample_count":1283},{"proj_string":"+proj=mill +R=1 +lon_0=0","parameters_1000px":[788.4245130393684,-837.7615539730704,262.1403049981846,619.4294763060644],"coast_rmse_capped15_px":4.256648063659668,"coast_median_px":2.584221363067627,"coast_p90_px":6.460254669189453,"sample_count":1250},{"proj_string":"+proj=laea +R=1 +lon_0=15 +lat_0=0","parameters_1000px":[825.2377406601771,-880.5777296740793,468.3729410490894,619.03831733782],"coast_rmse_capped15_px":4.946120262145996,"coast_median_px":2.31877064704895,"coast_p90_px":8.46606731414795,"sample_count":1375},{"proj_string":"+proj=merc +R=1 +lon_0=0","parameters_1000px":[789.5674188103644,-820.3019309797394,262.142593386973,619.2632853456618],"coast_rmse_capped15_px":5.184654235839844,"coast_median_px":3.2044239044189453,"coast_p90_px":8.400665283203125,"sample_count":1234}],"status":"reviewed","coastlineReference":"Natural Earth 1:110m (world-registration-110m.geojson)"},"includedColors":["#008000"],"adaptation":"Inverse global map projection; current seasonal/subspecies colors combined; explicitly reviewed legends/arrows omitted; 3px border closing; contours simplified by 0.45 source pixels; components below 4 source pixels omitted; split at the antimeridian.","licenseUrl":"https://creativecommons.org/publicdomain/zero/1.0/deed.en","originalFileSha256":"b5f88694f4057a5f8783595f29b1fead06241cab971ec9368dd7b5f510af565a","sourceImagePath":"data/ranges/reference-originals/kampfadler-authoring.png"},"geometry":{"type":"MultiPolygon","coordinates":[[[[18.630634320526486,-34.06409374995386],[18.63064409145695,-34.06408470705646],[18.63641674047296,-34.14329640134496],[18.630634320526486,-34.06409374995386]]],[[[-15.336872868911598,16.843155606695017],[-15.074139901677817,16.843155606695017],[-14.7202177853036,16.68480951383877],[-14.369993087289272,16.68480951383877],[-14.016359656872675,16.52646337522155],[-13.66622011163998,16.52646337522155],[-13.577045672349902,16.447290292355586],[-13.139424087635323,16.447290292355586],[-13.05033124936332,16.368117202373003],[-12.525248457487704,16.368117202373003],[-12.436247156324097,16.288944106715007],[-11.823723829865148,16.288944106715007],[-11.734823825245106,16.20977100682281],[-11.03488047330714,16.20977100682281],[-10.946091342435222,16.13059790413762],[-9.896300628418235,16.13059790413762],[-9.807662674772065,16.051424800100655],[-8.058217578559146,16.051424800100655],[-7.971684319387091,16.13059790413762],[-4.034969141823389,16.13059790413762],[-3.9470216024587867,16.051424800100655],[-1.6727429773819924,16.051424800100655],[-1.5850849793827837,15.972251696153123],[0.9513131902988545,15.972251696153123],[1.0386541435154253,15.893078593736243],[5.323793007622802,15.893078593736243],[5.410617717226781,15.813905494291223],[6.285034505694667,15.813905494291223],[6.633276632925046,15.655559310081607],[6.895541390697351,15.655559310081607],[6.9821676937117285,15.57638622819943],[7.156990952839942,15.57638622819943],[8.023138043538946,14.863835734818093],[8.110462935226348,14.863835734818093],[8.542599297907058,14.467972226336267],[8.629878335087803,14.467972226336267],[8.975343017866905,14.151281721328843],[9.148916565355949,14.072109133776626],[10.45743906085141,14.072109133776626],[10.545726803135667,14.151281721328843],[10.894700977639836,14.151281721328843],[10.983049142896883,14.23045432397524],[11.24480610001585,14.23045432397524],[11.596173472846347,14.388799576093273],[11.77071360388401,14.388799576093273],[11.859202710775342,14.467972226336267],[12.033760785136831,14.467972226336267],[12.122294946398155,14.547144893216144],[12.296871096110092,14.547144893216144],[12.38545081632303,14.62631757711858],[12.560045174010988,14.62631757711858],[12.648670960828326,14.705490278429266],[12.823283659717879,14.705490278429266],[12.911956023871085,14.784662997533873],[13.086587197788873,14.784662997533873],[13.175306653095701,14.863835734818093],[13.349956436470505,14.863835734818093],[13.43872349984265,14.943008490667594],[13.613392027706478,14.943008490667594],[13.702207126329764,15.0221749803593],[13.876894533135484,15.0221749803593],[13.965758313020267,15.10134797081929],[14.140464735415254,15.10134797081929],[14.229377435551745,15.180520978663194],[14.842554648105956,15.25969400244981],[14.931585534884038,15.338867040737945],[15.368496194953522,15.338867040737945],[15.457606355449492,15.418040092086395],[15.981957765545936,15.418040092086395],[16.071157696421047,15.49721315505396],[17.03257677601049,15.49721315505396],[17.121916723148107,15.57638622819943],[18.170856277917387,15.57638622819943],[18.260347560830564,15.655559310081607],[19.047141834147478,15.655559310081607],[19.136755852113843,15.734732399259272],[19.923640276062244,15.734732399259272],[20.013378084640472,15.813905494291223],[20.887794873108355,15.813905494291223],[20.97766763364771,15.893078593736243],[22.98905934537158,15.893078593736243],[23.15860957451677,15.734732399259272],[23.508335985160503,15.734732399259272],[23.5984869173588,15.813905494291223],[24.21057866928632,15.813905494291223],[24.295220409108904,15.734732399259272],[25.431831243701033,15.734732399259272],[25.516339192530996,15.655559310081607],[26.740241395468423,15.655559310081607],[26.82460760476395,15.57638622819943],[28.048370418661445,15.57638622819943],[28.132597058543144,15.49721315505396],[29.356221341656976,15.49721315505396],[29.440310624687967,15.418040092086395],[30.663797248246336,15.418040092086395],[30.747751429399337,15.338867040737945],[31.88371914557999,15.338867040737945],[33.42407091772189,14.62631757711858],[33.85702558553435,14.547144893216144],[33.94079911750366,14.467972226336267],[34.289915266226636,14.467972226336267],[34.373660573261404,14.388799576093273],[35.33363129396855,14.388799576093273],[35.42454274957631,14.467972226336267],[35.686379861118546,14.467972226336267],[35.86465130722163,14.547144893216144],[36.04677261202827,14.705490278429266],[36.3086916603626,14.705490278429266],[36.399848915813536,14.784662997533873],[36.40763491393582,14.943008490667594],[36.960172243864385,15.49721315505396],[37.15194713861103,15.813905494291223],[37.16058361265052,15.972251696153123],[37.739844579712546,16.92232863235977],[37.924439503309706,17.080674634956537],[37.929176991585244,17.159847609006164],[38.391515598491026,17.55571214911932],[38.57178899393969,17.63488498102671],[38.7274955609119,17.31819349540197],[38.717767497736624,17.159847609006164],[38.87849464309347,16.92232863235977],[38.93286514632261,16.368117202373003],[39.01571226622733,16.288944106715007],[39.00185550956837,16.051424800100655],[39.16310575208716,15.813905494291223],[39.15410659669085,15.655559310081607],[39.40298741652038,15.418040092086395],[39.39420647408493,15.25969400244981],[39.477222545265356,15.180520978663194],[39.65194811695887,15.180520978663194],[39.74369617979281,15.25969400244981],[39.75255502325134,15.418040092086395],[39.83106860621979,15.25969400244981],[39.822308827478686,15.10134797081929],[40.07137329281571,14.863835734818093],[40.24602307619051,14.863835734818093],[40.33767679087192,14.943008490667594],[40.42067285956532,14.863835734818093],[40.054478900308126,14.547144893216144],[39.161609112477564,14.151281721328843],[38.979365734228416,13.992936560932911],[38.53567881417372,13.834591457828298],[38.26300366322109,13.59707390384333],[38.259376286914694,13.51790141115151],[37.89310699744865,13.122039120111006],[37.70532381591477,12.805349471040849],[37.676423461320454,12.092798222491535],[37.83824681569088,11.776108927141177],[37.83226813067413,11.61776430215366],[37.99453670265648,11.301075082127506],[38.16272964249796,11.142730480918285],[38.159893104827304,11.063558181164826],[38.751742511629004,10.58852437026358],[38.925565128581276,10.58852437026358],[39.35191215589641,10.351007439499316],[39.61259169889412,10.351007439499316],[39.69677103488547,10.271835122923319],[40.13120723992129,10.271835122923319],[40.21536850442527,10.192662802543927],[40.562893911636486,10.192662802543927],[40.647043473728246,10.113490477975487],[44.295815024314514,10.113490477975487],[44.38567339095983,10.192662802543927],[44.993842853579444,10.192662802543927],[46.40986486735228,10.826041280681133],[46.58372467344053,10.826041280681133],[46.76439378115586,10.98438588146459],[47.119139489592264,11.142730480918285],[47.38000579581831,11.142730480918285],[47.46343313392093,11.063558181164826],[47.81122902285901,11.063558181164826],[48.16621434688673,11.221902781110622],[49.03583387127696,11.221902781110622],[49.568933051448106,11.459419688177533],[49.91686036936506,11.459419688177533],[50.09470271398191,11.538591993982001],[50.549692169693316,11.93445356622537],[50.723738321156006,11.93445356622537],[50.97662141053044,11.776108927141177],[50.96856677829243,11.61776430215366],[50.87759979671611,11.538591993982001],[50.82885013834077,10.509352062783782],[50.64802568579722,10.351007439499316],[50.617916808840846,9.638455053745265],[50.52787845711601,9.559282816760419],[50.52156805007466,9.400938329204498],[49.970983719256566,8.609215646087467],[49.96536412078206,8.450871066079955],[49.8730886162432,8.292526473505538],[49.51541102589399,7.975837253903645],[49.50512181817176,7.659147993777111],[48.86967801108755,6.709080035203002],[48.865226264480654,6.550735357979085],[48.69411575333952,6.629907696994777],[48.6963434400444,6.709080035203002],[48.44310681598031,6.946597043967986],[48.36102952302671,7.104941710580001],[48.36571347728672,7.263286371526399],[48.28138635604549,7.342458699621267],[48.288620018256246,7.579975673174675],[48.20435651921506,7.659147993777111],[48.29355020749241,7.738320312252717],[48.314167395418735,8.371698771312865],[48.23008470938148,8.450871066079955],[48.23825750299959,8.688387931124911],[48.075898809775616,9.005077035797857],[47.73730227306189,9.242593824210203],[47.21641509387139,9.242593824210203],[47.12674580494031,9.163421565427385],[46.60589017720324,9.163421565427385],[46.51628760488923,9.084249302589441],[46.082267311341205,9.084249302589441],[45.99272540744864,9.005077035797857],[45.47193205686688,9.005077035797857],[45.38245516048498,8.925904765154124],[44.94848631003426,8.925904765154124],[44.85906847901992,8.846732490759727],[44.42512501237972,8.846732490759727],[44.33576547855206,8.76756021271616],[43.98863083408607,8.76756021271616],[43.89932384824943,8.688387931124911],[43.465430482774416,8.688387931124911],[43.3761803226034,8.609215646087467],[42.855537949183415,8.609215646087467],[42.766348767851355,8.53004335770532],[42.33250462694359,8.53004335770532],[42.24337074004949,8.450871066079955],[42.069842798909434,8.450871066079955],[41.893989872922944,8.371698771312865],[41.5379316355756,8.055009562857027],[41.355779581464425,7.738320312252717],[41.33933069285923,7.104941710580001],[41.50487407413727,6.788252372502271],[42.01351628375462,6.313218337102121],[42.446755303426166,6.313218337102121],[42.53153999710846,6.234045995871467],[42.87811603095099,6.234045995871467],[42.96289421217394,6.154873654340799],[43.39609544106458,6.154873654340799],[43.4808635637276,6.075701312611603],[43.914046141399055,6.075701312611603],[43.99880444827543,5.996528970785369],[44.345335717782696,5.996528970785369],[44.688100330784565,5.8381842872477545],[44.861351362609874,5.8381842872477545],[44.94610684089234,5.759011945739353],[45.119350664696924,5.759011945739353],[45.375488317009975,5.6006672637508075],[45.80856229484582,5.6006672637508075],[45.89331561846487,5.521494923473643],[46.15314946608433,5.521494923473643],[46.23790104086753,5.442322583809872],[46.49772443828107,5.442322583809872],[46.582474342136834,5.363150244860986],[46.92889172217836,5.363150244860986],[47.01363660334237,5.2839779067284685],[47.27343936276258,5.2839779067284685],[47.35818274398359,5.204805569513814],[47.617975313512765,5.204805569513814],[47.70271725894633,5.125633233318513],[47.962499723253266,5.125633233318513],[47.95881479076918,4.967289174447528],[47.69190884349069,4.65059968963805],[47.69016434814384,4.571427321467198],[47.51359780559062,4.413082588621225],[47.511913033578885,4.333910223905508],[46.71736385648051,3.542186634510564],[46.71593231572332,3.463014280900734],[45.487531327169435,2.35460141435051],[45.139554886340086,2.1962567300867755],[44.96470586117104,2.0379120480753206],[44.87821479350335,2.0379120480753206],[44.70350160473234,1.8795673681537608],[44.61701388612808,1.8795673681537608],[44.44243797436039,1.721222690159713],[44.35595337026593,1.721222690159713],[43.920118243437926,1.325361002541815],[43.83364035771663,1.325361002541815],[42.444967482317985,-0.02056868700079303],[42.44499628053664,-0.09974102075292754],[42.099608545186456,-0.4164303562201583],[42.099819575865965,-0.49560269030312903],[41.75512675035914,-0.8122920281086028],[41.58256263522348,-0.8914643630298589],[41.58389608132186,-1.128981369246125],[41.49846747921329,-1.2873260414703638],[41.24082555621369,-1.5248430523327723],[41.15639716804552,-1.7623600667135946],[40.89844288107814,-1.920704745192789],[40.63897718192931,-1.920704745192789],[40.384600517378715,-2.3957387930981007],[40.21253525985726,-2.474911136446991],[40.03953230989039,-2.474911136446991],[39.868453095116635,-2.6332558250686033],[39.87477756737681,-3.108289907785532],[39.61865229652606,-3.3458069596280495],[39.45296523040017,-3.8208410870214236],[39.28247001791695,-3.9791858037726495],[39.28648329753117,-4.216702886601529],[39.20267563210175,-4.3750476138589525],[38.86062169484464,-4.612564713208306],[38.86641707545099,-4.929254195657968],[38.699217519543424,-5.245942945197058],[38.70227935077637,-5.404287621470657],[38.45029295049787,-5.800149323742263],[38.455155293601834,-6.037666348991422],[38.543442650628776,-6.116838690779903],[38.54848727956004,-6.3543557148407634],[38.90031106123929,-6.59187273481347],[38.90208326240159,-6.671045073422272],[39.07902136052872,-6.829389747957795],[39.165694737765214,-6.829389747957795],[39.171238293889054,-7.066906751533514],[39.00353385662202,-7.3044237428004015],[39.013318848541154,-7.70028536011635],[39.10205278240398,-7.7794576774468],[39.108202690149525,-8.016974615345871],[39.02354649750041,-8.096146922943166],[39.038647144998464,-8.650352995204479],[39.12766290695828,-8.72952527846397],[39.1345010430089,-8.967042106842932],[39.312774722593964,-9.125386640247752],[39.32238671118857,-9.442075658169017],[39.41167622699597,-9.52124790187224],[39.41919119878053,-9.758764605493056],[39.51117273059066,-9.917109050651344],[39.77967454473079,-10.154627847755236],[40.13262983031432,-10.312972488453983],[40.138165050563344,-10.471317114740712],[40.31762438422728,-10.629661729700723],[40.23356722557492,-10.708834033897356],[40.24821977692782,-11.104695537473287],[40.16426555249573,-11.183867837406648],[40.21571603473469,-12.450624985530451],[40.306233593772184,-12.529797348781315],[40.334804007420765,-13.163176546222848],[40.25135390235214,-13.242348988117353],[40.26259253810169,-13.479866379342626],[40.35357607226207,-13.559038866217197],[40.385125522488984,-14.192419233141054],[40.57199847863311,-14.429937112491928],[40.5846508373151,-14.667455139907236],[40.41859988095143,-14.82580057891784],[40.44052803946284,-15.22165870930642],[40.36212688613642,-15.380004786061845],[40.11354570053926,-15.61752398992806],[40.11812889260218,-15.696697075780795],[39.86967036418659,-15.934216366854056],[39.87433027147106,-16.01338947024613],[39.54318670344005,-16.330081877220323],[39.54792844233402,-16.409254970109295],[39.036985387353795,-16.64677420446583],[38.87139804814781,-16.805120309366142],[38.87618681468166,-16.88429334209147],[38.44302544688257,-16.96346635974531],[38.189746452902185,-17.12181234407376],[37.92689873999453,-17.12181234407376],[37.7611354751128,-17.280158250821952],[37.33237492233905,-17.438504068460396],[36.74695886127058,-17.913540871423496],[36.67349491034591,-18.151058835969692],[36.502729772796485,-18.230231416479672],[36.253653814677556,-18.467748914817715],[36.17537476402431,-18.62609369663882],[35.91662813129631,-18.705266018104833],[35.66728938006862,-18.94278268743191],[35.57941226340558,-18.94278268743191],[34.91842753771792,-19.655329702572786],[34.57580553680681,-19.813672800091492],[34.589798742699884,-20.051169188690373],[34.50641675716811,-20.130340171406544],[34.52510642269259,-20.44702352678783],[34.896501831003405,-20.763706219569926],[34.93010642282439,-21.31790037292729],[35.126159708340396,-21.634583018473414],[35.171221705982724,-22.347121792392436],[35.35314875382341,-22.42629313392442],[35.37390950855039,-22.742979484373283],[35.46763566003337,-22.822151344961547],[35.38974002131903,-22.980495431364492],[35.4004270752939,-23.13884004059929],[35.31727075549859,-23.21801255472771],[35.32810163071021,-23.376358028905532],[35.244979166221334,-23.45553099971483],[35.267077510742595,-23.772224566624935],[35.44998795292347,-23.851398406172635],[35.455656057712055,-23.9305724356096],[35.21250949802849,-24.24727055986858],[35.218313536856584,-24.326445619466917],[35.05249885695177,-24.484796410574038],[34.53740577359981,-24.72232435773829],[34.35977934163487,-24.72232435773829],[34.105063721384504,-24.880677558975243],[33.66669077537497,-24.959854546679413],[33.15103935159805,-25.19738485917142],[32.73009533123659,-25.51409857885919],[32.576255108596555,-25.83081450005472],[32.594753079939935,-26.06835211257476],[32.78552885348505,-26.226710539518983],[32.874649782791224,-26.226710539518983],[32.91354079656767,-26.70178414244662],[32.74830781816153,-26.860140915296128],[32.76844459850225,-27.09767449600716],[32.617084843235695,-27.414382147033244],[32.63797163909234,-27.651909340209347],[32.48734298573998,-27.968606507251664],[32.508977174978725,-28.20612436221964],[32.35906516407742,-28.52280711176246],[32.02252472217251,-28.760312679009125],[31.843064930390053,-28.760312679009125],[31.349037486855895,-29.235304766031774],[31.050301333600526,-29.868581682247093],[30.8034203630179,-30.10603000325679],[30.736827814497403,-30.343483962591662],[30.33335340125949,-30.81837569664005],[30.341384010101745,-30.8975230941163],[29.929828763374466,-31.293259321782703],[29.83937267186946,-31.293259321782703],[29.015072430715087,-32.084757910529476],[28.940790697663328,-32.24306689918671],[28.850032185254506,-32.24306689918671],[28.519744930137787,-32.55969893986522],[28.42888208766433,-32.55969893986522],[27.758911526336124,-33.11386263416657],[27.411055672213166,-33.272211513498924],[27.24520839411516,-33.43056878049287],[27.071063629911396,-33.50975074715646],[26.88869129963553,-33.50975074715646],[26.80562596740605,-33.588935036129406],[25.984701780083622,-33.588935036129406],[25.817996869367704,-33.747310881730314],[25.8338376691313,-33.90569691898108],[25.64330788751669,-33.826502588779285],[25.186821250673866,-33.826502588779285],[24.92826683292981,-33.98489394760698],[24.56285269583782,-33.98489394760698],[24.182550649619653,-33.826502588779285],[23.634766685408266,-33.826502588779285],[23.55070319686436,-33.90569691898108],[22.45479865017623,-33.90569691898108],[22.279014339012857,-33.98489394760698],[22.025449149571774,-34.22250197713051],[21.111062940045656,-34.22250197713051],[21.026191486281032,-34.30171055268855],[20.75178991884036,-34.30171055268855],[20.228452915499904,-34.61857636121828],[19.953705461261094,-34.61857636121828],[19.764285071505675,-34.539355032209464],[19.46516776289864,-34.22250197713051],[19.19085190004081,-34.22250197713051],[18.984434252330484,-33.90569691898108],[18.80178349454913,-33.90569691898108],[18.63064409145695,-34.06408470705646],[18.624872968092916,-33.98489394760698],[18.71045811565845,-33.90569691898108],[18.681936437221555,-33.50975074715646],[18.386276573770406,-33.193036062923674],[18.375354344328905,-33.034691152154465],[18.182580505896556,-32.87635372816427],[18.09161160003847,-32.87635372816427],[18.086306077797573,-32.79718763612924],[18.17193760160809,-32.71802319072395],[18.353768918719947,-32.71802319072395],[18.524832258057398,-32.55969893986522],[18.589032471521435,-32.163911881307115],[18.493060122857912,-32.084757910529476],[18.472326178572086,-31.76815100079323],[18.376618966534842,-31.68900114236444],[18.366482913292824,-31.530703144338517],[18.17547620954558,-31.372406939149503],[18.07031883154293,-31.13496468335952],[17.87992959710887,-30.976670341178167],[17.481855015014347,-30.343483962591662],[17.472918735915385,-30.185182122072117],[17.27957291236532,-29.94773716029421],[17.26667600959498,-29.7102678483314],[17.172455631781112,-29.631109532513097],[17.164058074754646,-29.47279020329893],[17.06999220414801,-29.393629229967267],[17.06177072797637,-29.235304766031774],[16.86604727479599,-28.918646330195834],[16.678712524772596,-28.760312679009125],[16.667185698891267,-28.52280711176246],[16.484091070205253,-28.443637312105615],[15.738869809680317,-27.81025881308836],[15.639252928344773,-27.572733986926483],[15.35796030870148,-27.256028929860072],[15.345266506169475,-26.939319006087025],[15.157495119318481,-26.70178414244662],[15.145479542980546,-26.38506879391266],[15.053384564934065,-26.3058896983254],[15.044678673782734,-26.06835211257476],[14.952744321633707,-25.989172884600244],[14.936046467575116,-25.51409857885919],[14.844373972020831,-25.434919892344986],[14.823411385739544,-24.80150083112242],[14.542210699730038,-24.326445619466917],[14.53506651100711,-24.08892108567475],[14.444034253098996,-24.009746660316658],[14.414862660546673,-22.980495431364492],[14.501191038458037,-22.901323325498804],[14.488368480547138,-22.42629313392442],[14.30328923267364,-22.109608272324834],[14.122541300521313,-21.951266292264712],[14.120537694062055,-21.8720953960938],[13.939959017299111,-21.713753764576786],[13.75376069860621,-21.31790037292729],[13.57353656135003,-21.15955917817526],[13.206233664878182,-20.52619424865557],[13.202650651410496,-20.367852763507678],[12.83814537019108,-19.813672800091492],[12.834688491694347,-19.655329702572786],[12.653622042281228,-19.4178145685731],[12.650232619933334,-19.259470837570078],[12.37656728158198,-18.784438291353055],[11.840084838521983,-18.30940395741841],[11.74923321916233,-18.151058835969692],[11.746182472514496,-17.992713562000475],[11.656936244967548,-17.913540871423496],[11.62789098273737,-16.330081877220323],[11.714001940932484,-16.250908779348315],[11.711227894638798,-16.09256257442],[11.622384579554014,-16.01338947024613],[11.618332723834653,-15.775870168180179],[11.790504047844138,-15.61752398992806],[11.87523152717474,-15.459177843627383],[11.87257627580286,-15.300831740807793],[11.958629525561333,-15.22165870930642],[11.953423569712,-14.904973325800313],[12.122950732888176,-14.58828244700773],[12.116742691042349,-14.192419233141054],[12.202767669772873,-14.113246637794145],[12.199152436232366,-13.875728939664107],[12.285170276671307,-13.796556401638744],[12.281636785927567,-13.559038866217197],[12.795293927598928,-12.925659280681753],[12.791907758446515,-12.688142097255279],[12.877881707544093,-12.608969719227707],[13.052052034333093,-12.608969719227707],[13.395826526807138,-12.292280279072635],[13.480638148877176,-12.133935596768936],[13.478429842431416,-11.97559093553406],[13.56435861291445,-11.896418611853273],[13.562189066983835,-11.738073976436695],[13.648116310264966,-11.65890166392958],[13.637804178629175,-10.867178637652195],[13.54989242468162,-10.788006336419295],[13.547959814473462,-10.629661729700723],[13.194841131776545,-10.154627847755236],[13.103651400219249,-9.758764605493056],[12.927486469733365,-9.52124790187224],[12.925085297353851,-9.283731157627084],[12.837486839931737,-9.204558900991348],[12.83518407207517,-8.967042106842932],[13.179312003376777,-8.650352995204479],[13.176360320488376,-8.33366382920702],[13.088886461009388,-8.254491529975232],[13.086773134379698,-8.016974615345871],[13.519748629528284,-7.937802305163053],[13.605768899068648,-7.8586299924962],[13.779226829215471,-7.8586299924962],[13.865235319222176,-7.7794576774468],[14.038684236494902,-7.7794576774468],[14.124681169308564,-7.70028536011635],[14.384841145049673,-7.70028536011635],[14.730223524186881,-7.541940719018242],[14.903645876555862,-7.541940719018242],[14.989605086839896,-7.462768395453561],[15.163018739769976,-7.462768395453561],[15.248967285250759,-7.383596070013785],[16.202694950626505,-7.383596070013785],[16.288594574188163,-7.3044237428004015],[17.068878748012228,-7.3044237428004015],[17.1547387987371,-7.225251413914904],[17.76159683804192,-7.225251413914904],[17.847426428573897,-7.146079083458777],[18.19418565623664,-7.146079083458777],[19.224738371750753,-6.275183373806064],[19.48467630109027,-6.275183373806064],[19.999427668024275,-5.800149323742263],[19.9985989982651,-5.720976982369605],[24.06974799598295,-5.720976982369605],[24.2410048139444,-5.562632300798811],[25.453588272238157,-5.562632300798811],[26.06750589164008,-6.116838690779903],[26.156416487471223,-6.275183373806064],[26.330867016817695,-6.3543557148407634],[27.543964064182184,-6.3543557148407634],[28.312974113995367,-5.641804641354623],[28.31182070964486,-5.562632300798811],[28.653700517956192,-5.245942945197058],[28.73806361555595,-5.087598272789934],[28.73709518457405,-5.0086679373053276],[29.00355389205696,-5.48345996080366],[29.005907175778475,-5.641804641354623],[28.83625834040311,-5.879321665371115],[28.83869971638961,-6.037666348991422],[29.194231077556225,-6.59187273481347],[29.196902813525284,-6.750217411170879],[29.813520253805272,-7.3044237428004015],[29.903179238826556,-7.462768395453561],[29.909260166949444,-7.7794576774468],[30.26253114696428,-8.096146922943166],[30.17741261190558,-8.17531922785345],[30.18405500101322,-8.492008418594668],[30.709880750789964,-8.72952527846397],[30.883443269473844,-8.72952527846397],[30.968451949794378,-8.650352995204479],[30.964953403737606,-8.492008418594668],[30.424946413579878,-7.541940719018242],[30.23554561197116,-6.671045073422272],[29.8835083698137,-6.3543557148407634],[29.623559002521304,-6.3543557148407634],[29.53560956888495,-6.275183373806064],[29.531777595828327,-6.037666348991422],[29.70253234798932,-5.879321665371115],[29.69763037626629,-5.562632300798811],[29.520856241566808,-5.325115282901293],[29.60629264741705,-5.245942945197058],[29.60285156422202,-5.008425938290024],[29.427439804294586,-4.850081823200674],[29.420983071086194,-4.3750476138589525],[29.155299875860962,-3.9000134448970987],[29.153403018035775,-3.741668730125324],[29.065937171349848,-3.662496374188504],[28.89286221770958,-3.662496374188504],[28.807242087500896,-3.741668730125324],[28.81301625269967,-4.216702886601529],[28.90058175622607,-4.295875249679558],[28.81503751420912,-4.3750476138589525],[28.818152633011984,-4.612564713208306],[28.733200211024894,-4.691214680766194],[28.713778611170234,-3.108289907785532],[28.626462642457373,-3.0291175587922123],[28.623434752123046,-2.7124281703819197],[28.536213068303006,-2.6332558250686033],[28.532901694579724,-2.237394108222659],[28.445799084163294,-2.1582217666555112],[28.437342066103387,-0.2580856883542084],[28.523740521023846,-0.17891335453063337],[28.523714208467933,0.13777598050795478],[28.610238783844895,0.21694831430516318],[28.610426964669593,0.37529298208673956],[28.958029563393207,1.0086716586855426],[29.131644005832968,1.1670163300152865],[29.39411686192462,1.721222690159713],[29.65578688399011,2.0379120480753206],[29.65765538463934,2.275429071926959],[29.232470209069938,3.067152525763196],[29.06108168908848,3.2254972253170817],[28.888035647723175,3.2254972253170817],[28.80235179421104,3.3046695763242915],[28.28319854439319,3.3046695763242915],[28.197508974229315,3.3838419281787435],[27.07264358407612,3.3838419281787435],[26.986929116922006,3.463014280900734],[25.688968380158762,3.463014280900734],[25.603222213267895,3.542186634510564],[24.82442190675595,3.542186634510564],[24.73865856828417,3.621358989028529],[24.305978263491,3.621358989028529],[24.22020759204431,3.700531344474928],[23.960591204958803,3.700531344474928],[23.615961349270705,3.858876058234222],[23.442872578280777,3.858876058234222],[23.357098279484926,3.93804841658771],[23.184003801546577,3.93804841658771],[22.66702100408988,4.175565497787127],[22.40971016865493,4.413082588621225],[22.236579909089855,4.413082588621225],[21.8061230621956,4.65059968963805],[21.373250390267586,4.65059968963805],[21.28746207003667,4.7297720590012124],[20.854573410143974,4.7297720590012124],[18.35471367444577,5.91735662896359],[17.922326417854556,5.996528970785369],[17.836454965577555,6.075701312611603],[17.576545418974682,6.075701312611603],[17.490661953404345,6.154873654340799],[17.23074121606996,6.154873654340799],[17.144845518142773,6.234045995871467],[16.88491349276087,6.234045995871467],[16.79900533887062,6.313218337102121],[16.539061927067692,6.313218337102121],[16.453141089062697,6.392390677931268],[14.893411703129384,6.392390677931268],[14.80610584838151,6.313218337102121],[13.852980005104106,6.313218337102121],[13.765729188178057,6.234045995871467],[13.505797162796155,6.234045995871467],[13.158083126725856,6.075701312611603],[12.984810095657274,6.075701312611603],[12.897623009999368,5.996528970785369],[12.724357375245742,5.996528970785369],[12.637189711509645,5.91735662896359],[12.463931409602491,5.91735662896359],[12.376782895365631,5.8381842872477545],[12.203531863540329,5.8381842872477545],[12.11640222992528,5.759011945739353],[11.509574033508757,5.679839604539873],[11.422488454679472,5.6006672637508075],[11.162644067977963,5.6006672637508075],[11.075580037456396,5.521494923473643],[10.815746189836931,5.521494923473643],[10.728703394350545,5.442322583809872],[10.295664398661314,5.442322583809872],[10.208649437776593,5.363150244860986],[9.515814677693541,5.363150244860986],[9.429586407282851,5.442322583809872],[9.256370809007159,5.442322583809872],[8.5656196166915,5.91735662896359],[8.47899046573792,5.91735662896359],[5.71573913006731,8.450871066079955],[5.5422111889272525,8.450871066079955],[5.455752649783469,8.53004335770532],[5.19544616523881,8.53004335770532],[4.848920955497936,8.688387931124911],[4.588584936212926,8.688387931124911],[4.241960001497371,8.846732490759727],[3.981593921513252,8.846732490759727],[3.634866226799912,9.005077035797857],[3.3744695515090384,9.005077035797857],[3.0276359898679033,9.163421565427385],[2.072734005683264,9.163421565427385],[1.986045034162875,9.242593824210203],[1.291528795242207,9.242593824210203],[1.2047878812662787,9.321766078836404],[-0.2711493103060187,9.321766078836404],[-0.7050783613813102,9.005077035797857],[-1.1390056078314097,8.925904765154124],[-1.2257276781691264,8.846732490759727],[-1.4860937581532454,8.846732490759727],[-1.83303687281732,8.688387931124911],[-2.0065942190073267,8.688387931124911],[-2.0932536227421203,8.609215646087467],[-2.2668010805487824,8.609215646087467],[-2.3534418865563196,8.53004335770532],[-2.874054855645639,8.53004335770532],[-2.960493628838269,8.371698771312865],[-3.65377331226734,8.055009562857027],[-3.826849231695431,7.896664942417472],[-4.0001027833389795,7.8174926285],[-4.347009257669135,7.8174926285],[-5.038799567766734,7.184114041812148],[-5.2988750259006405,7.184114041812148],[-5.385307201712091,7.104941710580001],[-5.5586824814693125,7.104941710580001],[-5.731512291255584,6.946597043967986],[-6.511626806399781,6.946597043967986],[-6.598618795815845,7.02576937793145],[-7.032036281122913,7.02576937793145],[-7.11905999928431,7.104941710580001],[-7.379122918920143,7.104941710580001],[-7.466170510349861,7.184114041812148],[-7.812937787861735,7.184114041812148],[-7.900013831231749,7.263286371526399],[-8.246797974889796,7.263286371526399],[-8.333902911757317,7.342458699621267],[-8.594003781287803,7.342458699621267],[-8.681133767240683,7.421631025995265],[-9.027952093322307,7.421631025995265],[-9.115111834911334,7.500803350546896],[-9.375238568814229,7.500803350546896],[-9.723058127656456,7.659147993777111],[-9.896493500850683,7.659147993777111],[-9.983723051142707,7.738320312252717],[-10.243889449618758,7.738320312252717],[-10.591878481294176,7.896664942417472],[-10.765340769745425,7.896664942417472],[-10.940546056839512,8.134181869176128],[-11.114035984926629,8.134181869176128],[-11.550937673800961,8.53004335770532],[-11.551590073205217,8.609215646087467],[-12.60191634876282,9.559282816760419],[-12.688752380132668,9.559282816760419],[-13.038592581185776,9.796799513621291],[-13.212297897637074,9.796799513621291],[-13.561477166677252,9.95514395402917],[-13.999543907542156,10.271835122923319],[-14.173318389556485,10.271835122923319],[-14.259239075932426,10.192662802543927],[-14.519883131340835,10.192662802543927],[-14.695646425629052,10.351007439499316],[-14.78253960662829,10.351007439499316],[-14.870457996041983,10.430179752657583],[-14.87464716463866,10.746868978826592],[-15.049576584840667,10.826041280681133],[-15.051768252940441,10.98438588146459],[-15.139826874933393,11.063558181164826],[-15.400673791636954,11.063558181164826],[-15.401818569250544,11.142730480918285],[-15.578073838991514,11.301075082127506],[-15.665042362598086,11.301075082127506],[-15.669875367903726,11.61776430215366],[-15.847637124034296,11.855281244728356],[-16.195701369253587,11.855281244728356],[-16.28535316013481,12.013625892017874],[-16.546443600657987,12.013625892017874],[-16.54916491065794,12.171970558032013],[-16.63759365081598,12.251142899024973],[-16.81169705705487,12.251142899024973],[-16.901594508217265,12.409487598910985],[-17.077181918671315,12.488659958575363],[-16.90448560200896,12.567832325234873],[-16.907422487968283,12.72617708108195],[-17.08311631961848,12.805349471040849],[-16.999034182529787,12.963694276957682],[-17.00365559303574,13.201211556615522],[-17.093955540026272,13.359556461408594],[-16.919636928431334,13.359556461408594],[-16.834049743176774,13.438728930468487],[-16.840458848913485,13.755418926796054],[-16.754882477651837,13.834591457828298],[-16.758167735587584,13.992936560932911],[-17.110476526319758,14.151281721328843],[-17.11393142057259,14.309626942101492],[-17.204716670412513,14.467972226336267],[-17.561183824782873,14.784662997533873],[-17.04838099773861,15.25969400244981],[-16.797632841529698,15.734732399259272],[-16.719940269528653,16.13059790413762],[-16.634427288810876,16.20977100682281],[-16.64442525841836,16.605636449529676],[-16.477416130502007,16.92232863235977],[-16.481509076960396,17.080674634956537],[-16.39594676550997,17.159847609006164],[-15.782598594058896,17.159847609006164],[-15.513942999948922,16.92232863235977],[-15.336872868911598,16.843155606695017]],[[33.76681101660092,-12.292280279072635],[34.04253363745928,-12.688142097255279],[34.0702072487597,-13.400693904291575],[34.3414287844098,-13.638211365300963],[34.27091345543233,-14.034074057356133],[34.452255051691544,-14.192419233141054],[34.626751242009114,-14.192419233141054],[34.71052020778934,-14.113246637794145],[34.89201812736427,-14.271591843782538],[35.06653193610446,-14.271591843782538],[35.15023981296183,-14.192419233141054],[35.14322016907441,-14.034074057356133],[35.0525272572737,-13.954901491441348],[35.04229458674565,-13.717383876979587],[34.861240124935755,-13.559038866217197],[34.686880253592065,-13.559038866217197],[34.643222643451345,-12.450624985530451],[34.553219866064985,-12.371452629089447],[34.54456043957571,-12.133935596768936],[34.79716514287826,-11.896418611853273],[34.78073599489964,-11.421384742584987],[34.509366409504175,-11.104695537473287],[34.49435319535226,-10.629661729700723],[34.4050155567868,-10.550489423443727],[34.38862140713947,-9.996281265749346],[34.2060003732322,-9.679592375635746],[33.93905159798161,-9.442075658169017],[33.678567640890954,-9.442075658169017],[33.59383782130222,-9.52124790187224],[33.602416179826264,-9.837936830532085],[33.69146914470371,-9.917109050651344],[33.695921384895335,-10.075455521037203],[33.96574920045911,-10.392144803206017],[33.88119907486162,-10.471317114740712],[33.8932331585809,-10.867178637652195],[33.98264089334973,-10.946350937981721],[34.003194668258885,-11.579729354375697],[33.755660900029596,-11.97559093553406],[33.76681101660092,-12.292280279072635]],[[32.241891898556155,0.21694831430516318],[32.15536011124252,0.13777598050795478],[31.98242459206278,0.13777598050795478],[31.63653326376012,-0.09974102075292754],[31.636764542569374,-0.3372580222439508],[31.378040750402317,-0.6539473588705518],[31.378537016923456,-0.8122920281086028],[31.465295420873055,-0.8914643630298589],[31.467530171381714,-1.366498378067395],[31.381505798802507,-1.4456707150147652],[31.383548061239203,-1.7623600667135946],[31.29762666273322,-1.8415324057171285],[31.30076124173047,-2.237394108222659],[31.564700397919022,-2.7124281703819197],[31.73771602414232,-2.7124281703819197],[31.82342773256956,-2.6332558250686033],[31.993429161761693,-2.3165664503634225],[32.16789808639749,-2.474911136446991],[33.20591578619876,-2.474911136446991],[33.37738934689479,-2.3165664503634225],[33.3759436990949,-2.1582217666555112],[33.28876106902507,-2.0790494256416827],[33.11577711834034,-2.0790494256416827],[33.20033953730711,-1.8415324057171285],[33.28682648615138,-1.8415324057171285],[33.45861761525676,-1.683187728161889],[33.45752864072181,-1.5248430523327723],[33.629979619888005,-1.4456707150147652],[33.7155083955391,-1.2873260414703638],[33.71465813198074,-1.128981369246125],[33.88721984869206,-1.049809033578322],[33.88545053462286,-0.5747750245131608],[33.971721376951024,-0.49560269030312903],[34.1446596365024,-0.49560269030312903],[34.23081463025476,-0.3372580222439508],[34.40375130276712,-0.3372580222439508],[34.490105589101375,-0.2580856883542084],[34.489967500189124,-0.09974102075292754],[34.403476453856854,-0.02056868700079303],[34.23054116292221,-0.02056868700079303],[34.14415007907611,-0.17891335453063337],[33.97121440036681,-0.17891335453063337],[33.798202935585586,-0.02056868700079303],[33.79831466200383,0.21694831430516318],[33.711943062258335,0.29612064815799216],[33.2797259666318,0.37529298208673956],[33.10711970178372,0.533637650253182],[32.93418097407876,0.533637650253182],[32.674231555069404,0.21694831430516318],[32.241891898556155,0.21694831430516318]],[[23.430665589649113,9.321766078836404],[23.51893506358234,9.400938329204498],[23.52336089622614,9.638455053745265],[23.438015072739322,9.717627286066053],[23.26432093768958,9.717627286066053],[23.175994794782362,9.638455053745265],[23.171634317775364,9.400938329204498],[23.25702592005237,9.321766078836404],[23.430665589649113,9.321766078836404]]],[[[28.73709518457405,-5.0086679373053276],[28.73695937196213,-5.008425938290024],[28.73263594823991,-4.691737081996142],[28.733200211024894,-4.691214680766194],[28.73709518457405,-5.0086679373053276]]]]}}
