{"type":"Feature","properties":{"id":"klippenadler","sourceUrl":"https://commons.wikimedia.org/wiki/File:Aquila_verreauxii_distr.png","author":"Scops","license":"CC BY 2.5","licenseUrl":"https://creativecommons.org/licenses/by/2.5/","sourceImageSha256":"e7532b62d01a5a514ac52612ac1c73debc578e66ca1c3557b930545607e8d05c","registration":{"proj_string":"+proj=robin +R=1 +lon_0=10","parameters_1000px":[795.5378123587466,-794.7843271391728,395.42320921091226,525.7901505282694],"coast_rmse_capped15_px":3.357365846633911,"coast_median_px":0.9645880460739136,"coast_p90_px":4.10211706161499,"sample_count":1360,"coast_rmse_px":7.633192539215088,"image_width":1171,"image_height":1317,"pixel_transform_native":[931.5747782720923,-930.6924470799714,463.0405779859783,615.7002662686034],"transform_definition":"pixel_x=sx*projected_x+tx; pixel_y=sy*projected_y+ty","validation":"Every third coastline sample (index 1 mod 3) withheld from affine fit; normalized to 1000px width. Error is measured to the nearest extracted coastline pixel.","controls":[[-5.6,36,260,61],[20,-34.8,595,1150],[-17.5,14.7,94,391],[51.3,12,1025,432],[49.3,-11.9,1001,805],[8.7,-0.6,455,623]],"review_bounds":[-20,-36,59,37],"all_fits":[{"proj_string":"+proj=robin +R=1 +lon_0=20","parameters_1000px":[795.2979006200195,-795.0593468441309,511.0370439050611,525.8090999907932],"coast_rmse_capped15_px":3.538966178894043,"coast_median_px":1.26822829246521,"coast_p90_px":4.41706657409668,"sample_count":1360,"coast_rmse_px":7.565106391906738},{"proj_string":"+proj=robin +R=1 +lon_0=0","parameters_1000px":[795.8032881195509,-795.0564866720949,279.6978914011713,525.8555715066931],"coast_rmse_capped15_px":3.596079111099243,"coast_median_px":1.122626543045044,"coast_p90_px":4.772887229919434,"sample_count":1360,"coast_rmse_px":7.91021728515625},{"proj_string":"+proj=wintri +R=1 +lon_0=0","parameters_1000px":[677.4966845536828,-760.0246342184277,279.5454370087431,525.8045687900596],"coast_rmse_capped15_px":4.073904514312744,"coast_median_px":1.4401767253875732,"coast_p90_px":6.196773052215576,"sample_count":1360,"coast_rmse_px":8.110548973083496},{"proj_string":"+proj=eqc +R=1 +lon_0=0","parameters_1000px":[664.041534641483,-763.1653578954524,279.1873745424991,526.2542897913066],"coast_rmse_capped15_px":4.409711837768555,"coast_median_px":1.7050938606262207,"coast_p90_px":6.366156101226807,"sample_count":1360,"coast_rmse_px":8.501239776611328},{"proj_string":"+proj=mill +R=1 +lon_0=0","parameters_1000px":[664.8893650195722,-736.9559354806966,279.6998101986271,526.0594295023601],"coast_rmse_capped15_px":4.675247669219971,"coast_median_px":2.0878705978393555,"coast_p90_px":7.403515338897705,"sample_count":1360,"coast_rmse_px":8.48196029663086},{"proj_string":"+proj=merc +R=1 +lon_0=0","parameters_1000px":[665.1968351490101,-721.9721199015562,279.94994870819187,525.7206098042743],"coast_rmse_capped15_px":5.26965856552124,"coast_median_px":2.666827440261841,"coast_p90_px":8.790297508239746,"sample_count":1360,"coast_rmse_px":8.758491516113281},{"proj_string":"+proj=laea +R=1 +lon_0=15 +lat_0=0","parameters_1000px":[695.5737891925646,-768.9727452276106,453.7279171567346,525.8816232796171],"coast_rmse_capped15_px":6.122583866119385,"coast_median_px":2.592404365539551,"coast_p90_px":12.126212120056152,"sample_count":1360,"coast_rmse_px":9.547947883605957}],"excluded_pixel_rectangles":[[782,120,804,148],[801,159,825,189],[899,311,921,342]],"annotation_exclusion_notes":"Only three green question-mark annotations (Israel / northern Saudi Arabia / southwestern Saudi Arabia). Cyan Lake Victoria excluded by green hue classification; ocean is blue and excluded."},"includedColors":["#339966"],"adaptation":"Inverse map projection; current range color extracted; 3px border closing; contours simplified by 0.45 source pixels; components below 4 source pixels omitted. Documented question-mark annotations excluded for Klippenadler; pale historic range excluded for Iberienadler."},"geometry":{"type":"MultiPolygon","coordinates":[[[[29.34150751946037,-22.5741010100733],[29.12371275540121,-22.702252996697364],[29.054151269139645,-22.83040527625073],[29.075199660791853,-23.407094770946248],[29.23336846787966,-23.66340380912548],[29.38686854706288,-23.79155901287712],[29.38936475282253,-23.855636795901567],[29.543033088081312,-23.98379273850992],[29.5455858571787,-24.047870903798877],[29.69942786092236,-24.176027636609398],[29.70203949539265,-24.240106209836366],[30.161757201196927,-24.560501258301837],[30.241715018100187,-24.688660349365033],[30.172875422943456,-24.816820087053184],[30.18424437662547,-25.073139098381322],[30.043892648961187,-25.26538239405496],[30.07066095230185,-25.842118229275517],[29.930560580992697,-26.03436453235141],[29.939852546895366,-26.22661086870917],[30.176688042554506,-26.48293887215732],[30.186429374920518,-26.67518416837745],[30.264497401012264,-26.739265742463495],[30.277832204352897,-26.99559079834307],[30.06677104157127,-27.25191335855965],[30.08048542229378,-27.50823274194317],[30.315877782880143,-27.700469784964852],[30.469418346403568,-27.76454826740799],[30.84804020672071,-27.828626466169172],[31.46334489779547,-28.084936211616817],[31.54617293094889,-28.21308910565247],[31.573935940516883,-28.66161239486833],[31.218047010220477,-28.98197340815336],[31.083760925256346,-29.238253539483015],[30.941297709940088,-29.366390478269725],[30.945402662256683,-29.43045812876041],[30.798787293492357,-29.494525219153356],[30.802897854203604,-29.558591738827733],[30.58904829391719,-29.75078776734573],[30.454715412207086,-30.007025963938858],[30.463082376335073,-30.135147701052887],[30.249059852308864,-30.327326125487755],[30.1819059763374,-30.455442750632507],[30.190387406927503,-30.58355788654345],[29.90477137042189,-30.839784960233352],[29.90903954882233,-30.90384129378837],[29.766136999236142,-31.031953716731817],[29.690392897541383,-31.031953716731817],[29.046338666914124,-31.6084634452528],[28.898776261961096,-31.672521261520995],[28.9030172624103,-31.7365794592096],[28.26134134661954,-32.37719114503788],[28.193712619280145,-32.50532202844769],[27.89755084586575,-32.633456501937026],[27.75357607309967,-32.76159488338475],[27.677367195520844,-32.76159488338475],[27.533267118050237,-32.88973749076667],[27.45702207027402,-32.88973749076667],[27.240646119473148,-33.08196002129806],[27.09215614323664,-33.14603665576818],[26.786883768633594,-33.14603665576818],[26.714596227811395,-33.210114585366824],[26.409250222162164,-33.210114585366824],[26.336864705062986,-33.274193849895084],[26.18415477014839,-33.274193849895084],[26.035334167999036,-33.33827448916239],[25.817786960474013,-33.53052505362189],[25.129922251252793,-33.53052505362189],[24.83515162644792,-33.72278942471838],[22.158146810006777,-33.72278942471838],[21.71086508284447,-33.979165256969665],[21.328055546542387,-33.979165256969665],[21.248686794292638,-33.91506867879514],[20.865972755269695,-33.91506867879514],[20.64166033486598,-34.04326364840443],[20.488498207668986,-34.04326364840443],[20.18986022307667,-34.2355701016099],[19.806665859385696,-34.2355701016099],[19.727573332802955,-34.17146603077893],[19.57433423989454,-34.17146603077893],[19.263201190093056,-34.04326364840443],[19.105488175764165,-33.91506867879514],[18.799316944545815,-33.91506867879514],[18.720604069370502,-33.85097387396388],[18.71628347458244,-33.72278942471838],[18.79059995491415,-33.658699700524366],[18.78198866548839,-33.402356542986645],[18.701367959333155,-33.274193849895084],[18.46617552618061,-33.08196002129806],[18.46414598468965,-33.01788464216337],[18.229415648559506,-32.82566563895645],[18.22746637574694,-32.76159488338475],[18.30367525332576,-32.76159488338475],[18.60243222077771,-32.56938879656717],[18.674532904351082,-32.4412561578467],[18.654671256252243,-31.800638077997395],[18.495165688642174,-31.544405970728594],[18.49139925769724,-31.41629188821674],[17.946630198279284,-30.90384129378837],[17.941539048188616,-30.7116718506202],[17.626108525333464,-30.1992076936727],[17.619873623268468,-29.942978277140377],[17.54287170936694,-29.87891540476014],[17.532359683294036,-29.43045812876041],[17.375901953073708,-29.174184272433177],[17.373064542755614,-29.046044196142645],[17.21840779955467,-28.853830385621464],[17.215688931137368,-28.72568550520741],[16.908495450576936,-28.405315734025166],[17.05616680075018,-28.277165020769598],[17.12739874639389,-28.084936211616817],[17.202456056087094,-28.084936211616817],[17.205054591192297,-28.21308910565247],[17.282788818551364,-28.341240567105444],[17.512268642990477,-28.533464887080026],[17.663996995371093,-28.597538851948695],[17.889498381431828,-28.597538851948695],[17.96614994127288,-28.66161239486833],[18.34205563185973,-28.66161239486833],[18.349932822614896,-28.98197340815336],[18.50369467139741,-29.11011448777796],[18.731220639379586,-29.174184272433177],[18.96233217693323,-29.366390478269725],[19.037671582801195,-29.366390478269725],[19.04480374798622,-29.622657677163698],[18.894006026621256,-29.622657677163698],[18.82036426412605,-29.68672302354234],[18.825680437905312,-29.87891540476014],[18.902942097824248,-29.942978277140377],[19.129365946275264,-29.942978277140377],[19.206711656644238,-30.007025963938858],[21.773370231739115,-30.007025963938858],[21.926783902126367,-30.071087137706083],[21.934145839718276,-30.263267155255463],[22.090270892363225,-30.391384644053183],[22.17350960209803,-30.58355788654345],[22.408293558325234,-30.77572849239999],[22.4136058418365,-30.90384129378837],[22.6461914399286,-31.031953716731817],[23.176400151791924,-31.031953716731817],[23.32501031719419,-30.967897532732312],[23.616259975430165,-30.7116718506202],[24.061322777560896,-30.51950048490395],[24.21255278919753,-30.51950048490395],[24.366806360023077,-30.58355788654345],[24.688109735026913,-30.967897532732312],[25.672570425683883,-30.967897532732312],[26.11656708655187,-30.77572849239999],[26.254157946292057,-30.51950048490395],[26.401948366285833,-30.455442750632507],[26.553146670687898,-30.455442750632507],[26.84851626811567,-30.327326125487755],[27.064644705887776,-30.135147701052887],[27.13315725620195,-30.007025963938858],[27.298335856473226,-30.263267155255463],[27.69456695825418,-30.58355788654345],[28.072721571689527,-30.58355788654345],[28.431615437477795,-30.263267155255463],[28.499540611187747,-30.135147701052887],[28.646761436578355,-30.071087137706083],[28.873277533245275,-30.071087137706083],[29.016540661969795,-29.942978277140377],[29.239068940158006,-29.87891540476014],[29.382184759872363,-29.75078776734573],[29.374447661486176,-29.622657677163698],[29.445987629349464,-29.558591738827733],[29.42693960087025,-29.238253539483015],[29.64150688102442,-29.046044196142645],[29.777006072245058,-28.78975817233515],[29.76590471396386,-28.597538851948695],[29.68708413956013,-28.533464887080026],[29.679826553756367,-28.405315734025166],[29.815649796487715,-28.14901283238953],[29.780731298757217,-27.50823274194317],[29.702403802037352,-27.444153231173875],[29.10299865728504,-27.444153231173875],[28.63451599309763,-27.0596716989751],[28.55966638169369,-27.0596716989751],[28.403854606606465,-26.93150974173178],[28.40082096081719,-26.867428539785227],[28.16748301232775,-26.67518416837745],[27.40578576695872,-26.35477496949432],[27.098869221595013,-26.162528770634864],[26.725465299817383,-26.162528770634864],[26.64819769494135,-26.098446654967027],[26.274851784179738,-26.098446654967027],[26.120541487089117,-25.970282413433782],[25.81712833494828,-25.842118229275517],[25.59325819719283,-25.842118229275517],[25.51628498110032,-25.778036185326304],[25.663149384708017,-25.71395418765791],[25.66080229844324,-25.649872246915898],[25.877506416895375,-25.4576268727022],[26.157111787475667,-24.94498049419324],[26.220309983066258,-24.62458072443195],[26.292501182456284,-24.560501258301837],[26.59013626082095,-24.560501258301837],[26.736677326553526,-24.496421948121473],[27.025126115816356,-24.240106209836366],[27.018390162670975,-24.047870903798877],[27.090487037564454,-23.98379273850992],[27.079487828084638,-23.66340380912548],[27.14941396173806,-23.53524906942121],[27.58831998597033,-23.343017780039336],[27.736770044098254,-23.343017780039336],[28.16871684120824,-22.95855787154706],[28.166515404508196,-22.89448153300515],[28.310425699506094,-22.76632909843204],[28.449918206461923,-22.51002511948063],[28.74635074245042,-22.51002511948063],[28.81823669564496,-22.44594929356539],[28.966435463356806,-22.44594929356539],[29.18198325053253,-22.253722175368708],[29.251576791143187,-22.125571034346688],[29.32787770283864,-22.189646579647775],[29.698201133847004,-22.189646579647775],[29.77456978324401,-22.253722175368708],[29.996789733010825,-22.253722175368708],[30.073209359959826,-22.317797824360962],[30.29545528753183,-22.317797824360962],[30.15202560505155,-22.44594929356539],[30.1544052883958,-22.51002511948063],[29.783864618410174,-22.51002511948063],[29.712092098667885,-22.5741010100733],[29.34150751946037,-22.5741010100733]]],[[[28.003143473229823,-22.44594929356539],[27.93328611847183,-22.5741010100733],[27.575354342494695,-22.95855787154706],[27.429133901189758,-23.022634294728274],[27.2807752292813,-23.022634294728274],[26.769761845568894,-23.278940890883344],[26.62964344670413,-23.53524906942121],[26.642406200002355,-23.919714703495004],[26.570249996545726,-23.98379273850992],[26.574589810368963,-24.11194920221448],[26.425911726611403,-24.11194920221448],[26.353729689469546,-24.176027636609398],[26.130683144706026,-24.176027636609398],[25.984104245981136,-24.240106209836366],[25.767361404008515,-24.43234279103777],[25.773796320114187,-24.62458072443195],[25.633621180757338,-24.88090020551499],[25.638026040715438,-25.009058312379313],[25.493475701520552,-25.137220047757193],[25.425652540655623,-25.329463769688484],[25.353358248589828,-25.393545266119148],[24.980630502064486,-25.393545266119148],[24.827222881749474,-25.26538239405496],[24.66977066746658,-25.009058312379313],[24.5850978287303,-24.688660349365033],[24.50867427508331,-24.62458072443195],[24.498861769301666,-24.304184924748164],[24.4225714412283,-24.240106209836366],[24.407542578018855,-23.727481351569217],[24.479976711090643,-23.66340380912548],[24.470868765283942,-23.343017780039336],[24.54328750392428,-23.278940890883344],[24.53437153658777,-22.95855787154706],[24.606771785556973,-22.89448153300515],[24.60325276595702,-22.76632909843204],[24.67388668625231,-22.638176968195005],[24.965068735137038,-22.44594929356539],[25.03563500166114,-22.317797824360962],[25.18379895337581,-22.317797824360962],[25.256097471318917,-22.253722175368708],[25.552390737674664,-22.253722175368708],[25.696884759534385,-22.125571034346688],[25.695067263581947,-22.06149553661401],[25.843162282094916,-22.06149553661401],[25.91537232612537,-21.997420083598314],[26.359606093885148,-21.997420083598314],[26.431753540827117,-21.933344672448197],[28.282514525845034,-21.933344672448197],[28.574377909576718,-21.805193964339168],[28.796418322650414,-21.805193964339168],[28.87259177249631,-21.869269300312265],[28.73101514309773,-22.06149553661401],[28.585072035216534,-22.125571034346688],[28.288847699249132,-22.125571034346688],[27.998914035954485,-22.317797824360962],[28.003143473229823,-22.44594929356539]]],[[[13.816635762977127,-17.3198932900003],[13.890886141941497,-17.44804729250962],[13.964355337676135,-17.44804729250962],[13.970153960220092,-18.345123109298488],[13.824219885371477,-18.537353017014908],[13.82626655471846,-18.857735594727448],[13.973972738605184,-18.921812013122228],[13.974828935595262,-19.04996474665259],[14.048929176770052,-19.114041060260327],[14.122600424181226,-19.114041060260327],[14.345024011949548,-19.30626977928671],[14.714522402412054,-19.43442206616787],[14.789795415646005,-19.626650192506993],[14.938341508489279,-19.754802065165986],[15.013733506612764,-19.947029541526376],[15.162411791883102,-20.075163143978195],[15.387325752356544,-20.45961521286267],[15.388510528675544,-20.587765659553167],[15.538055145883462,-20.779991180245915],[15.539895910982215,-20.972216590157725],[15.615050309091776,-21.100366839904147],[15.838772939730266,-21.29259223625677],[15.989363170538661,-21.54889292504822],[16.008469194286587,-23.278940890883344],[15.93499042292834,-23.343017780039336],[15.937221423149037,-23.53524906942121],[15.863709591568798,-23.59932638269357],[15.86670916990171,-23.855636795901567],[16.169577134650893,-24.304184924748164],[16.17891585589969,-25.009058312379313],[16.55794551960272,-25.4576268727022],[16.561846825365087,-25.71395418765791],[16.637447490263085,-25.778036185326304],[16.64459693624697,-26.22661086870917],[16.87192535153638,-26.418856950913863],[16.94999052801777,-26.61110249153436],[17.177779442895233,-26.80334720314764],[17.642009630141867,-27.572312011592047],[17.644669231479142,-27.700469784964852],[17.79598991144557,-27.76454826740799],[18.10753911757606,-28.277165020769598],[17.730645315685997,-28.21308910565247],[17.65417723931381,-28.14901283238953],[17.65142894522858,-28.02085925397097],[17.573688893513914,-27.892704370609152],[17.268513813639263,-27.636391029479476],[17.043620337709047,-27.636391029479476],[16.748500157616807,-27.892704370609152],[16.603185783755574,-28.14901283238953],[16.453044147247255,-28.14901283238953],[15.766234186546113,-27.444153231173875],[15.764264768011659,-27.315993528840124],[15.458271331472652,-26.867428539785227],[15.379087248433528,-26.54702072257926],[15.303486394271976,-26.48293887215732],[15.298482007788452,-26.098446654967027],[15.223005384647779,-26.03436453235141],[15.219817974919327,-25.778036185326304],[15.144430853008402,-25.71395418765791],[15.134732560557323,-24.88090020551499],[14.983049465439086,-24.62458072443195],[14.981690609746295,-24.496421948121473],[14.90662804706929,-24.43234279103777],[14.905310716891398,-24.304184924748164],[14.83029849774659,-24.240106209836366],[14.828387400927825,-24.047870903798877],[14.753437207691803,-23.98379273850992],[14.749774843440669,-23.59932638269357],[14.823427462362048,-23.53524906942121],[14.817476833441109,-22.89448153300515],[14.89104775699413,-22.83040527625073],[14.884696496724276,-22.125571034346688],[13.765334592736387,-20.844066325390486],[13.764502385987836,-20.715916022792353],[13.615960128490647,-20.587765659553167],[13.392157295122852,-20.203313977885898],[13.391044855981105,-20.0110876629397],[13.168311352331063,-19.754802065165986],[13.092877153173763,-19.43442206616787],[12.795613863649844,-18.921812013122228],[12.795013333178417,-18.793659142931503],[12.055431377079259,-17.83250887733791],[12.053526646931994,-17.25581626576491],[12.200196469949857,-17.191739227227693],[12.493953334674433,-17.191739227227693],[12.567653388225683,-17.25581626576491],[13.155226806847038,-17.25581626576491],[13.374541325864497,-17.063585110303826],[13.521390053632874,-17.063585110303826],[13.816635762977127,-17.3198932900003]]],[[[30.596934544487354,-16.03835095891893],[30.96348097309333,-16.03835095891893],[31.108098448112997,-15.974273793809521],[31.40742122453028,-16.166505289017127],[31.627391051948656,-16.166505289017127],[31.927024480186194,-16.35873677240257],[32.44700342422951,-16.550968223337307],[32.602666681930536,-16.807276738450582],[32.74945658388653,-16.807276738450582],[32.76317700067011,-17.191739227227693],[32.8389363306625,-17.25581626576491],[32.85064051915916,-17.576201228643633],[32.92886763385003,-17.70435509229038],[32.85774122894915,-17.768431995021043],[32.8696947308454,-18.088816187187767],[32.79854876442893,-18.152892955975926],[32.80819827199012,-18.409199773512146],[32.59466135323703,-18.601429594776093],[32.614083524385606,-19.114041060260327],[32.690206373011435,-19.178117337411198],[32.702508209687515,-19.498498149575816],[32.859896839591215,-19.754802065165986],[32.864884038002984,-19.88295376144181],[32.72479254199741,-20.075163143978195],[32.729763652553565,-20.203313977885898],[32.37299047654891,-20.523690448064983],[32.380384665969515,-20.715916022792353],[32.242485688792684,-20.972216590157725],[32.24743489085486,-21.100366839904147],[31.816118783593524,-21.420742548245222],[31.818578303278695,-21.48481772711926],[31.317762541274416,-21.933344672448197],[30.20730595026367,-21.933344672448197],[30.130964801420074,-21.869269300312265],[29.90889897278647,-21.869269300312265],[29.832606916994347,-21.805193964339168],[29.462539561871516,-21.805193964339168],[29.15994059899877,-21.612968144883382],[29.30573010940146,-21.54889292504822],[29.453689742055488,-21.54889292504822],[29.525463125661183,-21.48481772711926],[29.67340604034619,-21.48481772711926],[29.74515145605522,-21.420742548245222],[29.96704081257719,-21.420742548245222],[30.038749897300985,-21.356667385574816],[30.186659497552967,-21.356667385574816],[30.258340537948186,-21.29259223625677],[30.48018003945923,-21.29259223625677],[30.551824695688058,-21.22851709743982],[30.921515792085778,-21.22851709743982],[31.212530961322937,-21.100366839904147],[31.360374379827494,-21.100366839904147],[31.577338308260405,-20.972216590157725],[31.6464434324615,-20.844066325390486],[31.791810836081506,-20.779991180245915],[31.93957225144694,-20.779991180245915],[32.01102192231909,-20.715916022792353],[32.00374976556826,-20.523690448064983],[31.772647592670175,-20.26738933645788],[31.380213481369022,-19.626650192506993],[30.698631091695123,-19.114041060260327],[30.696397379113062,-19.04996474665259],[30.54464441766463,-18.921812013122228],[30.395157074311417,-18.857735594727448],[30.317158644670908,-18.72958265849834],[30.306326458548085,-18.409199773512146],[30.37559095956754,-18.281046417795253],[30.663326975587534,-18.088816187187767],[30.80170592067879,-17.83250887733791],[31.374364322834033,-17.383970299169874],[31.37218030127809,-17.3198932900003],[31.4456344625262,-17.3198932900003],[31.58814954177181,-17.191739227227693],[31.568731607368395,-16.615045362872205],[31.491141736788745,-16.486891077904726],[31.189485679197084,-16.230582452477876],[31.04080484549967,-16.166505289017127],[30.307572087438444,-16.166505289017127],[30.23231428773183,-16.102428124242806],[29.865732959577286,-16.102428124242806],[29.79053240155423,-16.03835095891893],[29.423985972948255,-16.03835095891893],[29.200425427905394,-15.910196629678596],[29.418487004814295,-15.846119467290187],[29.706136410296978,-15.653887998220181],[30.14574480020353,-15.653887998220181],[30.149487553845102,-15.782042307408297],[30.3750750832069,-15.974273793809521],[30.521679756188124,-15.974273793809521],[30.596934544487354,-16.03835095891893]]],[[[27.848204281704344,-17.383970299169874],[27.98780595199661,-17.12766217515266],[27.982375073169507,-16.935430945340762],[28.053979091990755,-16.871353846754552],[28.343937315135804,-16.743199621192854],[28.49071263704471,-16.743199621192854],[28.63380522064559,-16.615045362872205],[28.707178380313664,-16.615045362872205],[28.710875619908066,-16.743199621192854],[28.641197225588794,-16.871353846754552],[28.353111558238883,-17.063585110303826],[28.354964843132606,-17.12766217515266],[28.142050951798485,-17.383970299169874],[27.848204281704344,-17.383970299169874]]],[[[28.33314477473663,-16.35873677240257],[28.186455807167263,-16.35873677240257],[27.896562194464803,-16.486891077904726],[27.753327304628755,-16.615045362872205],[27.679954144960682,-16.615045362872205],[27.53667304463683,-16.743199621192854],[27.54016322509247,-16.871353846754552],[27.468507819249464,-16.935430945340762],[27.473783504406214,-17.12766217515266],[26.82492658376806,-17.576201228643633],[26.31053636977126,-17.576201228643633],[26.238729466804873,-17.640278169909912],[26.09174565123557,-17.640278169909912],[25.867995481411707,-17.51212426925554],[25.721041990488015,-17.51212426925554],[25.575693206918686,-17.576201228643633],[25.35050758590415,-17.383970299169874],[25.202030756435914,-17.3198932900003],[25.125498517831158,-17.191739227227693],[25.05205930165002,-17.191739227227693],[24.827249548248083,-16.99950803344519],[24.457268023702774,-16.871353846754552],[24.23281939814556,-16.67912249574539],[24.746482177465538,-16.67912249574539],[24.81840091790595,-16.615045362872205],[25.185266716246304,-16.615045362872205],[25.260144956785517,-16.67912249574539],[26.287470515425472,-16.67912249574539],[26.577727485225854,-16.550968223337307],[26.79291061525825,-16.35873677240257],[26.791285349684056,-16.29465961386103],[27.149772277620126,-15.974273793809521],[27.219831053211262,-15.846119467290187],[28.026004902132374,-15.846119467290187],[28.09760059767129,-15.782042307408297],[28.31744562868991,-15.782042307408297],[28.678660871444514,-15.589810850441996],[28.90018769546829,-15.653887998220181],[28.685601687613282,-15.846119467290187],[28.615819007432297,-15.974273793809521],[28.62113674389762,-16.166505289017127],[28.476263993377653,-16.230582452477876],[28.47804521152142,-16.29465961386103],[28.33314477473663,-16.35873677240257]]],[[[14.810715629597766,-11.937442531862713],[14.664846685246644,-11.937442531862713],[14.446629667449828,-12.065595605178165],[14.447523630068497,-12.257825239902806],[14.37486177090946,-12.321901792229205],[14.375763964329693,-12.514131474325252],[14.522352981886156,-12.642284618697813],[14.595341929085548,-12.642284618697813],[14.595665846506003,-12.706361198390002],[14.742328816260903,-12.834514373808446],[14.815333296122768,-12.834514373808446],[14.962781060870158,-13.090820794506195],[14.96351405697264,-13.218974043056715],[15.036925864696775,-13.283050677597963],[15.037683609648447,-13.411203968234696],[14.965007587977997,-13.475280624739085],[14.966152110728608,-13.667510641449773],[14.820376432255818,-13.731587330100686],[14.82113297602284,-13.859740733250254],[14.459296156418121,-14.500508319111088],[14.461191258645226,-14.820892511808985],[14.388387715133526,-14.88496938560128],[14.396000911455724,-16.102428124242806],[14.323097961703695,-16.166505289017127],[14.325190453037678,-16.486891077904726],[14.180118750926573,-16.743199621192854],[14.034146152337595,-16.871353846754552],[14.034954433434663,-16.99950803344519],[13.666042223563155,-16.67912249574539],[13.225759841288887,-16.67912249574539],[13.006514418541027,-16.871353846754552],[12.125687218143971,-16.871353846754552],[12.122592951765267,-15.910196629678596],[12.486781840028833,-15.269425210270429],[12.485682247651985,-14.949046271621551],[12.703878197333085,-14.56458513483038],[12.703200933291615,-14.372354720471712],[12.77611151051595,-14.308277937142723],[12.77520861124139,-14.051970905660767],[12.848090274104129,-13.987894172226502],[12.84719110562819,-13.731587330100686],[12.920044963559064,-13.667510641449773],[12.91893019347944,-13.347127319255804],[13.137139776043524,-13.090820794506195],[13.136910256933696,-13.026744180088023],[13.282712166724574,-12.962667571968643],[13.282474950219529,-12.898590969943598],[13.864379738106791,-12.385978348605448],[13.936812334227824,-12.257825239902806],[13.936283093074753,-12.129672146581731],[14.081639184115062,-12.00151906700664],[14.081104373208088,-11.873365999541937],[14.153496776618926,-11.745212942552039],[14.371699373289118,-11.61705989440136],[14.444050232839702,-11.488906853454312],[14.443497500512498,-11.360753818075317],[14.589282921492712,-11.360753818075317],[14.806788588206317,-11.104447757479145],[15.025112050893949,-11.040371243254535],[15.171163262925607,-11.104447757479145],[15.174049233330106,-11.681136417474018],[15.029190592511986,-11.873365999541937],[14.88333117415754,-11.873365999541937],[14.810715629597766,-11.937442531862713]]],[[[29.45829560166305,-6.23463077198617],[29.531604076857057,-6.29870731986362],[29.53300257088098,-6.4268604148122925],[29.753034539501652,-6.619090054412705],[29.753764428451685,-6.683166599978275],[30.267601601204113,-7.13170239986295],[30.26919234587885,-7.259855477799195],[30.56566503376813,-7.708391214429498],[30.349325822380823,-7.836544269935098],[30.2039524273653,-7.836544269935098],[30.132117019398848,-7.900620795401714],[29.84135793457696,-7.900620795401714],[29.769510095281145,-7.964697319272469],[29.187967159239406,-7.964697319272469],[29.114460222522247,-7.900620795401714],[28.678321595289415,-7.900620795401714],[28.389134364987765,-8.02877384149356],[28.24374239485614,-8.02877384149356],[28.028007410028938,-8.221003397720851],[28.034534709259383,-8.73361546166057],[27.963487065564888,-8.861768455768694],[27.746958810266236,-8.98992144026527],[27.749535710787416,-9.182150898046954],[27.60488762891441,-9.246227378702127],[27.39008344291411,-9.502533273527826],[27.31730923172652,-9.502533273527826],[27.10161335610423,-9.694762663955924],[27.103395699731546,-9.822915575486121],[27.031499527390274,-9.886992026463254],[27.035150342580092,-10.143299946978411],[26.818553331280803,-10.271453011035616],[26.450875613301573,-10.01514687131563],[26.30182051197913,-9.758839121299077],[26.15457028110863,-9.630686203510464],[25.856336852584548,-9.053997928774725],[25.999544378888555,-8.861768455768694],[26.144262081449877,-8.797691959889175],[26.142015746209122,-8.605462458371306],[26.430677742505978,-8.413232937164317],[26.573171689552414,-8.156926880771554],[26.571734738342464,-8.02877384149356],[26.643008001536213,-7.900620795401714],[26.859656458822943,-7.772467742926427],[26.856875090081925,-7.516161620547195],[26.99949222612917,-7.259855477799195],[26.99815809049759,-7.13170239986295],[27.06949154047699,-7.003549318125761],[27.357456309619703,-6.747243144970222],[27.646698243434614,-6.619090054412705],[28.51828567628994,-6.619090054412705],[28.734812523299492,-6.490936961775913],[28.880066473529546,-6.490936961775913],[29.095889188776155,-6.29870731986362],[29.09321156945481,-6.04240112738699],[29.16516025771349,-5.978324579044329],[29.158190863492848,-5.2734825603128845],[29.230160664658396,-5.209406015739594],[29.227760427056804,-4.953100447421409],[29.30152562615131,-5.081252928638299],[29.302738422107012,-5.209406015739594],[29.523611595275128,-5.529788744168286],[29.527524466778868,-5.91424803071987],[29.45558611349818,-5.978324579044329],[29.45829560166305,-6.23463077198617]]],[[[31.233672657601787,1.518631125954414],[31.161192747204552,1.518631125954414],[30.87053216341683,1.3264014926065528],[30.79761297380125,1.198248404839631],[30.797212383541694,1.0700953178776007],[30.86932701964536,0.9419422316343782],[30.651594133436628,0.8137891460238801],[30.578852994213598,0.6856360609600228],[30.578447768711317,0.429329892127898],[30.50597809109768,0.429329892127898],[30.28838723923144,0.2371002662984917],[30.288349604618244,0.17302372444933642],[30.07094292340711,0.17302372444933642],[29.853503851945078,-0.08328244276432976],[29.853655435930392,-0.33958861020176606],[29.926191017321088,-0.40366515217679255],[29.92635670098324,-0.5318182363409695],[29.781514870442074,-0.5958947785516406],[29.78174396451399,-0.7240478632839505],[29.926818051388153,-0.7881244058271102],[29.926959900211582,-0.8522009485026202],[29.709272591961415,-0.7240478632839505],[29.346798504779834,-0.6599713208623808],[29.27422113765427,-0.5958947785516406],[29.273773871535752,-0.14735898457580923],[29.491191773510764,0.17302372444933642],[29.491908693026954,0.7497126034290014],[29.637283432209987,0.9419422316343782],[29.63780616770069,1.1341718612633847],[29.783157098043066,1.2623249486171004],[29.78337210363588,1.3264014926065528],[30.146474001643274,1.518631125954414],[30.292527804402123,1.7749373073721266],[30.728367523108858,1.9671669465274497],[30.874016442222214,2.095320040931471],[30.877064332298335,2.607932433483145],[30.948748839904756,2.479779332932721],[31.309311182381247,2.1593965886559054],[31.307933810178852,1.903090399826342],[31.380097647118635,1.8390138534448202],[31.379482167946588,1.7108607615974996],[31.233672657601787,1.518631125954414]]],[[[30.519019579039654,3.248697964234072],[30.15889214598198,3.5690807493953876],[30.087389650366983,3.6972338675801026],[30.088968618874915,3.8894635495406775],[30.162042693615124,3.953540111486177],[30.30657055282744,3.8894635495406775],[30.666564251497995,3.5690807493953876],[30.811613424502575,3.5690807493953876],[30.73805971364288,3.440927633608108],[30.736083234240393,3.184621408881522],[30.519019579039654,3.248697964234072]]],[[[20.577065759078927,12.347566537432401],[21.890448366557905,12.347566537432401],[22.11184901646741,12.539796224812424],[22.184829802188897,12.539796224812424],[22.183145352545345,12.411643095488081],[22.398693229524994,12.155336887237947],[22.397043386832074,12.027183805040977],[22.4691628446095,11.963107268708946],[22.46355869864109,11.514571584276666],[22.75279509654947,11.322342031431731],[22.751235947002343,11.194189000845304],[22.241068214384526,11.194189000845304],[21.80165262045717,11.001959457842005],[20.56289730722567,11.001959457842005],[20.270210862891783,10.873806428705477],[19.90591414841355,10.873806428705477],[19.76077065350756,10.937882943456804],[19.543889655710437,11.130112486331805],[19.472163367727816,11.258265515810463],[19.474510767709425,11.514571584276666],[19.40279520209976,11.64272462653538],[19.185826241213718,11.834954204555544],[19.042951713111172,12.155336887237947],[19.336648852015458,12.347566537432401],[19.409614552430952,12.347566537432401],[19.631174358325765,12.603872796489991],[19.776463873379775,12.539796224812424],[20.141367801987222,12.539796224812424],[20.577065759078927,12.347566537432401]]],[[[23.335097279786986,11.258265515810463],[23.188522574960466,11.194189000845304],[23.191769466086193,11.450495065460384],[22.903433809080994,11.706801150386704],[22.90763175362862,12.027183805040977],[22.835541836582685,12.091260344482494],[22.838128940034736,12.283489983508453],[22.55149085517877,12.667949373117082],[22.55327038549172,12.796102542037648],[22.409048833449084,12.924255733209721],[22.923911130272135,13.18056218885081],[23.289077081403242,13.18056218885081],[23.43415200474751,13.116485565267293],[23.720316398880477,12.73202595489815],[23.703782968091268,11.578648104566849],[23.409633161809673,11.386418547913554],[23.335097279786986,11.258265515810463]]],[[[22.63036317359467,17.28148120061837],[22.626521348661853,17.08925006114913],[22.178650603752153,16.70478747031208],[21.88511739048938,16.70478747031208],[21.451684057326247,17.08925006114913],[21.45516841886331,17.28148120061837],[21.38287984596657,17.345558218911133],[21.392286946283036,17.858173747691474],[21.467002194098022,17.922250600133896],[21.4706112770183,18.114481020918653],[21.9194723481761,18.498941179289265],[22.21385404452827,18.498941179289265],[22.64739032673671,18.114481020918653],[22.643410985155697,17.922250600133896],[22.71560864152361,17.858173747691474],[22.70510881768317,17.345558218911133],[22.63036317359467,17.28148120061837]]],[[[33.37360859351461,-19.69072615050245],[33.29986537286828,-19.69072615050245],[33.14230932557444,-19.43442206616787],[33.12728618367731,-19.04996474665259],[33.051138181274,-18.985888397351918],[33.04123620783752,-18.72958265849834],[33.254652530785094,-18.537353017014908],[33.24477678341326,-18.281046417795253],[33.315881267183926,-18.21696969976641],[33.9043700048029,-18.21696969976641],[34.135283909176295,-18.47327640967227],[33.99834454084201,-18.72958265849834],[34.00349323191166,-18.857735594727448],[33.729423327409734,-19.37034594248354],[33.37360859351461,-19.69072615050245]]],[[[35.763793489673034,-16.935430945340762],[35.703356746441614,-17.25581626576491],[35.56429888365993,-17.44804729250962],[35.56956022171367,-17.576201228643633],[35.80610269680276,-17.96066257767433],[35.73526957281594,-18.02473939416591],[35.74068210772799,-18.152892955975926],[35.59627512545745,-18.21696969976641],[35.52002210698056,-18.152892955975926],[35.29936210623313,-18.152892955975926],[34.99989089877684,-18.02473939416591],[34.84761218490952,-17.896585738477004],[34.8347170588611,-17.576201228643633],[34.68013936139312,-17.383970299169874],[34.67009777067176,-17.12766217515266],[34.366574028169666,-16.871353846754552],[34.356911674755054,-16.615045362872205],[34.4254923835838,-16.486891077904726],[34.57220991592355,-16.486891077904726],[34.72866381817313,-16.743199621192854],[34.95628780494154,-16.935430945340762],[35.10562584807039,-16.99950803344519],[35.25245979521071,-16.99950803344519],[35.465069770072304,-16.807276738450582],[35.53340054318508,-16.67912249574539],[35.52090418563576,-16.35873677240257],[35.589304629174535,-16.230582452477876],[35.66263494500749,-16.230582452477876],[35.8752031164133,-16.03835095891893],[36.08045806394204,-15.653887998220181],[36.07565994494489,-15.52573370822641],[36.14891453053053,-15.52573370822641],[36.378430099372764,-15.782042307408297],[36.380897518223904,-15.846119467290187],[36.173434151928255,-16.166505289017127],[36.11274400549095,-16.486891077904726],[35.90802162886452,-16.871353846754552],[35.763793489673034,-16.935430945340762]]],[[[35.08817759678114,-16.550968223337307],[35.007492799142966,-16.35873677240257],[34.70460649121721,-16.102428124242806],[34.70225454487421,-16.03835095891893],[35.19891732804699,-15.589810850441996],[35.19660491791708,-15.52573370822641],[35.33849778613852,-15.39757944353911],[35.631462754557404,-15.39757944353911],[35.6384851790539,-15.589810850441996],[35.50143513758269,-15.846119467290187],[35.14690829064254,-16.166505289017127],[35.151747273573584,-16.29465961386103],[35.08083728292765,-16.35873677240257],[35.08817759678114,-16.550968223337307]]],[[[32.14403363871387,-13.859740733250254],[32.00134289542691,-13.987894172226502],[31.6393005592952,-14.11604764866507],[31.50010310325469,-14.372354720471712],[31.50368355573485,-14.500508319111088],[31.578647793223393,-14.56458513483038],[31.724963836602385,-14.56458513483038],[32.013908396493434,-14.436431514393016],[32.15653173964853,-14.308277937142723],[32.22966540089054,-14.308277937142723],[32.372272150973394,-14.180124401443859],[32.37963724208292,-14.436431514393016],[31.807439485804952,-14.88496938560128],[31.661060899496782,-14.88496938560128],[31.437796172770515,-14.756815650040204],[31.2182661502296,-14.756815650040204],[31.143282277817836,-14.692738800090481],[31.214649888925255,-14.62866196175536],[31.21107604673371,-14.500508319111088],[31.136159167078667,-14.436431514393016],[30.47784724501759,-14.436431514393016],[30.25505654735628,-14.308277937142723],[30.324864634957926,-14.180124401443859],[30.316723442227474,-13.859740733250254],[30.386616231207125,-13.731587330100686],[30.6042567355244,-13.667510641449773],[30.961627546219738,-13.347127319255804],[31.17918146352771,-13.283050677597963],[31.391987431329962,-13.026744180088023],[31.755506988737572,-12.962667571968643],[31.826944607674985,-12.898590969943598],[31.972964053796677,-12.898590969943598],[32.04439054352242,-12.834514373808446],[32.33640846296987,-12.834514373808446],[32.48403211522262,-12.898590969943598],[32.48893739520584,-13.090820794506195],[32.64001907428164,-13.283050677597963],[32.65212530992773,-13.731587330100686],[32.432882495858,-13.731587330100686],[32.14403363871387,-13.859740733250254]]],[[[38.2757883339382,-8.02877384149356],[38.12918980088118,-7.964697319272469],[37.907570613334755,-7.772467742926427],[37.68836538056699,-7.708391214429498],[37.61228002974984,-7.516161620547195],[37.3182960855824,-7.323932015207461],[37.31721260400594,-7.259855477799195],[37.16976012380677,-7.13170239986295],[37.09710582356884,-7.13170239986295],[36.80338843945664,-6.939472775966319],[36.44015895078894,-6.939472775966319],[35.86299401130684,-7.195778939333093],[35.06376545734776,-7.195778939333093],[34.99013111666909,-7.13170239986295],[34.77216821595532,-7.13170239986295],[34.70047975100273,-7.195778939333093],[34.26453690338869,-7.195778939333093],[33.975803395267754,-7.323932015207461],[33.83047762612364,-7.323932015207461],[33.46999569487774,-7.516161620547195],[33.17930907488672,-7.516161620547195],[32.890497232698436,-7.644314684498115],[31.509622691336375,-7.644314684498115],[31.436064076722186,-7.580238153186079],[30.92734173277237,-7.580238153186079],[30.63007210175269,-7.067625859442574],[30.628487132105743,-6.939472775966319],[30.554284178095454,-6.811319689334747],[30.4082385673758,-6.747243144970222],[30.11472505048504,-6.490936961775913],[30.113997352164017,-6.4268604148122925],[29.89399505470885,-6.23463077198617],[29.889868552946147,-5.850171482467414],[30.037128119399448,-6.04240112738699],[31.1262626001048,-6.04240112738699],[31.56417629138442,-6.23463077198617],[31.927259168922593,-6.23463077198617],[31.998333329547282,-6.106477675694052],[32.94228262606686,-6.106477675694052],[33.01409569999409,-6.04240112738699],[33.23192259613516,-6.04240112738699],[33.52074336065665,-5.91424803071987],[33.66595132043402,-5.91424803071987],[33.88214589484727,-5.786094934340767],[34.0999430846827,-5.786094934340767],[34.24352184909348,-5.6579418386801],[34.53228238281033,-5.529788744168286],[35.475944994954645,-5.529788744168286],[35.547701410944214,-5.4657121974777025],[35.76546260567018,-5.4657121974777025],[35.83721292849555,-5.4016356512357415],[35.835556444887835,-5.2734825603128845],[35.61539379731403,-5.081252928638299],[35.469455227022706,-5.017176386217898],[35.32431334662604,-5.017176386217898],[35.10505461361147,-4.88902387389377],[35.10353014295716,-4.760870729290783],[35.247143700505994,-4.632717587885789],[35.24347308863734,-4.312334747799594],[35.46039345154544,-4.2482581819979215],[35.81956661075195,-3.9278753634755548],[35.9639443616809,-3.863798801792958],[36.10901077292717,-3.863798801792958],[36.32522926650784,-3.73564568036356],[36.470288067408674,-3.73564568036356],[36.542133194344785,-3.6715691205952368],[36.75971578627484,-3.6715691205952368],[36.830884718358675,-3.543416002897541],[36.903408576711286,-3.543416002897541],[37.049825908848234,-3.6715691205952368],[37.26740850077829,-3.6715691205952368],[37.41107558517956,-3.543416002897541],[37.40905923438474,-3.3511863307869634],[37.0439401018196,-3.0948801091347256],[37.04333191939946,-3.0308035550478825],[36.824049599232104,-2.8385738957981035],[36.75154421620062,-2.8385738957981035],[36.60542410360648,-2.7104207920329393],[36.60488456624425,-2.646344240838483],[36.45884034386124,-2.518191139772017],[36.313341459048274,-2.4541145898784875],[36.02335486701505,-2.4541145898784875],[35.95037271780984,-2.390038040397079],[35.80538213439789,-2.390038040397079],[35.65992187406302,-2.325961491317032],[35.43986926682196,-1.941502204662749],[36.3123675571092,-2.325961491317032],[36.8229311834704,-2.7104207920329393],[37.11407113135803,-2.8385738957981035],[37.26025891988317,-2.9667270014700047],[37.47839263093793,-3.0308035550478825],[37.55152234680072,-3.0948801091347256],[37.55476298124279,-3.415262887580041],[37.62864716023739,-3.543416002897541],[38.505696278367935,-4.120105052524054],[38.54365792139205,-6.747243144970222],[38.617368020751655,-6.811319689334747],[38.622846128565214,-7.13170239986295],[38.772703083986606,-7.3880085515040825],[38.78466022939888,-8.02877384149356],[38.2757883339382,-8.02877384149356]]],[[[37.54350755250941,2.1593965886559054],[37.54259355885469,2.0312434935589065],[37.75796778448628,1.7108607615974996],[37.75721941453144,1.5827076708994035],[37.97300720684067,1.2623249486171004],[37.97244052918348,1.1341718612633847],[38.04465253991526,1.0700953178776007],[38.04272505461903,0.3652533501270121],[38.11511044269862,0.3011768081874635],[38.114954121779704,0.10894718262923714],[38.40513068030772,-0.40366515217679255],[38.406024528238845,-0.7881244058271102],[38.478699102314856,-0.8522009485026202],[38.500376521715246,-3.6715691205952368],[37.988539491692926,-3.287109774556654],[37.98534405736554,-2.9667270014700047],[37.61989702152653,-2.646344240838483],[37.03780209339952,-2.390038040397079],[36.45468222637054,-1.941502204662749],[36.09146050877337,-1.8133491118344038],[36.526367205135784,-1.8133491118344038],[36.742698617264594,-1.6211194748488635],[36.739171972960506,-0.7881244058271102],[36.52102480872476,-0.4677416942196069],[36.52065902626422,-0.14735898457580923],[36.37570289952603,0.10894718262923714],[36.3757856051635,0.2371002662984917],[36.303380346240075,0.3011768081874635],[36.30355230018878,0.429329892127898],[36.23119025222138,0.49340643420088154],[36.23144864845581,0.6215595186061835],[36.01492082599309,0.9419422316343782],[36.0158703971122,1.198248404839631],[35.94366381705011,1.2623249486171004],[35.944240349036775,1.3904780368187488],[35.72809686637302,1.646784216110179],[35.655615069100556,1.646784216110179],[35.36714812348329,1.903090399826342],[35.36967262109768,2.2875496852034205],[35.297636274973954,2.351626234048023],[35.29906825068713,2.543855882994337],[35.083602973878676,2.8001620876203237],[35.372065675020394,2.607932433483145],[35.80706580496124,2.607932433483145],[36.098665490719355,2.8001620876203237],[36.316178887185224,2.8001620876203237],[36.53599898554804,3.056468299770048],[36.60850975419969,3.056468299770048],[36.75475153451959,3.184621408881522],[36.82852616397004,3.31277452013218],[36.83183258467905,3.6331573081826853],[36.979696527371544,3.8894635495406775],[36.98114974508656,4.017616674095598],[37.19876339981529,4.017616674095598],[37.341641918387545,3.8253869882483382],[37.33882620970853,3.5690807493953876],[37.41066629499409,3.505004191207448],[37.40048255020338,2.4157027832875366],[37.54350755250941,2.1593965886559054]]],[[[34.86312844973717,2.4157027832875366],[34.861781622966284,2.223473136742968],[34.93384395571157,2.1593965886559054],[34.569073068878915,1.7749373073721266],[34.35127660292531,1.7108607615974996],[34.13286907349115,1.518631125954414],[34.05980818273237,1.3904780368187488],[33.914580330803496,1.3264014926065528],[33.913835970548384,1.1341718612633847],[33.623306803324425,0.9419422316343782],[33.550833651122346,0.9419422316343782],[33.47800417284357,0.8137891460238801],[33.47855687545051,1.0060187746715186],[33.406510400719,1.1341718612633847],[33.117592099580165,1.3904780368187488],[33.045670417532634,1.518631125954414],[33.046270367291676,1.646784216110179],[32.97410357208151,1.7108607615974996],[32.97583381116823,2.0312434935589065],[33.048699558637736,2.095320040931471],[33.05073266368988,2.4157027832875366],[33.12366482228323,2.479779332932721],[33.12456500365937,2.607932433483145],[33.19800409431636,2.7360855357853775],[33.49002343050371,2.9923917459896052],[33.56253258391702,2.9923917459896052],[33.70861553180704,3.1205448540637675],[33.78112794140749,3.1205448540637675],[34.072861803049335,3.31277452013218],[34.29041425259571,3.31277452013218],[34.36235524161819,3.248697964234072],[34.36122721821109,3.1205448540637675],[34.4326424248768,2.9923917459896052],[34.648576180946954,2.8001620876203237],[34.86312844973717,2.4157027832875366]]],[[[31.243193605391752,3.1205448540637675],[31.171661484005817,3.248697964234072],[31.24518978540074,3.376851076586605],[31.247298211225566,3.6331573081826853],[31.754983154266785,3.6331573081826853],[32.04398091109509,3.505004191207448],[32.334072012927464,3.505004191207448],[32.625879341926385,3.6972338675801026],[32.552203500557496,3.5690807493953876],[32.1868822250643,3.248697964234072],[32.041336600566005,3.184621408881522],[31.82379437284507,3.184621408881522],[31.7507804725949,3.1205448540637675],[31.243193605391752,3.1205448540637675]]],[[[31.979731633034092,4.40207606429707],[32.05164916255329,4.337999497478149],[32.196745169227086,4.337999497478149],[32.48441592218913,4.081693237379702],[32.19245398041599,3.8894635495406775],[31.903497801416048,4.017616674095598],[31.178118952320254,4.017616674095598],[31.105009667419576,3.953540111486177],[30.81486598317205,3.953540111486177],[30.671490345055954,4.145769801349249],[30.598948471553566,4.145769801349249],[30.455011576075893,4.273922931387712],[30.746380198450595,4.40207606429707],[30.964030451612395,4.40207606429707],[31.037189261584746,4.466152631855238],[31.690158915197543,4.466152631855238],[31.762081379872303,4.40207606429707],[31.979731633034092,4.40207606429707]]],[[[43.83192976811065,13.693175439117837],[43.83722051232104,13.821328831847534],[44.0645970636654,14.013558987709025],[44.35702250205596,14.013558987709025],[44.56811006555917,13.821328831847534],[44.56270504039976,13.693175439117837],[44.33553830790337,13.500945412701153],[44.043295729505786,13.500945412701153],[43.83192976811065,13.693175439117837]]],[[[44.377124911618886,15.999938783253164],[44.08390444692298,15.999938783253164],[43.94051713817258,16.06401594854019],[43.73352750660821,16.32032460113264],[43.753341778566075,16.70478747031208],[43.987034036348106,16.961095905317237],[44.137288551828775,17.025172989009086],[44.43096827470833,17.025172989009086],[44.57433447643408,16.961095905317237],[44.780708024985785,16.70478747031208],[44.760290656767395,16.32032460113264],[44.527013760110115,16.06401594854019],[44.377124911618886,15.999938783253164]]],[[[54.45228240357801,17.537789178502432],[54.14027253482927,17.28148120061837],[53.98889877283551,17.217404167717778],[53.32791895616565,17.217404167717778],[53.18542679661004,17.28148120061837],[52.90920712198747,17.537789178502432],[52.918070935860904,17.66594306451749],[53.230039552655136,17.922250600133896],[53.38163091098491,17.98632743032855],[54.043430118913456,17.98632743032855],[54.185871695389494,17.922250600133896],[54.461464972632584,17.66594306451749],[54.45228240357801,17.537789178502432]]],[[[40.20887700580094,20.67750504364005],[39.83953868786918,20.67750504364005],[39.62775630012495,20.86973050303464],[39.560422087930306,20.997880762967085],[39.56700437155799,21.126031012446806],[39.496372068520415,21.190106140395038],[39.51294460450268,21.51048192627037],[39.59362121755392,21.638632362040212],[39.90323477704838,21.89493356718507],[40.27336149210258,21.89493356718507],[40.555511486048985,21.638632362040212],[40.62256664784918,21.51048192627037],[40.59854487960816,21.061955887587906],[40.51784472707195,20.93380563573308],[40.20887700580094,20.67750504364005]]]]}}
