{"type":"Feature","properties":{"id":"kronenadler","sourceUrl":"https://commons.wikimedia.org/wiki/File:Stephanoaetus_coronatus_distribution_map_big.png","license":"Public domain","author":"Jonathan Hornung","sourceImageSha256":"88755a2e32a554e51cda30d75a77dd9d83a1076a65abea415de55ca341e6c47a","registration":{"proj_string":"+proj=robin +R=1 +lon_0=10","parameters_1000px":[207.01952674768415,-197.5990576372553,440.0571535656889,266.11563996032544],"coast_rmse_capped15_px":3.229429006576538,"coast_median_px":0.17608848214149475,"coast_p90_px":2.5705909729003906,"sample_count":12160,"image_width":1357,"image_height":628,"pixel_transform_native":[280.9254977966074,-268.14192121375544,597.1575573886398,361.11892342616164],"transform_definition":"pixel_x=sx*projected_x+tx; pixel_y=sy*projected_y+ty","validation":"Odd coastline samples withheld from affine fit. Normalized to 1000px width.","controls":[[-5.6,36,532,198],[20,-34.8,639,517],[77.55,8.08,877,323],[51.3,12,768,308],[-67,-55.95,310,607],[-124.7,48.4,102,146],[139.7,35.7,1095,212]],"all_fits":[{"proj_string":"+proj=robin +R=1 +lon_0=0","parameters_1000px":[206.6132722389038,-196.8258798409517,411.6799598938203,266.1323296473442],"coast_rmse_capped15_px":3.5434017181396484,"coast_median_px":0.7439357042312622,"coast_p90_px":4.109078407287598,"sample_count":12052},{"proj_string":"+proj=robin +R=1 +lon_0=20","parameters_1000px":[207.1436405966848,-197.63672513080837,468.0326797702481,266.0590361725288],"coast_rmse_capped15_px":3.776548147201538,"coast_median_px":0.7658945322036743,"coast_p90_px":4.468121528625488,"sample_count":12247},{"proj_string":"+proj=robin +R=1 +lon_0=-10","parameters_1000px":[205.64088226137332,-196.28530183127597,383.21182544339274,266.2132143918492],"coast_rmse_capped15_px":4.05885648727417,"coast_median_px":1.160869836807251,"coast_p90_px":6.029292583465576,"sample_count":11779}],"status":"reviewed","coastlineReference":"Natural Earth 1:110m (world-registration-110m.geojson)"},"includedColors":["#00c400"],"adaptation":"Inverse global map projection; current seasonal/subspecies colors combined; explicitly reviewed legends/arrows omitted; 3px border closing; contours simplified by 0.45 source pixels; components below 4 source pixels omitted; split at the antimeridian.","licenseUrl":"https://commons.wikimedia.org/wiki/Commons:Public_domain","originalFileSha256":"88755a2e32a554e51cda30d75a77dd9d83a1076a65abea415de55ca341e6c47a","sourceImagePath":"data/ranges/reference-originals/kronenadler.png"},"geometry":{"type":"MultiPolygon","coordinates":[[[[3.6952005786049065,7.810552340481863],[4.418295552006352,7.810552340481863],[4.658538633986655,8.032955226106658],[6.828143859460074,8.032955226106658],[7.06964378781165,7.810552340481863],[8.274802076814058,7.810552340481863],[8.516047496812734,7.58814943654264],[8.998041381571335,7.58814943654264],[9.480179599454274,7.14334358271968],[9.962039691132702,7.14334358271968],[10.443840410202965,6.920940637335326],[10.684561679898062,6.476134720869346],[11.16623309670143,6.476134720869346],[11.647499843104802,6.031328785138304],[13.572078772051562,5.141716927871335],[14.053411779775983,5.141716927871335],[15.01399754527905,4.252105436816477],[15.494601808003779,4.029702411845563],[18.14058065170164,4.029702411845563],[19.82095306312705,3.1400903889867307],[20.542331543590066,3.1400903889867307],[21.022397405640717,2.9176874002785254],[21.741312693350316,2.2504784677704763],[22.9432706694057,2.2504784677704763],[23.182889758967285,2.0280754999735158],[26.30779737989581,2.0280754999735158],[26.547291462036572,1.8056725362795178],[27.268385492159176,1.8056725362795178],[27.987854735913476,1.3608666194006496],[29.670255506893685,1.3608666194006496],[30.14910196427398,0.693657763606076],[30.87006504705315,0.693657763606076],[31.110009776615204,0.4712548150811223],[31.59064326423375,0.4712548150811223],[32.072878907997875,1.1384636653159002],[32.07567902630986,1.8056725362795178],[32.79677305643246,1.8056725362795178],[34.24487598428407,2.6952844174730406],[34.24664600098082,2.9176874002785254],[34.72944165936282,3.1400903889867307],[34.73357563024496,3.584896385911064],[35.219171370115106,4.029702411845563],[35.22159996774551,4.252105436816477],[36.161878530337944,1.8056725362795178],[37.11906977636775,0.9160607135343557],[37.359396635205506,0.9160607135343557],[37.83887860327491,0.4712548150811223],[39.280403079669085,-0.19595402657317626],[40.00134405357252,-0.19595402657317626],[40.24194716870163,-0.41835697398421834],[40.72257908494785,-0.41835697398421834],[41.44805971877115,-1.5303717327337638],[40.016693823101264,-2.8647895503527474],[39.780931767100235,-3.309595531125353],[38.578559981663226,-3.309595531125353],[38.09534649027739,-3.087192537616228],[38.093200934289754,-2.8647895503527474],[36.64104769864539,-1.5303717327337638],[36.4006970976391,-1.5303717327337638],[35.43604169025444,-0.6407599222416304],[34.95540195703036,-0.6407599222416304],[33.99343844492239,0.02644892044143583],[33.272499398840026,0.02644892044143583],[32.55191023947086,0.4712548150811223],[31.83096000804303,0.4712548150811223],[31.59040184382,0.2488518675095554],[31.590572676269634,-0.41835697398421834],[32.795438082544784,-1.5303717327337638],[32.79650158716872,-1.752774691972115],[33.27843838957159,-1.9751776547564714],[33.52163064391222,-2.4199835927629607],[33.762033786108326,-2.4199835927629607],[35.945259590082244,-4.421610608103544],[36.429118005015404,-4.64401364853528],[36.91033669201285,-4.64401364853528],[37.64104585305384,-5.311222040871944],[38.363105883070645,-5.311222040871944],[38.84771787565828,-5.533625002896299],[38.61029314384268,-5.756027969638259],[38.627988429996265,-6.868042795372746],[38.87271796584908,-7.090445743176706],[38.893410400548575,-8.202460271748638],[40.404506091297776,-10.87129570656402],[40.417193912920766,-11.316101412126585],[40.18200149509686,-11.538504275824467],[40.216895490502736,-12.650519045433683],[40.46645230296096,-12.87292214942158],[40.49819938951788,-13.76253535055758],[40.74898643887947,-13.9849388898827],[40.766394103482284,-14.429746315225836],[40.094017751640365,-15.764167267288313],[39.160859290657655,-16.65378759738298],[37.00874423070995,-17.543406554370673],[36.540549865713785,-17.988214879019885],[36.32571909273243,-18.655425204911293],[34.68186355519634,-20.212216502954778],[34.455740095019735,-20.657013528905537],[34.48405930231741,-21.324207759283],[34.0029899950197,-21.54660596402378],[34.02201677276071,-21.99140328077281],[33.78606179913848,-22.21380263123433],[33.912126556329255,-24.882677329669722],[32.94719130623589,-25.327510744449956],[32.48787004901481,-25.99477509081488],[32.57726945654136,-27.551708792238948],[32.853657616114766,-27.996526742165575],[32.36994618017865,-28.218930117253862],[31.42948409248376,-29.108495908344782],[31.223238766538064,-29.775607711750588],[28.164239579233897,-32.888452962791106],[27.911405197230835,-32.888452962791106],[27.19611584733679,-33.55568760476546],[25.221094135084556,-34.44560296627701],[24.699445385040136,-34.223090282027236],[23.937058214577537,-34.223090282027236],[24.67395135164913,-33.77813427079117],[24.889749177582342,-33.11084861590628],[25.370427915723802,-32.66607098569193],[26.11520292961118,-32.44370102227205],[28.04972851137917,-31.109640535568623],[28.300968973914962,-31.109640535568623],[29.24922881019476,-30.22029690815036],[29.656138419520126,-28.663723443863308],[30.36530288965979,-27.996526742165575],[30.340479919978833,-27.551708792238948],[30.56470469681779,-27.10687887526609],[31.049047935149392,-26.88446054159447],[31.025401892744824,-26.439619349194352],[30.766207546522562,-26.21719738068535],[30.712360832714097,-25.10509162050083],[29.933135111806447,-24.215439010812332],[29.906306090677255,-23.548215934982828],[29.65152451470115,-23.325811073742013],[29.571921612913616,-21.101809697998625],[30.031486239802934,-20.212216502954778],[30.505447059149404,-19.767434522234783],[30.750018262235635,-19.767434522234783],[31.45946461454019,-19.100230275431084],[31.703759558722044,-19.100230275431084],[32.64731626146994,-18.210618641073005],[32.62272219168505,-17.543406554370673],[32.85825309074812,-17.321002055665733],[32.78238549072826,-15.096952348569447],[31.058133556985517,-14.20734254192241],[30.33067358728296,-14.20734254192241],[29.834700292611068,-13.76253535055758],[28.613038235582422,-13.31772857585474],[28.361453516084797,-12.87292214942158],[27.872842956918227,-12.650519045433683],[27.388762465405108,-12.650519045433683],[26.896609733086546,-12.205713013170602],[26.170835729429136,-12.205713013170602],[25.925231570574432,-11.983310067797627],[19.87851195516835,-11.983310067797627],[19.392652178831405,-11.760907158198533],[16.960619958142487,-9.536876946090846],[16.719287417347175,-9.536876946090846],[16.234473883807475,-9.092071507087402],[15.751975075349886,-9.092071507087402],[14.299829042383074,-7.535251603444127],[12.853108615729633,-7.090445743176706],[11.886586737970537,-4.199207576617095],[9.721736939428405,-2.197580621536774],[9.241110287430853,-1.3079687765914791],[9.481508631467836,0.2488518675095554],[9.962133572870844,1.1384636653159002],[9.962110739067448,3.3624933840475966],[8.999730674536075,4.474508470389751],[8.036960689396997,4.919314565143158],[6.8337578082645125,4.919314565143158],[6.593475548668179,4.6969115130153325],[5.871629747626556,4.6969115130153325],[5.870295242751002,5.364119884789447],[5.628603348531468,5.808925815672628],[5.14594372540121,6.253731754287108],[3.698701425109496,6.920940637335326],[3.216905783317105,6.920940637335326],[2.976924633486969,6.698537682635316],[2.2543254864216546,6.698537682635316],[1.2930512892695276,6.253731754287108],[1.2919690522324032,6.476134720869346],[1.7736404690357688,6.476134720869346],[2.4921790363807297,7.365746516538681],[2.9731178220888186,7.58814943654264],[3.45511170684742,7.58814943654264],[3.6952005786049065,7.810552340481863]]],[[[-14.795315097752475,14.92745238233725],[-14.545255598120608,14.705048306691236],[-13.574680339810659,14.705048306691236],[-13.325197489994697,14.482644371440783],[-12.59747941592628,14.482644371440783],[-12.348485714719438,14.260240568036643],[-11.863479680532286,14.260240568036643],[-10.628434116341861,13.370626501899954],[-9.64941133571925,12.92582003763245],[-5.775581325459289,12.92582003763245],[-5.749940293739268,11.368999231967177],[-5.988268403889716,11.146596376762728],[-5.981716257506035,10.701790668640479],[-5.73703183103577,10.47938779862501],[-5.725300996606897,9.589774723702783],[-4.99112739611132,8.700163750597621],[-4.508768435240983,8.700163750597621],[-3.537747773357371,8.032955226106658],[-3.518259761920419,5.586522848139776],[-5.201584893242744,5.364119884789447],[-5.440575033063109,5.141716927871335],[-6.162574544649743,5.141716927871335],[-7.121594671122665,4.6969115130153325],[-9.291239094858486,5.141716927871335],[-10.263167770479235,6.031328785138304],[-10.50394433766148,6.031328785138304],[-12.698303169800695,8.032955226106658],[-13.206924777976678,9.589774723702783],[-14.190327751890578,10.47938779862501],[-14.6936118220086,11.368999231967177],[-15.435716363000116,12.036207904739834],[-15.91948028819277,12.036207904739834],[-16.16743880677328,12.258610859879983],[-16.173652587846277,12.481013861376203],[-16.67072822931543,12.92582003763245],[-16.442156749704402,13.370626501899954],[-16.478642477624497,14.482644371440783],[-16.987996336676186,15.149850637374241],[-16.259624906860086,15.149850637374241],[-16.00889712396632,14.92745238233725],[-14.795315097752475,14.92745238233725]]],[[[35.17501904330109,14.037836887929616],[35.89518292920327,13.81543332257056],[36.365823836672,13.370626501899954],[36.85030072278555,13.370626501899954],[37.08552623682216,13.148223229490318],[37.81205345505204,13.148223229490318],[37.7981109447302,12.70341691777739],[37.54936977685976,12.481013861376203],[37.479981101513545,9.812177381823593],[37.233700070613125,9.589774723702783],[36.2683292601138,9.589774723702783],[35.80487955145071,10.47938779862501],[32.18203844251293,10.47938779862501],[31.94485708450342,10.701790668640479],[31.461716022821772,10.701790668640479],[30.982824785667496,10.924193525170107],[30.749908375684218,11.368999231967177],[30.778535262895723,12.70341691777739],[31.267918147651596,12.92582003763245],[31.38353814838792,16.929090845869453],[33.087552319543924,16.929090845869453],[34.26382914867135,15.817065617521283],[35.17501904330109,14.037836887929616]]]]}}
