{"type":"Feature","properties":{"id":"riesenseeadler","sourceUrl":"https://commons.wikimedia.org/wiki/File:Haliaeetus_pelagicus_distr.png","license":"CC BY-SA 2.5","author":"Ulrich Prokop (Scops)","sourceImageSha256":"2594c04dce9d78a5699c940573f74fad3dd18ac7001395962a9c92a2bdb28902","registration":{"proj_string":"+proj=robin +R=1 +lon_0=10","parameters_1000px":[1121.2177866238328,-1124.6798866591735,-1590.8475349804246,1440.5960338654452],"coast_rmse_capped15_px":4.342804908752441,"coast_median_px":1.2010860443115234,"coast_p90_px":4.896650314331055,"sample_count":1108,"image_width":828,"image_height":852,"pixel_transform_native":[928.3683273245335,-931.2349461537956,-1317.2217589637914,1192.8135160405886],"transform_definition":"pixel_x=sx*projected_x+tx; pixel_y=sy*projected_y+ty","validation":"Odd coastline samples withheld from affine fit. Normalized to 1000px width.","controls":[[142.1,46,304,475],[156.7,51,420,399],[143.2,41.9,347,531],[130.7,31,265,706],[120.8,21.9,171,844],[129,35,226,645]],"review_bounds":null,"all_fits":[{"proj_string":"+proj=robin +R=1 +lon_0=0","parameters_1000px":[1196.7566005507751,-1129.4057225800773,-1877.8437841319155,1443.5459402627243],"coast_rmse_capped15_px":5.037097454071045,"coast_median_px":2.573391914367676,"coast_p90_px":8.619708061218262,"sample_count":974},{"proj_string":"+proj=robin +R=1 +lon_0=-10","parameters_1000px":[1269.4359838954854,-1135.2063240916136,-2187.2348060286586,1443.323702081519],"coast_rmse_capped15_px":6.69943904876709,"coast_median_px":2.9536497592926025,"coast_p90_px":14.775327682495117,"sample_count":849},{"proj_string":"+proj=robin +R=1 +lon_0=20","parameters_1000px":[994.2487716391413,-1123.5181102311738,-1254.6937361892765,1440.1771092118854],"coast_rmse_capped15_px":8.619568824768066,"coast_median_px":4.2839765548706055,"coast_p90_px":41.96780776977539,"sample_count":1318}],"excluded_pixel_rectangles":[[250,354,330,395],[377,511,450,557]],"status":"reviewed","coastlineReference":"Natural Earth 1:110m (world-registration-110m.geojson)"},"includedColors":["#ff8000","#008000","#0000ff"],"adaptation":"Inverse global map projection; current seasonal/subspecies colors combined; explicitly reviewed legends/arrows omitted; 3px border closing; contours simplified by 0.45 source pixels; components below 4 source pixels omitted; split at the antimeridian.","licenseUrl":"https://creativecommons.org/licenses/by-sa/2.5","originalFileSha256":"2594c04dce9d78a5699c940573f74fad3dd18ac7001395962a9c92a2bdb28902","sourceImagePath":"data/ranges/reference-originals/riesenseeadler.png"},"geometry":{"type":"MultiPolygon","coordinates":[[[[128.51256760684072,37.90515468043956],[128.47766282809542,37.84089420430376],[128.6511777303819,37.58390120265715],[128.61675104290154,37.51966489209601],[129.0118172284008,36.94174104022413],[129.00048882359866,36.62082013252938],[129.0897026121533,36.49247923335122],[129.11374668742127,36.23584202994298],[129.04873785277823,36.10754482340688],[129.10681074759287,35.915124490620705],[129.0244954990148,35.59448812767706],[129.07012974911765,35.53036997868989],[128.94425492978874,35.27392592668175],[128.34155307849613,35.14572024350672],[128.2026288284085,35.017524859139655],[127.35403827060838,35.017524859139655],[126.85916889304501,35.27392592668175],[126.64264179993616,35.466254740094016],[126.6273364548538,35.59448812767706],[126.72098048624925,35.786860597465676],[126.67496650931777,35.85099094862849],[127.09148289320682,36.68499635412103],[127.06746150787778,36.94174104022413],[126.88902669463168,37.19855212539951],[126.98963975411354,37.3912061991603],[126.85724001438598,37.58390120265715],[126.9253855045516,37.7123880373145],[126.83780306159088,37.84089420430376],[126.97617921663938,38.09796636693678],[126.93285874209839,38.16224720637121],[128.02771976359924,38.16224720637121],[128.21948073467814,38.22653328017269],[128.51256760684072,37.90515468043956]]],[[[129.54807415434146,41.12572952809299],[129.3865260840841,40.9965775820085],[129.30487096169554,40.867456167649095],[128.5488397346631,40.41576611516692],[128.46976614930065,40.41576611516692],[127.76133982242871,40.028884730611374],[127.6055952944073,39.899997871908],[127.49138710321655,39.706690553789834],[127.37482824609948,39.64226811666008],[127.29969336758839,39.51344289333965],[127.31316417671664,39.127120214374116],[127.56565089354015,38.741017218813354],[127.88554124586368,38.61236286848613],[127.97048128440443,38.48373106992934],[127.7355149245394,38.48373106992934],[127.69293591841755,38.54804417914151],[127.22286043768588,38.54804417914151],[126.80332357362524,38.35512136095856],[126.76817916135784,38.29082464584995],[126.53342548927137,38.29082464584995],[126.43940130313307,38.54804417914151],[126.65415128887032,38.93404204187659],[126.61186480306817,38.99839542753692],[126.90612881029341,39.51344289333965],[127.02224120249927,39.57785224939792],[127.44265291054539,40.28677735113673],[127.59995671031372,40.41576611516692],[128.31343743566265,40.80290678975874],[128.39417984929918,40.932013082398406],[128.51406209058655,40.9965775820085],[128.71896909367203,41.31951553689627],[129.56865934457755,41.77196074518133],[129.73908637038113,42.03068050347613],[130.44169917347168,42.48376574460839],[130.26739372500984,42.22480845211668],[129.81304030862896,41.90130400091943],[129.55925349049272,41.51337241237845],[129.54807415434146,41.12572952809299]]],[[[142.46159482879682,44.82106902474444],[142.57225983609874,44.75596987187609],[142.77191270125564,44.49567802035338],[142.99310368403394,44.365594225324806],[143.1547756324621,44.365594225324806],[143.4054489715608,44.17054503503947],[143.56693510167352,44.17054503503947],[144.11873927858585,43.845663634718285],[144.68286552551982,43.845663634718285],[144.94652938109402,43.97558641444222],[145.02718009499858,43.97558641444222],[144.92463391706295,43.845663634718285],[144.860848143234,43.45612905726904],[145.0908910228579,43.13177872727179],[145.04076394948618,43.06693661858067],[144.2384884131206,43.06693661858067],[143.89868325368502,42.93727995736465],[143.8493024163349,42.872465304862175],[143.4617407374251,42.67807546132711],[143.41293855630494,42.613296718959404],[143.3016399709615,42.67807546132711],[143.14153920449792,42.67807546132711],[142.91884236992954,42.80765970455765],[142.62868839743228,43.58593536222354],[142.6786800409249,43.65085289651779],[142.56772414670417,43.715780086203004],[142.66812892932705,43.845663634718285],[142.68830939176598,43.97558641444222],[142.62807381461187,44.105548833223914],[141.74023941003296,44.105548833223914],[141.8915868858983,44.3005676797334],[141.8614000450369,44.365594225324806],[142.03495613253114,44.69088124690426],[142.07792627073638,44.95129912233533],[142.1076369663328,44.88617875753036],[142.2698096555195,44.88617875753036],[142.29948513456196,44.82106902474444],[142.46159482879682,44.82106902474444]]],[[[146.1794114329275,44.105548833223914],[146.12205772845584,44.23555130010316],[146.27893807827752,44.430630988348646],[146.60240633959896,44.430630988348646],[146.63072252366737,44.365594225324806],[146.52592759603976,44.23555130010316],[146.1794114329275,44.105548833223914]]],[[[147.3526407884235,44.75596987187609],[147.56641826412866,45.01644435565534],[147.70127625080087,45.08158633596125],[147.86297768651193,45.27707759184835],[148.0796925041593,45.34226339832859],[148.1339582342526,45.21190286926841],[147.97216582351643,45.01644435565534],[147.5146876003667,44.75596987187609],[147.3526407884235,44.75596987187609]]],[[[142.48829602906525,48.61760869252613],[142.5134898106524,48.55175688560418],[142.39841979234563,48.42009979457941],[142.3054651930662,48.025493991134645],[142.3821939187199,47.631420855367864],[142.32664017311956,47.565792395085815],[142.60023211638276,46.91027146953002],[142.81989140156998,46.77932923567481],[142.7657345528693,46.713877783011355],[142.68374100639065,46.713877783011355],[142.41203491391215,46.5830137635578],[142.25141534464987,46.386813626109166],[142.30847808058545,46.256076437172176],[142.25536276846398,46.19072645088097],[142.14495478429097,46.256076437172176],[142.0592479514149,46.452201003681495],[142.0843273226004,46.5830137635578],[142.19177972751862,46.713877783011355],[142.1334135482864,47.23786062193124],[142.18824800639655,47.30341920738374],[142.1078861654825,47.697063562390525],[142.13692923232125,47.82839208094759],[142.2491220598343,47.95977868123295],[142.30993291828,48.22272906427098],[142.26459483586203,48.55175688560418],[142.18162984426522,48.55175688560418],[142.13106390816998,48.68347613205452],[142.38571179843876,49.34303110909297],[142.26870514510333,49.67342807830169],[142.34509283499077,49.938054010569566],[142.25661111246512,50.20296046383019],[142.33860652670197,50.46815508804685],[142.2757590339836,50.66724279543328],[142.40310998531734,50.800060621434874],[142.34263882736985,50.999428250714026],[142.4071942032456,51.06592207177875],[142.35695454368718,51.53191972288796],[142.18750746770806,51.53191972288796],[142.23490085123473,51.665238623448055],[142.04673641720092,51.731928005100514],[141.97387793083166,51.99888733056564],[142.04105963224524,52.06567809781012],[142.00518876321036,52.53379493903974],[142.07384338923114,52.60075302883667],[142.00823513179193,52.86880002343181],[142.0777875241534,52.93586593523476],[142.10067272254275,53.20434928290856],[142.45523842805716,53.54045549179273],[142.51463460619118,53.271525556641805],[142.4439648361144,53.20434928290856],[142.4683193728162,52.734733397768444],[142.96069195523182,52.466858112076075],[142.80665226089351,52.06567809781012],[142.84168796874332,51.93211703517299],[142.7744695102009,51.865367113997266],[142.82855874539712,51.665238623448055],[142.56402256034974,51.398679998575034],[142.58303879343524,51.33208958820171],[142.9214287833269,51.33208958820171],[143.01776089130456,50.999428250714026],[143.18654140728825,50.999428250714026],[142.99298328907585,50.800060621434874],[142.90625636654303,50.53449924298204],[142.97118559089634,50.07047106846379],[142.90927597522975,50.004253031418266],[142.99843008981713,49.73955857255659],[143.42378049711297,49.47513918459238],[143.59074578806684,49.47513918459238],[143.66005592771072,49.27700213747768],[143.15983795656453,49.27700213747768],[142.8739684852132,49.14499384553598],[142.63809506444844,48.88117318745367],[142.66272243197426,48.81525828518887],[142.48829602906525,48.61760869252613]]],[[[171.96769652578766,61.0336498664618],[171.74737812649303,60.892801857711085],[171.43655442972255,60.75209929753022],[170.04052335320134,60.260766375633196],[169.5841049836056,60.260766375633196],[169.59929018472837,60.33085087860652],[169.32525635467914,60.33085087860652],[169.3404286162706,60.400970411908474],[169.06621147585759,60.400970411908474],[169.08137018286953,60.471125139535104],[168.89843621327884,60.471125139535104],[168.91364218861673,60.54131522617424],[168.5475284905982,60.54131522617424],[168.56265823626723,60.611540837210605],[168.37947817003334,60.611540837210605],[168.1814147925797,60.54131522617424],[167.81530109456116,60.54131522617424],[167.5264314413487,60.471125139535104],[166.74117971925085,60.19071673967896],[166.32638969944892,59.91087081795353],[166.23540820134838,59.91087081795353],[166.32404007172732,60.400970411908474],[165.9584172178433,60.400970411908474],[165.97149269982788,60.471125139535104],[165.7885587302372,60.471125139535104],[165.39743812397367,60.33085087860652],[164.99612905142774,60.12070180811577],[164.81380444790557,60.12070180811577],[164.82549872118844,60.19071673967896],[164.27816129317063,60.19071673967896],[163.69841905461686,59.98078293150318],[163.404826381206,59.84099278674861],[162.9032735569881,59.492108891514455],[162.67952728050042,59.14405589077296],[162.38539152137926,58.935615717167096],[162.37798031715735,58.866200110711965],[161.79813597765076,58.45037378619873],[161.59588120753196,58.173782030761586],[161.58037045923206,57.966660790645676],[161.83376914425224,57.75981216998895],[162.63654581838554,57.75981216998895],[162.72058765129196,57.69092261527915],[162.60814557286747,57.3469190433104],[162.51510945264263,57.27820629220374],[162.57246504134054,56.6610831945801],[162.47883167597698,56.524255116035214],[162.1216087286916,56.38753782318721],[161.85230812176002,56.1826675337509],[161.75994895852423,55.90988609841801],[161.67149118644153,55.8417576335975],[161.6701056253102,55.50151091927846],[161.8452380812967,55.36559472470949],[161.84820885618242,55.02625257644745],[161.5054471792335,54.755251766618564],[161.3334827613504,54.68755874593016],[160.89917099253356,54.68755874593016],[160.64097124224133,54.61989034477714],[160.04557917299167,54.34946074119826],[159.71442206974967,54.07941631435661],[159.63660469958842,53.94453638386767],[159.6768593483592,53.405945348903025],[159.3330160473487,53.405945348903025],[158.7503402307683,53.20434928290856],[158.1240486813355,52.66773248160458],[158.06383266077944,52.466858112076075],[157.91095271186012,52.33304784752292],[157.71308753903844,51.93211703517299],[156.9766732573789,51.26551868523141],[156.80756172428545,51.26551868523141],[156.77161607913402,51.465290011626855],[156.83322170774863,51.5985692281462],[156.74845587395865,51.5985692281462],[156.71490946003854,51.798637469672606],[156.63001589316897,51.798637469672606],[156.70404340130827,51.865367113997266],[156.67238542419085,52.06567809781012],[156.58731957656326,52.06567809781012],[156.55692912662374,52.26617421107767],[156.4717325940471,52.26617421107767],[156.44259156809355,52.466858112076075],[156.3572630895311,52.466858112076075],[156.32935333654146,52.66773248160458],[156.24389165345605,52.66773248160458],[156.21719496815228,52.86880002343181],[156.1315988245597,52.86880002343181],[156.09788897104085,53.13719528654221],[156.17564937898086,53.20434928290856],[156.15246551300146,53.405945348903025],[156.23103163065326,53.473189074546696],[156.18322999030602,53.94453638386767],[156.25725681258749,54.07941631435661],[156.17082768115844,54.07941631435661],[156.15325219489952,54.28191379501617],[156.06667988802167,54.28191379501617],[156.1476653938554,54.34946074119826],[156.12174153554832,54.68755874593016],[155.93837828990948,54.82296951717166],[155.92064207146558,55.09407021422341],[155.83348477507386,55.09407021422341],[155.8104760684953,55.50151091927846],[155.89460159792355,55.56950789489602],[155.962791657636,56.046223069144546],[156.048471857494,56.11443180658326],[156.04270828909017,56.31922042469549],[156.129175056809,56.38753782318721],[156.12515493187564,56.59265524754838],[156.7410113065774,57.07224173056319],[156.74277754149162,57.3469190433104],[156.92359675368928,57.55323272341266],[157.10307247206538,57.6220628418219],[157.45942211843726,57.6220628418219],[158.09248096943872,57.89768113030346],[158.1845561755092,57.966660790645676],[158.45572159572112,58.03567074172176],[159.55422362297148,58.45037378619873],[159.9340308407844,58.72746476390743],[159.94529788106806,58.866200110711965],[160.041308469233,58.935615717167096],[160.15681752735136,59.21360085368177],[160.63021597925126,59.4224323776658],[161.12328337866555,59.771148695193894],[161.31363061039357,59.84099278674861],[161.8151428670904,60.19071673967896],[162.19012739615485,60.260766375633196],[162.96429459581566,60.54131522617424],[163.26215285883336,60.68180213873113],[163.67822990036976,60.96320759626728],[163.91460653084542,61.24519757470968],[163.92036484571324,61.740119670233916],[164.77821494389008,62.66430643429219],[164.81305731052146,62.80709132147657],[164.06436418532644,62.80709132147657],[163.2668816941251,62.59297534230254],[162.7237004461148,62.236925866295145],[162.71657556055692,61.740119670233916],[162.80917473633818,61.740119670233916],[162.42532262945818,61.66930258693802],[161.8318822782257,61.45708024728039],[161.62277264002617,61.31578768301553],[161.42649718007812,61.24519757470968],[161.21923537605423,61.1041288387074],[160.92121105864152,60.96320759626728],[160.63495991243437,60.892801857711085],[160.6670789751869,61.1041288387074],[160.48302684156448,61.1041288387074],[160.49392215617038,61.17464468415709],[160.03347692794264,61.17464468415709],[160.16971361629874,61.45708024728039],[160.27355246767766,61.52778305234949],[160.30899699024434,61.740119670233916],[160.22846807923295,61.81097520136561],[159.3018307006719,61.81097520136561],[159.13956962340473,61.95280232343367],[158.95398282582485,61.95280232343367],[158.75704315334866,61.88186935920619],[157.82975836667777,61.88186935920619],[157.63388341926202,61.81097520136561],[157.35589220569372,61.81097520136561],[157.06802583790045,61.740119670233916],[156.57729021711154,61.52778305234949],[155.47836033984393,60.75209929753022],[154.90979323940803,60.54131522617424],[154.52229878694664,60.260766375633196],[154.5173104935194,60.19071673967896],[154.2300921024211,59.98078293150318],[154.22174930068195,59.84099278674861],[154.02537753173198,59.56181864003808],[154.11606094966078,59.56181864003808],[154.1095127164086,59.4224323776658],[154.3812086856937,59.4224323776658],[154.4684725603911,59.35278895916942],[154.28745952539253,59.35278895916942],[154.10351852036143,59.283178497251185],[153.83217490285884,59.283178497251185],[153.8349269378961,59.35278895916942],[153.472900867899,59.35278895916942],[152.74146819981056,59.074543471373914],[152.7431104098815,59.14405589077296],[151.56880659789925,59.14405589077296],[151.75187383533896,59.283178497251185],[151.7548143159377,59.4224323776658],[151.39398875872692,59.492108891514455],[151.39555841179669,59.56181864003808],[150.6713205607732,59.631561763111755],[150.67268315891042,59.701338401166616],[150.2186723552763,59.701338401166616],[150.2198702242236,59.771148695193894],[149.67469956650152,59.771148695193894],[149.67567153804632,59.84099278674861],[149.31198531703546,59.84099278674861],[148.76572369071584,59.631561763111755],[148.6750558739326,59.56181864003808],[148.493689038075,59.56181864003808],[148.49349556642193,59.631561763111755],[147.40458306924629,59.631561763111755],[146.95339856097263,59.492108891514455],[146.68152569172233,59.492108891514455],[146.5020255764255,59.4224323776658],[146.04919896095032,59.4224323776658],[145.86386991813973,59.56181864003808],[144.23156839542125,59.56181864003808],[144.05342128896976,59.492108891514455],[143.7815484197195,59.492108891514455],[143.60393523738435,59.4224323776658],[142.78884732952903,59.4224323776658],[142.52161225048587,59.35278895916942],[141.993713977121,59.14405589077296],[141.73374437478003,59.00506345886762],[141.2303564462397,58.588856344366086],[140.2796007185151,58.24288362726909],[139.95439528394414,57.966660790645676],[139.8823725163716,57.82873163261903],[138.63437809973522,57.20952257196292],[138.40075105422758,57.00364436374876],[138.23475361214713,56.935075536483296],[137.47230326860745,56.250930367403015],[136.90967537013017,55.978041205077005],[136.20538798069305,55.56950789489602],[136.06004254678095,55.43353990018058],[135.1932226669256,55.02625257644745],[134.9809875398429,54.82296951717166],[135.01418957104985,54.68755874593016],[135.11775190936117,54.61989034477714],[135.29137925176173,54.61989034477714],[135.30808150104875,54.55224645318202],[136.5227932515997,54.55224645318202],[136.62563469964942,54.48462696151681],[136.70757087011998,54.146891689341544],[136.42987154193798,53.877131614868006],[136.49979980815897,53.60774470497678],[137.36079849019166,53.60774470497678],[137.48149809044563,53.473189074546696],[137.91153326338616,53.473189074546696],[138.46352373130864,53.67505681874934],[138.68943486433236,53.80975016824816],[138.8300220761619,53.94453638386767],[139.43436265028632,53.94453638386767],[139.44992326919134,53.877131614868006],[139.7950720380203,53.877131614868006],[140.21785048894182,53.54045549179273],[140.57775133561753,53.473189074546696],[140.78130852156266,53.338724210838784],[140.91529386163677,53.13719528654221],[140.79316888785985,52.93586593523476],[140.8607886980786,52.66773248160458],[140.94625038116402,52.66773248160458],[141.0333585452004,52.33304784752292],[140.91692948050164,52.132489434812264],[140.95360713123458,51.99888733056564],[140.82093170839926,51.865367113997266],[140.83981245542896,51.798637469672606],[140.51279048947535,51.465290011626855],[140.53267768645827,51.398679998575034],[140.40374301422094,51.26551868523141],[140.31727263556573,50.999428250714026],[140.3806872295739,50.800060621434874],[140.3394680932395,50.66724279543328],[140.4453473380566,50.60086178133111],[140.38307399142445,50.53449924298204],[140.45631934020713,50.07047106846379],[140.3955806128224,50.004253031418266],[140.4893756889426,49.73955857255659],[140.42957513901746,49.67342807830169],[140.47765052653304,49.54121848155131],[140.3751190104256,49.14499384553598],[140.0291014266271,48.7493592982011],[140.0551266108725,48.68347613205452],[139.6607900007602,48.22272906427098],[139.32900476171034,48.025493991134645],[139.2190149816796,47.89407807510026],[139.0816861985296,47.82839208094759],[138.8643653464572,47.565792395085815],[138.72801486133042,47.5001780907064],[138.4075773470368,47.10678447469971],[138.27250210351508,47.04126673361021],[137.49467172587316,46.060063258528686],[136.94643080414124,45.66836167397666],[136.8461728390404,45.53788817324321],[136.3534808710093,45.21190286926841],[136.02616112183102,44.88617875753036],[135.89615221228453,44.82106902474444],[135.6528696749876,44.49567802035338],[135.52361838933894,44.430630988348646],[135.37911925072305,44.23555130010316],[135.2503994008676,44.17054503503947],[135.01212986379454,43.845663634718285],[134.88421496565883,43.780716982004016],[134.7428493759163,43.58593536222354],[134.6154963913098,43.521027432667594],[134.52204023609352,43.391240185518264],[134.34869156817075,43.2614907512755],[133.71732099926916,42.93727995736465],[133.5569845858138,42.93727995736465],[133.43127904863624,42.872465304862175],[132.71003127702633,42.872465304862175],[132.52526558218338,43.06693661858067],[132.32997490574604,43.13177872727179],[132.45576172229516,43.196630088116855],[132.69662327767747,43.196630088116855],[133.10957032117312,43.32636076697653],[133.4893716519792,43.521027432667594],[133.53583319915367,43.58593536222354],[133.82389170608508,43.65085289651779],[134.20623522531747,43.845663634718285],[134.28682468916514,43.845663634718285],[134.92742714064212,44.17054503503947],[135.10397163841571,44.3005676797334],[135.20015012801747,44.430630988348646],[135.1674803777421,44.49567802035338],[135.45855670967754,44.88617875753036],[135.58849444519478,44.95129912233533],[135.68646228121213,45.08158633596125],[136.04604944032002,45.34226339832859],[136.75220747787137,45.73361577670647],[137.25993673641986,46.386813626109166],[137.3931956300864,46.452201003681495],[137.54821841375417,46.64843932175995],[137.68213467119187,46.713877783011355],[137.7864298378092,46.84479376828104],[138.2961699095957,47.17231574095121],[138.99828693600415,48.025493991134645],[138.97066975648858,48.09122409678889],[139.53065792870626,48.7493592982011],[139.5932488677106,49.01305111663105],[139.54216918549642,49.14499384553598],[139.63327442497396,49.34303110909297],[139.58357880517352,49.47513918459238],[139.77250059845989,49.8718714407493],[139.69365988601805,50.33552156023146],[139.7943314372301,50.53449924298204],[139.75016215475216,50.66724279543328],[140.00087642511215,50.9329534644467],[139.85331716759669,51.13243502166458],[139.9809641814873,51.26551868523141],[139.9605163717749,51.33208958820171],[140.1541425559586,51.53191972288796],[140.24555748734196,51.798637469672606],[140.10338146490366,51.99888733056564],[140.19919487190663,52.26617421107767],[140.09571442483042,52.33304784752292],[140.16284075007707,52.39994244809338],[140.12698847534423,52.53379493903974],[140.0416157349867,52.53379493903974],[139.98863482179289,52.734733397768444],[139.80011791490912,52.80175587804245],[139.76547397882499,52.93586593523476],[139.67983273640544,52.93586593523476],[139.8362462234672,53.338724210838784],[139.80368802432454,53.473189074546696],[139.4433700484788,53.54045549179273],[139.3249886540078,53.67505681874934],[138.98040268492812,53.67505681874934],[138.13532468157374,53.271525556641805],[137.89534433128986,53.20434928290856],[136.86546799057487,53.20434928290856],[136.71220256016335,53.13719528654221],[136.3690930661655,53.13719528654221],[136.3505298202174,53.20434928290856],[136.17888376343154,53.20434928290856],[136.15540033534586,53.60774470497678],[135.89710073073604,53.60774470497678],[135.87912896321106,53.67505681874934],[135.70683597867122,53.67505681874934],[135.63565047007566,53.94453638386767],[135.37664736687947,53.94453638386767],[135.34140700675627,54.07941631435661],[135.02960931670088,54.28191379501617],[134.66582945550442,54.34946074119826],[134.45771681453473,54.48462696151681],[134.51005621095925,54.61989034477714],[135.00289093745397,55.09407021422341],[134.98687093216176,55.161913136701635],[135.41781943600387,55.56950789489602],[135.57789443392818,55.63753094030116],[135.79679370009262,55.8417576335975],[136.35522047816886,56.11443180658326],[136.42955069253378,56.1826675337509],[136.75496650038224,56.31922042469549],[137.09438574612312,56.38753782318721],[137.42186895034757,56.524255116035214],[137.8035949629671,56.86653512702823],[137.9691145562116,56.935075536483296],[138.20146107580373,57.14086775909851],[138.36809508824143,57.20952257196292],[139.64431106538328,58.31201603160435],[140.06949882697836,58.51959939891151],[140.2345557810128,58.65814475503778],[140.66403709132334,58.866200110711965],[140.83159548153068,59.00506345886762],[141.09040335251927,59.14405589077296],[141.61654707549306,59.35278895916942],[141.70206345238856,59.4224323776658],[142.05516636513002,59.56181864003808],[142.23653320098762,59.56181864003808],[142.41373412385795,59.631561763111755],[142.68596224815184,59.631561763111755],[142.86369733640424,59.701338401166616],[143.40851030076516,59.701338401166616],[143.58696055527142,59.771148695193894],[143.76868410784544,59.771148695193894],[143.7717189436724,59.701338401166616],[145.5877621582087,59.701338401166616],[145.7676431861598,59.771148695193894],[146.4036756201689,59.771148695193894],[146.58433865945406,59.84099278674861],[147.4935542119812,59.84099278674861],[147.94822133606047,59.98078293150318],[148.76759578384664,59.98078293150318],[148.95054630657347,60.050721418991984],[149.8615649534683,60.050721418991984],[149.86009504756154,59.98078293150318],[150.13321986349027,59.98078293150318],[150.31707427691572,60.050721418991984],[150.59037987098415,60.050721418991984],[150.58842789003816,59.98078293150318],[151.22571912720517,59.98078293150318],[151.4102966531895,60.050721418991984],[151.68360224725794,60.050721418991984],[151.68092715375303,59.98078293150318],[151.95405196968176,59.98078293150318],[152.13055352986956,59.84099278674861],[152.12551773053946,59.701338401166616],[152.30712205199308,59.701338401166616],[152.491414631399,59.771148695193894],[152.9457235128341,59.771148695193894],[152.93988826322249,59.631561763111755],[153.39360180371233,59.631561763111755],[153.5783523021685,59.701338401166616],[154.0522507291845,60.050721418991984],[154.056652840097,60.12070180811577],[154.92807778502052,60.75209929753022],[155.11801460237115,60.82243248111509],[156.21650194056485,61.598523773403734],[157.2941713070935,62.02377427453718],[160.45136026641825,62.02377427453718],[160.43867720646398,61.95280232343367],[161.08823099799358,61.95280232343367],[161.16798359869284,61.88186935920619],[161.11744297487516,61.598523773403734],[161.0128049177909,61.52778305234949],[160.97726396536353,61.31578768301553],[161.16169501526713,61.31578768301553],[161.55485416790455,61.45708024728039],[162.08174283635503,61.81097520136561],[162.3226809381422,62.09478539382335],[162.53759067805697,62.236925866295145],[162.5523724499619,62.3080555862383],[162.76894531642168,62.45043491674623],[162.7843642095296,62.52168489914675],[163.11219741110088,62.73567836407073],[163.4259316967442,62.87854549723837],[163.83495482917476,63.02157827123792],[163.94627688508115,63.09315725544772],[164.2457600479473,63.1647782299718],[164.8093103451201,63.1647782299718],[165.2227306928421,63.308146932041474],[165.78710113523755,63.308146932041474],[165.74892371701517,62.80709132147657],[165.89964603805026,62.66430643429219],[165.77058133493557,62.52168489914675],[165.5492968799999,62.379225207892084],[165.28000220420907,62.02377427453718],[165.06257970271045,61.88186935920619],[164.90873698254916,61.598523773403734],[164.26957302763802,61.17464468415709],[164.25609558082454,61.1041288387074],[163.73259866219493,60.75209929753022],[163.537108292293,60.68180213873113],[163.22748315596763,60.471125139535104],[163.03343438677106,60.400970411908474],[162.82911311358885,60.260766375633196],[162.15071176435407,59.98078293150318],[161.95008149716256,59.84099278674861],[161.66845403638763,59.771148695193894],[161.3789601163337,59.631561763111755],[160.59521019582357,59.074543471373914],[160.5759933274616,58.866200110711965],[160.47393747698402,58.72746476390743],[160.18766619803748,58.51959939891151],[158.26841476289783,57.82873163261903],[158.17667540653397,57.75981216998895],[157.54527908397574,57.484432134306914],[157.36486202966782,57.3469190433104],[157.09512658357013,56.935075536483296],[157.09517048550975,56.79802301407548],[156.83311284983466,56.455882680842805],[156.8353552119138,56.31922042469549],[156.74865666064554,56.250930367403015],[156.7696777586893,55.56950789489602],[156.6850476441393,55.50151091927846],[156.69446542946284,55.29767528034485],[156.7817720392284,55.29767528034485],[156.7959565719442,55.02625257644745],[156.7127866781261,54.95847965096235],[156.74391267351376,54.48462696151681],[156.59159665945455,54.214390813702025],[156.63383980270697,53.7423919380777],[156.81936870413065,53.60774470497678],[156.94805663451712,53.20434928290856],[157.03387966291,53.20434928290856],[156.89372246273896,52.93586593523476],[156.73925235278094,52.80175587804245],[156.7566617519686,52.66773248160458],[156.84212343505405,52.66773248160458],[156.9075163434194,52.199321439750484],[157.00258132336916,52.132489434812264],[157.1727998613889,52.132489434812264],[157.1827805099564,52.06567809781012],[157.3529122052116,52.06567809781012],[157.74968058269687,52.26617421107767],[157.9019869239578,52.39994244809338],[157.8845184697147,52.53379493903974],[157.79914572935715,52.53379493903974],[157.8676636320792,52.66773248160458],[158.57210432978854,53.271525556641805],[158.90321192108553,53.405945348903025],[159.38707191587008,53.80975016824816],[159.45513467546252,54.07941631435661],[159.70271677689195,54.28191379501617],[160.2096723873433,54.55224645318202],[161.06729857459675,54.89071210827294],[161.23845427015368,55.02625257644745],[161.14486517306986,55.70558016913922],[161.32176959309027,55.978041205077005],[162.03768796601872,56.524255116035214],[162.06728311118874,57.20952257196292],[161.8934042124221,57.27820629220374],[161.90112431509795,57.41566094921731],[161.0118889244468,57.41566094921731],[160.9300654710013,57.55323272341266],[161.30300425989734,57.82873163261903],[161.40164339166768,57.966660790645676],[161.41681915567136,58.173782030761586],[161.51731339292294,58.31201603160435],[161.7083794834636,58.45037378619873],[161.71449140030532,58.51959939891151],[162.00367294621617,58.72746476390743],[162.2125242515402,59.00506345886762],[162.22787196819957,59.14405589077296],[163.1222424569799,59.771148695193894],[163.13206171544783,59.84099278674861],[163.63960096048316,60.19071673967896],[163.93592436371114,60.33085087860652],[164.5202778123944,60.54131522617424],[165.43556205744073,60.54131522617424],[165.82840357112318,60.68180213873113],[166.28666262688918,60.68180213873113],[166.4423747269917,60.54131522617424],[166.62543157600095,60.54131522617424],[166.61176159339527,60.471125139535104],[167.16056350216735,60.471125139535104],[167.75309160534053,60.68180213873113],[169.21952058379185,60.68180213873113],[169.20378846808583,60.611540837210605],[169.47855856743666,60.611540837210605],[169.46281273564452,60.54131522617424],[169.73739800915843,60.54131522617424],[169.72163907643693,60.471125139535104],[170.17897400041363,60.471125139535104],[171.48978328526638,60.96320759626728],[171.80223305934467,61.1041288387074],[172.0239999703833,61.24519757470968],[172.22755800948372,61.31578768301553],[172.56362445081,61.52778305234949],[173.38671885479974,61.81097520136561],[173.68632821874942,61.88186935920619],[174.14997061208487,61.88186935920619],[173.85003754408027,61.81097520136561],[172.93325067586665,61.52778305234949],[172.6161084328134,61.38641518248221],[172.17033732658956,61.1041288387074],[171.96769652578766,61.0336498664618]]]]}}
