{"type":"Feature","properties":{"id":"rotmilan","sourceUrl":"https://commons.wikimedia.org/wiki/File:Milvus_milvus_distr02.png","author":"Ulrich prokop","license":"CC BY-SA 3.0","licenseUrl":"https://creativecommons.org/licenses/by-sa/3.0","sourceImageSha256":"6d78b12b742e667e3a19ff6022b91a4d2155b4faf428c0f30f7dbc977900a8d0","registration":{"proj_string":"+proj=mill +R=1 +lon_0=0.0","parameters_1000px":[913.6761126176493,-910.2162778930999,294.1360524342806,1217.7378306352607],"pixel_transform_native":[723.6314811931783,-720.8912920913352,232.95575352795026,964.4483618631266],"central_meridian":0.0,"coast_error":{"median_px_at1000":1.0220311880111694,"p90_px_at1000":3.005930185317993,"rmse_capped15_px_at1000":2.1135151386260986,"sample_count":1957},"heldout_coast_error":{"median_px_at1000":1.0007187128067017,"p90_px_at1000":2.660182237625122,"rmse_capped15_px_at1000":2.0077009201049805,"sample_count":1033},"image_width":792,"image_height":603,"control_method":"4-degree checkerboard coastal blocks held out; Natural Earth 1:110m coast sampled every <=0.2 degree; nearest 1px raster land-boundary contour","notes":"single projection plus independent x/y scales and translation; no local warp","projection_candidates_initial":{"proj_string":"+proj=mill +R=1 +lon_0=0","parameters_1000px":[912.0653166887151,-910.3385271238587,294.6372262054578,1217.7812240156884],"coast_rmse_capped15_px":2.034985303878784,"coast_median_px":0.3708003759384155,"coast_p90_px":2.515415906906128,"sample_count":1949,"image_width":792,"image_height":603,"pixel_transform_native":[722.3557308174625,-720.9881134820962,233.3526831547226,964.4827294204252],"transform_definition":"pixel_x=sx*projected_x+tx; pixel_y=sy*projected_y+ty; invert with pyproj inverse after removing scale/translation","all_fits":[{"proj_string":"+proj=gall +R=1 +lon_0=0","parameters_1000px":[1290.3498693669626,-1138.8693164687454,294.208736667708,1253.0807682888726],"coast_rmse_capped15_px":2.679511308670044,"coast_median_px":1.065312147140503,"coast_p90_px":4.147730350494385,"sample_count":1972},{"proj_string":"+proj=merc +R=1 +lon_0=0","parameters_1000px":[911.0239361979064,-786.7185741251777,294.88999177913377,1149.0893376425431],"coast_rmse_capped15_px":4.1968488693237305,"coast_median_px":1.6221566200256348,"coast_p90_px":6.226582050323486,"sample_count":1925},{"proj_string":"+proj=eqc +R=1 +lon_0=0","parameters_1000px":[910.5010995107149,-1161.6319716471573,293.80655619925426,1355.0916635649442],"coast_rmse_capped15_px":5.991357803344727,"coast_median_px":2.7536563873291016,"coast_p90_px":11.5448579788208,"sample_count":2018},{"proj_string":"+proj=robin +R=1 +lon_0=0","parameters_1000px":[1167.6018054893593,-1209.2922026828594,293.71400671573906,1353.962224248361],"coast_rmse_capped15_px":7.766457557678223,"coast_median_px":3.9046335220336914,"coast_p90_px":18.790634155273438,"sample_count":2174},{"proj_string":"+proj=wintri +R=1 +lon_0=0","parameters_1000px":[1008.035974803129,-1150.2205028297185,306.22291625597603,1346.164998209438],"coast_rmse_capped15_px":8.378023147583008,"coast_median_px":5.536369323730469,"coast_p90_px":17.459552764892578,"sample_count":2060},{"proj_string":"+proj=moll +R=1 +lon_0=0","parameters_1000px":[1204.8944891183305,-1265.2908791805426,291.831727143517,1489.5496530627938],"coast_rmse_capped15_px":9.389673233032227,"coast_median_px":6.58356237411499,"coast_p90_px":27.170835494995117,"sample_count":2242},{"proj_string":"+proj=eqearth +R=1 +lon_0=0","parameters_1000px":[1202.644808968619,-1285.5835121256257,292.1488250285267,1537.0368374071759],"coast_rmse_capped15_px":9.582911491394043,"coast_median_px":7.3251824378967285,"coast_p90_px":27.37708282470703,"sample_count":2317},{"proj_string":"+proj=laea +R=1 +lon_0=15 +lat_0=52","parameters_1000px":[1129.485740061125,-1191.8598907570197,532.826130727019,302.1032756022843],"coast_rmse_capped15_px":9.745160102844238,"coast_median_px":7.25499963760376,"coast_p90_px":32.280311584472656,"sample_count":2037},{"proj_string":"+proj=aeqd +R=1 +lon_0=15 +lat_0=52","parameters_1000px":[1123.4389085250239,-1188.4747220328277,532.3432182857684,302.0204834746703],"coast_rmse_capped15_px":9.76213264465332,"coast_median_px":7.247522830963135,"coast_p90_px":32.237606048583984,"sample_count":2031},{"proj_string":"+proj=stere +R=1 +lon_0=15 +lat_0=52","parameters_1000px":[1113.3499919665442,-1180.735300347217,532.0422200150437,301.7094522219586],"coast_rmse_capped15_px":9.815207481384277,"coast_median_px":7.456762313842773,"coast_p90_px":31.950185775756836,"sample_count":2022},{"proj_string":"+proj=lcc +R=1 +lon_0=15 +lat_0=50 +lat_1=35 +lat_2=65","parameters_1000px":[1152.8568620076724,-1220.6409402104039,531.3809320418025,342.85709467519837],"coast_rmse_capped15_px":9.872613906860352,"coast_median_px":7.460160732269287,"coast_p90_px":33.20298767089844,"sample_count":2019}]}},"includedColors":["#00FFFF","#00FF00"],"adaptation":"Hue-based extraction of current seasonal range colors only (migration arrows excluded); inverse geographic projection; 3px closing of printed border gaps; 0.45px contour simplification; tiny components and isolated thin cartographic dashes omitted; antimeridian split."},"geometry":{"type":"MultiPolygon","coordinates":[[[[-5.063896262070224,34.53800163309796],[-5.143074381046763,34.39709901820781],[-5.380608737976378,34.32659347508077],[-5.618143094905994,34.53800163309796],[-5.618143094905994,34.81937159263849],[-5.380608737976378,35.03001665598992],[-5.3014306189998415,35.03001665598992],[-5.3014306189998415,34.8896231146585],[-5.222252500023301,34.81937159263849],[-5.063896262070224,34.81937159263849],[-5.063896262070224,34.53800163309796]]],[[[-2.6093745737975276,38.080996146037464],[-2.8469089307271442,38.080996146037464],[-3.084443287656759,38.217931537673486],[-3.084443287656759,38.354712423602244],[-2.8469089307271442,38.49133847982104],[-2.688552692774066,38.49133847982104],[-2.6093745737975276,38.42304482557313],[-2.4510183358444504,38.42304482557313],[-2.371840216867912,38.286341314162925],[-2.6093745737975276,38.080996146037464]]],[[[3.4873405873959444,39.7139534843533],[3.2498062304663287,39.44335897525083],[3.0914499925132515,39.375611924254024],[2.933093754560174,39.375611924254024],[2.774737516607097,39.51106669432087],[2.5372031596774813,39.578735043821204],[2.5372031596774813,39.64636398627137],[2.61638127865402,39.64636398627137],[2.8539156355836357,39.84901399895192],[3.0122718735367124,39.84901399895192],[3.2498062304663287,39.7139534843533],[3.4873405873959444,39.7139534843533]]],[[[1.982956326841711,41.72311831699367],[1.9037782078651726,41.72311831699367],[1.5870657319590182,41.52382803578024],[1.1119970180997865,41.52382803578024],[1.0328188991232479,41.59029859674082],[0.795284542193632,41.59029859674082],[0.7161064232170935,41.65672870130987],[0.399393947310939,41.65672870130987],[0.32021582833440043,41.72311831699367],[-0.07567476654829255,41.72311831699367],[-0.15485288552483115,41.78946741145755],[-0.7090997183606013,41.78946741145755],[-0.78827783733714,41.85577595252569],[-0.946634075290217,41.85577595252569],[-1.1049903132432943,41.92204390818099],[-1.2633465511963715,42.054457935977936],[-1.8175933840321417,42.054457935977936],[-2.2134839789148346,41.72311831699367],[-2.292662097891373,41.72311831699367],[-2.4510183358444504,41.59029859674082],[-2.4510183358444504,41.52382803578024],[-2.8469089307271442,41.39076567545519],[-3.084443287656759,41.19086953353128],[-3.401155763562914,40.65604428647774],[-3.5595120015159916,40.521937438137165],[-3.7178682394690683,40.45482412429024],[-4.034580715375222,40.45482412429024],[-4.113758834351761,40.38767093089251],[-4.113758834351761,40.253245047111896],[-3.9554025963986836,39.98391629231748],[-3.6386901204925297,39.64636398627137],[-3.6386901204925297,39.578735043821204],[-3.401155763562914,39.375611924254024],[-3.2427995256098363,39.10423115955156],[-3.2427995256098363,38.900284469504925],[-3.321977644586375,38.83222413777132],[-3.5595120015159916,38.83222413777132],[-3.6386901204925297,38.764124820225035],[-3.8762244774221455,38.764124820225035],[-3.9554025963986836,38.69598655613886],[-4.113758834351761,38.69598655613886],[-4.588827548210994,38.49133847982104],[-4.826361905140608,38.286341314162925],[-4.826361905140608,38.14948313471626],[-4.905540024117147,38.080996146037464],[-4.905540024117147,37.875304075596105],[-4.984718143093686,37.73798385442859],[-5.3014306189998415,37.462883694858135],[-5.459786856952918,37.18717283098158],[-5.459786856952918,37.04908923931012],[-5.618143094905994,36.77246746833654],[-5.618143094905994,36.56460475663732],[-5.6973212138825335,36.495241920429315],[-5.6973212138825335,36.286928240664736],[-5.776499332859071,36.14786526224468],[-5.855677451835611,36.14786526224468],[-6.014033689788689,36.286928240664736],[-6.093211808765226,36.42584152576094],[-6.251568046718304,36.42584152576094],[-6.251568046718304,36.70321757504198],[-6.805814879554073,37.25615765139509],[-7.2808835934133045,37.25615765139509],[-7.518417950342921,37.11815001254881],[-7.518417950342921,37.18717283098158],[-7.6767741882959974,37.32510443074073],[-7.755952307272536,37.462883694858135],[-7.755952307272536,37.80666315477629],[-7.8351304262490755,37.875304075596105],[-7.8351304262490755,38.080996146037464],[-7.755952307272536,38.14948313471626],[-7.755952307272536,38.286341314162925],[-7.6767741882959974,38.42304482557313],[-7.518417950342921,38.559593346255376],[-7.518417950342921,39.03628801925964],[-7.439239831366383,39.10423115955156],[-7.439239831366383,39.51106669432087],[-7.518417950342921,39.578735043821204],[-7.439239831366383,39.64636398627137],[-7.439239831366383,39.78150350091132],[-7.2808835934133045,39.78150350091132],[-7.122527355460228,39.91648494164374],[-7.122527355460228,40.38767093089251],[-7.043349236483689,40.45482412429024],[-7.043349236483689,40.923777889851785],[-6.964171117507151,41.05740409301621],[-6.805814879554073,41.12415692551008],[-6.805814879554073,41.72311831699367],[-6.726636760577536,41.78946741145755],[-6.726636760577536,41.92204390818099],[-6.884992998530612,42.12060394487803],[-6.884992998530612,42.384780550054316],[-6.726636760577536,42.582484336522434],[-6.568280522624458,42.64830378478247],[-6.409924284671381,42.64830378478247],[-6.330746165694841,42.714082275759516],[-6.172389927741765,42.714082275759516],[-6.093211808765226,42.77981977948803],[-5.934855570812148,42.77981977948803],[-5.855677451835611,42.845516266159436],[-5.618143094905994,42.845516266159436],[-5.5389649759294555,42.91117170612182],[-5.380608737976378,42.91117170612182],[-5.3014306189998415,42.97678606987975],[-5.063896262070224,42.97678606987975],[-4.74718378616407,43.107891451582724],[-4.588827548210994,43.107891451582724],[-4.509649429234454,43.17338241131842],[-4.272115072304838,43.17338241131842],[-4.034580715375222,43.304240724204746],[-3.2427995256098363,43.304240724204746],[-3.1636214066332977,43.36960802008134],[-3.0052651686802205,43.36960802008134],[-2.9260870497036824,43.304240724204746],[-1.738415265055603,43.304240724204746],[-1.5008809081259873,43.43493403765681],[-1.5008809081259873,43.50021874868275],[-1.4217027891494487,43.50021874868275],[-1.2633465511963715,43.36960802008134],[-0.78827783733714,43.17338241131842],[-0.6299215993840628,43.17338241131842],[-0.5507434804075241,43.107891451582724],[-0.23403100450136977,43.107891451582724],[-0.15485288552483115,43.04235932809431],[0.32021582833440043,43.04235932809431],[0.399393947310939,42.97678606987975],[1.5870657319590182,42.97678606987975],[1.6662438509355566,42.91117170612182],[1.9037782078651726,42.91117170612182],[2.3788469217244037,42.582484336522434],[2.4580250407009427,42.582484336522434],[2.774737516607097,42.31879757545854],[2.774737516607097,42.252773795764625],[2.5372031596774813,42.054457935977936],[2.4580250407009427,42.054457935977936],[2.2204906837713265,41.85577595252569],[2.1413125647947884,41.85577595252569],[1.982956326841711,41.72311831699367]]],[[[-2.6093745737975276,40.253245047111896],[-2.4510183358444504,40.38767093089251],[-2.292662097891373,40.253245047111896],[-2.292662097891373,39.98391629231748],[-2.371840216867912,39.91648494164374],[-2.530196454820989,39.91648494164374],[-2.6093745737975276,40.051308014465825],[-2.6093745737975276,40.253245047111896]]],[[[8.554740201894415,40.45482412429024],[8.396383963941338,40.5890108372178],[8.317205844964798,40.5890108372178],[8.317205844964798,40.723037751023476],[8.554740201894415,40.723037751023476],[9.029808915753646,40.923777889851785],[9.029808915753646,40.65604428647774],[8.87145267780057,40.45482412429024],[8.87145267780057,40.32047789332046],[8.713096439847492,40.11866007174324],[8.633918320870954,40.11866007174324],[8.554740201894415,40.45482412429024]]],[[[8.950630796777109,41.78946741145755],[8.79227455882403,41.92204390818099],[8.713096439847492,42.384780550054316],[8.87145267780057,42.51662396110179],[9.029808915753646,42.51662396110179],[9.108987034730184,42.582484336522434],[9.3465213916598,42.582484336522434],[9.425699510636338,42.450722688800134],[9.425699510636338,41.92204390818099],[9.267343272683263,41.78946741145755],[9.188165153706723,41.59029859674082],[9.029808915753646,41.59029859674082],[8.950630796777109,41.78946741145755]]],[[[0.0035033524282460497,51.68648649900053],[0.0035033524282460497,51.44747774263993],[0.16185959038132325,51.26776224558266],[0.16185959038132325,51.147733525965265],[0.0035033524282460497,51.027530192258126],[-0.15485288552483115,51.087653680605236],[-0.47156536143098554,51.087653680605236],[-0.5507434804075241,51.147733525965265],[-1.8175933840321417,51.147733525965265],[-1.8967715030086802,51.20776971777026],[-1.8967715030086802,51.32771109909504],[-1.5800590271025259,51.56706956854059],[-1.34252467017291,51.924795372704935],[-1.2633465511963715,52.340150078969806],[-1.1049903132432943,52.57653137589614],[-0.8674559563136784,52.753356755554165],[-0.7090997183606013,52.812210777575544],[-0.23403100450136977,52.812210777575544],[0.16185959038132325,52.22169637237102],[0.16185959038132325,52.04368717062632],[0.08268147140478464,51.98426316562594],[0.08268147140478464,51.746129354692286],[0.0035033524282460497,51.68648649900053]]],[[[-3.2427995256098363,51.924795372704935],[-4.192936953328299,51.924795372704935],[-4.509649429234454,51.746129354692286],[-4.905540024117147,51.746129354692286],[-5.143074381046763,51.98426316562594],[-4.984718143093686,52.04368717062632],[-4.826361905140608,52.04368717062632],[-4.74718378616407,52.10306737906941],[-4.588827548210994,52.10306737906941],[-4.034580715375222,52.45842843432258],[-4.034580715375222,52.57653137589614],[-4.113758834351761,52.63551704752172],[-4.113758834351761,52.87102090221662],[-4.272115072304838,52.98850943194915],[-4.351293191281377,52.98850943194915],[-4.351293191281377,53.04718782364442],[-4.034580715375222,53.22295942825059],[-3.8762244774221455,53.22295942825059],[-3.7970463584456065,53.281462085397685],[-3.5595120015159916,53.281462085397685],[-3.4803338825394525,53.33992079354179],[-3.401155763562914,53.281462085397685],[-3.084443287656759,53.281462085397685],[-3.0052651686802205,53.16441282812481],[-2.8469089307271442,53.10582229116659],[-2.4510183358444504,53.10582229116659],[-2.2134839789148346,52.98850943194915],[-2.292662097891373,52.87102090221662],[-2.292662097891373,52.753356755554165],[-2.530196454820989,52.57653137589614],[-2.530196454820989,52.517501835661804],[-3.1636214066332977,52.04368717062632],[-3.2427995256098363,51.924795372704935]]],[[[-1.5800590271025259,53.281462085397685],[-1.738415265055603,53.281462085397685],[-1.8967715030086802,53.33992079354179],[-2.1343058599382965,53.51503316553661],[-2.1343058599382965,53.80600761171077],[-1.9759496219852188,53.98006434728784],[-1.8175933840321417,54.03799524154579],[-1.6592371460790647,54.03799524154579],[-1.5008809081259873,53.98006434728784],[-1.5008809081259873,53.86407052773041],[-1.4217027891494487,53.80600761171077],[-1.4217027891494487,53.51503316553661],[-1.5800590271025259,53.281462085397685]]],[[[-3.4803338825394525,55.016082760006775],[-3.6386901204925297,54.95890065436134],[-3.6386901204925297,55.24437041680807],[-3.5595120015159916,55.30133212857608],[-3.321977644586375,55.30133212857608],[-3.1636214066332977,55.24437041680807],[-2.9260870497036824,55.07322079138533],[-2.9260870497036824,55.016082760006775],[-3.4803338825394525,55.016082760006775]]],[[[-1.9759496219852188,55.30133212857608],[-1.8175933840321417,55.5287381084931],[-1.5800590271025259,55.585479378521974],[-1.5800590271025259,55.30133212857608],[-1.4217027891494487,55.07322079138533],[-1.8175933840321417,55.07322079138533],[-1.9759496219852188,55.18736462198333],[-1.9759496219852188,55.30133212857608]]],[[[-4.984718143093686,56.487342491110155],[-4.588827548210994,56.487342491110155],[-4.272115072304838,56.26293510095132],[-4.272115072304838,56.150466803912906],[-4.192936953328299,56.094166504912174],[-4.272115072304838,56.03782210588365],[-4.509649429234454,56.03782210588365],[-4.74718378616407,56.26293510095132],[-4.984718143093686,56.26293510095132],[-5.143074381046763,56.2067230026387],[-5.380608737976378,56.03782210588365],[-5.5389649759294555,56.094166504912174],[-5.459786856952918,56.150466803912906],[-5.459786856952918,56.31910309882144],[-5.380608737976378,56.31910309882144],[-5.222252500023301,56.431306793659296],[-5.063896262070224,56.431306793659296],[-4.984718143093686,56.487342491110155]]],[[[10.217480700401724,56.59928158809223],[10.375836938354803,56.54333408908417],[10.455015057331341,56.431306793659296],[10.692549414260958,56.431306793659296],[10.850905652214033,56.54333408908417],[10.930083771190573,56.431306793659296],[10.850905652214033,56.31910309882144],[10.692549414260958,56.31910309882144],[10.613371295284418,56.26293510095132],[10.296658819378264,56.26293510095132],[10.217480700401724,56.2067230026387],[10.217480700401724,55.981433607183945],[10.059124462448649,55.981433607183945],[9.97994634347211,55.925001009279235],[9.97994634347211,55.812003518268796],[9.742411986542493,55.812003518268796],[9.663233867565955,55.75543862664563],[9.663233867565955,55.585479378521974],[9.584055748589417,55.5287381084931],[9.504877629612878,55.585479378521974],[9.504877629612878,55.75543862664563],[9.663233867565955,55.981433607183945],[9.97994634347211,56.094166504912174],[9.97994634347211,56.37522699632825],[10.059124462448649,56.431306793659296],[10.059124462448649,56.82263060843277],[10.217480700401724,57.045274113976504],[10.217480700401724,57.37791672263566],[10.296658819378264,57.43320287080565],[10.296658819378264,57.598796866366584],[10.375836938354803,57.598796866366584],[10.455015057331341,57.488444942600395],[10.455015057331341,57.21179379842484],[10.296658819378264,57.045274113976504],[10.296658819378264,56.878357624020644],[10.217480700401724,56.82263060843277],[10.217480700401724,56.59928158809223]]],[[[-4.588827548210994,57.43320287080565],[-4.509649429234454,57.708972513566614],[-4.272115072304838,57.928795064983035],[-4.113758834351761,57.873905512781704],[-3.7970463584456065,57.65390672324624],[-3.7178682394690683,57.65390672324624],[-3.7178682394690683,57.488444942600395],[-3.8762244774221455,57.43320287080565],[-4.113758834351761,57.43320287080565],[-4.272115072304838,57.32258649589373],[-4.509649429234454,57.32258649589373],[-4.588827548210994,57.43320287080565]]],[[[14.730633482064425,37.18717283098158],[14.57227724411135,37.11815001254881],[14.413921006158272,37.11815001254881],[14.255564768205193,37.18717283098158],[14.097208530252116,37.39401312613473],[14.097208530252116,37.73798385442859],[14.334742887181731,37.94390657532082],[14.334742887181731,38.01247061254751],[14.493099125134808,38.01247061254751],[14.651455363087887,37.94390657532082],[14.888989720017502,37.73798385442859],[14.888989720017502,37.39401312613473],[14.730633482064425,37.18717283098158]]],[[[15.839127147735967,41.78946741145755],[15.997483385689044,41.78946741145755],[15.839127147735967,41.59029859674082],[15.839127147735967,41.45731705108101],[16.07666150466558,41.257541883469514],[16.23501774261866,41.19086953353128],[16.23501774261866,40.99061106981998],[16.393373980571738,40.789991196122294],[16.947620813407504,40.789991196122294],[16.947620813407504,40.723037751023476],[16.71008645647789,40.521937438137165],[16.71008645647789,40.253245047111896],[16.630908337501353,40.11866007174324],[16.472552099548274,39.98391629231748],[16.472552099548274,39.578735043821204],[16.551730218524813,39.51106669432087],[16.71008645647789,39.51106669432087],[16.947620813407504,39.375611924254024],[16.947620813407504,39.23999997786515],[16.868442694430968,39.23999997786515],[16.71008645647789,39.375611924254024],[16.630908337501353,39.375611924254024],[16.3141958615952,39.578735043821204],[16.07666150466558,39.578735043821204],[15.997483385689044,39.64636398627137],[15.997483385689044,39.78150350091132],[15.918305266712503,39.84901399895192],[15.918305266712503,40.11866007174324],[15.759949028759426,40.253245047111896],[15.759949028759426,40.38767093089251],[15.60159279080635,40.45482412429024],[15.60159279080635,40.5890108372178],[15.52241467182981,40.723037751023476],[15.284880314900196,40.923777889851785],[15.126524076947117,40.923777889851785],[15.04734595797058,40.99061106981998],[14.413921006158272,40.99061106981998],[14.334742887181731,41.05740409301621],[14.334742887181731,41.257541883469514],[14.255564768205193,41.324173941874356],[14.255564768205193,41.72311831699367],[14.730633482064425,41.72311831699367],[14.809811601040964,41.78946741145755],[15.364058433876732,41.78946741145755],[15.443236552853273,41.72311831699367],[15.759949028759426,41.72311831699367],[15.839127147735967,41.78946741145755]]],[[[12.117755555838652,42.64830378478247],[12.19693367481519,42.77981977948803],[12.355289912768267,42.845516266159436],[12.592824269697884,42.582484336522434],[12.592824269697884,42.12060394487803],[12.434468031744808,41.92204390818099],[12.276111793791728,41.92204390818099],[12.117755555838652,42.12060394487803],[12.117755555838652,42.64830378478247]]],[[[39.35502848376793,44.08591776890919],[39.513384721721,44.08591776890919],[39.59256284069754,44.150787894846225],[39.9092753166037,44.150787894846225],[39.98845343558023,44.21561641371018],[40.225987792509855,44.21561641371018],[40.30516591148639,44.08591776890919],[40.701056506369085,44.150787894846225],[40.78023462534562,44.02100606244894],[40.9385908632987,44.02100606244894],[41.09694710125178,44.08591776890919],[41.33448145818139,43.95605280216896],[41.33448145818139,43.82602172773287],[41.25530333920486,43.82602172773287],[41.09694710125178,43.695824762307176],[40.859412744322164,43.695824762307176],[40.78023462534562,43.63066413886863],[40.701056506369085,43.76094396775324],[40.54270026841601,43.76094396775324],[40.46352214943947,43.63066413886863],[39.750919078650625,43.63066413886863],[39.67174095967409,43.695824762307176],[39.43420660274447,43.695824762307176],[39.2758503647914,43.76094396775324],[39.19667224581485,43.891058014926536],[39.35502848376793,44.08591776890919]]],[[[19.481320620656742,44.60371231087539],[19.322964382703663,44.60371231087539],[19.164608144750588,44.73274357455727],[19.164608144750588,45.118832431320314],[19.322964382703663,45.118832431320314],[19.402142501680203,45.24719308163078],[19.481320620656742,45.24719308163078],[19.560498739633278,45.1830337620351],[19.481320620656742,45.118832431320314],[19.481320620656742,44.99030383314544],[19.63967685860982,44.92597661436875],[19.63967685860982,44.73274357455727],[19.481320620656742,44.60371231087539]]],[[[18.45200507396174,46.58479310986889],[18.610361311914815,46.58479310986889],[18.768717549867894,46.521521329162304],[19.00625190679751,46.331451173061666],[19.08543002577405,46.20452560241163],[19.08543002577405,46.07743052553037],[18.92707378782097,45.95016611682037],[18.92707378782097,45.88647046817823],[18.768717549867894,45.82273255305399],[18.768717549867894,45.75895239391538],[18.610361311914815,45.69513001337904],[18.3728269549852,45.69513001337904],[18.293648836008664,45.63126543421068],[18.056114479079046,45.63126543421068],[17.976936360102506,45.69513001337904],[17.73940200317289,45.69513001337904],[17.581045765219812,45.75895239391538],[17.42268952726674,45.88647046817823],[17.343511408290198,46.0138194766613],[17.343511408290198,46.331451173061666],[17.581045765219812,46.521521329162304],[17.73940200317289,46.58479310986889],[17.89775824112597,46.58479310986889],[17.976936360102506,46.64802238671821],[18.3728269549852,46.64802238671821],[18.45200507396174,46.58479310986889]]],[[[17.185155170337122,48.772388778704155],[17.105977051360583,48.64880009445992],[17.105977051360583,48.52503896772375],[17.026798932384047,48.463093778792924],[17.026798932384047,48.339074231774745],[16.868442694430968,48.339074231774745],[16.789264575454432,48.401105527965164],[16.789264575454432,48.58694107836399],[16.71008645647789,48.64880009445992],[16.15583962364212,48.64880009445992],[15.918305266712503,48.772388778704155],[15.52241467182981,48.772388778704155],[15.443236552853273,48.83411841504412],[15.443236552853273,49.08060522392491],[15.52241467182981,49.14211891528583],[15.839127147735967,49.019048313011005],[16.23501774261866,49.019048313011005],[16.551730218524813,48.895804893222795],[17.105977051360583,48.95744819768412],[17.343511408290198,49.20358937209181],[17.343511408290198,49.26501657947908],[17.660223884196355,49.51029262238007],[17.73940200317289,49.63267077096195],[17.89775824112597,49.57150336452941],[17.89775824112597,49.449038558554676],[17.81858012214943,49.32640052272148],[17.660223884196355,49.26501657947908],[17.42268952726674,49.08060522392491],[17.343511408290198,48.895804893222795],[17.185155170337122,48.772388778704155]]],[[[9.108987034730184,47.27797296216052],[8.950630796777109,47.15232400977682],[8.79227455882403,47.08943549658415],[8.633918320870954,47.08943549658415],[8.475562082917875,46.96353049385227],[8.475562082917875,46.90051404381007],[8.396383963941338,46.96353049385227],[7.4462465362228745,46.96353049385227],[7.367068417246336,46.83745498789064],[7.129534060316719,46.77435334620594],[6.971177822363643,46.64802238671821],[6.891999703387104,46.521521329162304],[5.070902966926717,46.521521329162304],[4.754190491020562,46.39485033969558],[4.437478015114407,46.1409992414052],[4.358299896137869,45.95016611682037],[4.120765539208253,45.82273255305399],[4.120765539208253,45.50340977178681],[4.041587420231715,45.4394187348095],[4.041587420231715,45.3113103661428],[3.883231182278637,45.1830337620351],[3.883231182278637,44.86160748184003],[4.120765539208253,44.73274357455727],[4.120765539208253,44.47451389280333],[3.962409301255176,44.280403299104506],[3.804053063302099,44.280403299104506],[3.6456968253490216,44.21561641371018],[3.3289843494428673,43.95605280216896],[3.17062811148979,43.891058014926536],[3.0122718735367124,43.891058014926536],[2.933093754560174,43.76094396775324],[2.4580250407009427,43.76094396775324],[2.3788469217244037,43.695824762307176],[1.982956326841711,43.695824762307176],[1.7454219699120952,43.82602172773287],[1.5870657319590182,43.82602172773287],[1.4287094940059408,43.891058014926536],[1.3495313750294022,44.08591776890919],[1.191175137076325,44.21561641371018],[1.2703532560528634,44.53913398341747],[1.4287094940059408,44.668248849697676],[1.5078876129824794,44.79719646027906],[1.5078876129824794,44.92597661436875],[1.6662438509355566,45.118832431320314],[1.824600088888634,45.1830337620351],[2.06213444581825,45.1830337620351],[2.1413125647947884,45.24719308163078],[2.5372031596774813,45.24719308163078],[2.61638127865402,45.3113103661428],[3.2498062304663287,45.3113103661428],[3.3289843494428673,45.37538559175696],[3.3289843494428673,45.63126543421068],[3.2498062304663287,45.69513001337904],[3.0122718735367124,45.69513001337904],[3.0122718735367124,45.75895239391538],[2.6955593976305585,46.0138194766613],[2.5372031596774813,46.0138194766613],[2.4580250407009427,46.07743052553037],[2.1413125647947884,46.07743052553037],[2.1413125647947884,46.20452560241163],[2.2204906837713265,46.331451173061666],[2.3788469217244037,46.39485033969558],[2.4580250407009427,46.521521329162304],[2.4580250407009427,46.90051404381007],[2.3788469217244037,46.96353049385227],[2.3788469217244037,47.15232400977682],[2.299668802747865,47.215169838097665],[2.299668802747865,47.34073336272368],[2.2204906837713265,47.403451020689936],[2.299668802747865,47.46612591710613],[2.299668802747865,47.653893849681474],[2.4580250407009427,47.778858322642996],[2.4580250407009427,47.90365130673589],[2.61638127865402,48.090518928994754],[2.61638127865402,48.21488257014563],[2.933093754560174,48.401105527965164],[2.933093754560174,48.58694107836399],[3.0914499925132515,48.83411841504412],[3.2498062304663287,48.895804893222795],[3.2498062304663287,49.019048313011005],[3.17062811148979,49.08060522392491],[3.17062811148979,49.26501657947908],[3.2498062304663287,49.3877411872304],[3.3289843494428673,49.3877411872304],[3.6456968253490216,49.57150336452941],[4.120765539208253,49.57150336452941],[4.199943658184792,49.63267077096195],[4.5166561340909475,49.63267077096195],[4.595834253067484,49.693794827773516],[4.754190491020562,49.693794827773516],[4.8333686099971,49.63267077096195],[5.070902966926717,49.63267077096195],[5.150081085903254,49.693794827773516],[5.150081085903254,49.81591283759781],[5.070902966926717,49.937857285488434],[5.150081085903254,49.99876439039119],[5.3084373238563325,49.99876439039119],[5.46679356180941,50.05962806510003],[5.941862275668641,50.48445667129585],[6.100218513621718,50.54497244933106],[6.179396632598257,50.665873367746926],[6.179396632598257,50.78660002493678],[6.258574751574795,50.84689797693559],[6.258574751574795,51.027530192258126],[6.337752870551334,51.147733525965265],[6.57528722748095,51.32771109909504],[6.733643465434027,51.32771109909504],[6.971177822363643,51.56706956854059],[6.971177822363643,52.10306737906941],[7.129534060316719,52.28094514058942],[7.129534060316719,52.39931117950729],[6.812821584410566,52.57653137589614],[6.891999703387104,52.63551704752172],[6.891999703387104,52.812210777575544],[6.971177822363643,52.929787122594384],[7.129534060316719,53.04718782364442],[7.367068417246336,53.04718782364442],[7.604602774175951,53.281462085397685],[8.000493369058644,53.281462085397685],[8.079671488035183,53.33992079354179],[8.317205844964798,53.33992079354179],[8.396383963941338,53.398335546780245],[8.713096439847492,53.398335546780245],[8.79227455882403,53.456706339331866],[9.029808915753646,53.456706339331866],[9.108987034730184,53.51503316553661],[9.108987034730184,53.6315548968702],[9.267343272683263,53.74790069791553],[9.425699510636338,53.74790069791553],[9.504877629612878,53.80600761171077],[9.504877629612878,54.09588211946808],[9.663233867565955,54.2115238090507],[9.663233867565955,54.32698938270644],[9.584055748589417,54.3846561161615],[9.584055748589417,54.67232910301959],[9.504877629612878,54.78708991721852],[9.742411986542493,54.78708991721852],[9.97994634347211,54.67232910301959],[9.97994634347211,54.49985745755186],[10.138302581425187,54.3846561161615],[10.375836938354803,54.3846561161615],[10.692549414260958,54.26927861237885],[10.850905652214033,54.26927861237885],[10.930083771190573,54.32698938270644],[11.009261890167114,54.26927861237885],[10.930083771190573,54.2115238090507],[10.930083771190573,54.03799524154579],[11.009261890167114,53.98006434728784],[11.563508723002881,53.92208944115589],[11.642686841979419,53.98006434728784],[11.642686841979419,54.09588211946808],[11.801043079932498,54.15372497671141],[12.19693367481519,54.15372497671141],[12.276111793791728,54.2115238090507],[12.434468031744808,54.2115238090507],[12.592824269697884,54.32698938270644],[12.909536745604038,54.32698938270644],[12.98871486458058,54.3846561161615],[13.067892983557114,54.26927861237885],[13.226249221510193,54.26927861237885],[13.384605459463268,54.09588211946808],[13.701317935369424,54.09588211946808],[13.859674173322503,53.98006434728784],[13.859674173322503,53.86407052773041],[14.176386649228656,53.68974979128277],[14.57227724411135,53.68974979128277],[14.809811601040964,53.98006434728784],[15.126524076947117,54.09588211946808],[15.364058433876732,54.09588211946808],[15.680770909782888,54.2115238090507],[16.07666150466558,54.2115238090507],[16.23501774261866,54.26927861237885],[16.551730218524813,54.49985745755186],[16.947620813407504,54.55739205832821],[17.105977051360583,54.67232910301959],[17.501867646243277,54.67232910301959],[17.660223884196355,54.78708991721852],[18.293648836008664,54.78708991721852],[18.53118319293828,54.55739205832821],[18.53118319293828,54.44227880898926],[18.689539430891354,54.32698938270644],[18.847895668844433,54.26927861237885],[19.164608144750588,54.26927861237885],[19.243786263727127,54.2115238090507],[19.402142501680203,54.2115238090507],[19.63967685860982,54.32698938270644],[19.798033096562893,54.32698938270644],[19.877211215539436,54.26927861237885],[20.352279929398666,54.26927861237885],[20.66899240530482,54.09588211946808],[21.22323923814059,54.09588211946808],[21.30241735711713,54.03799524154579],[22.094198546882517,54.03799524154579],[22.173376665859053,54.09588211946808],[22.648445379718282,54.09588211946808],[22.727623498694825,54.15372497671141],[23.44022656948367,54.15372497671141],[23.756939045389824,54.32698938270644],[24.07365152129598,54.09588211946808],[24.469542116178673,54.03799524154579],[24.469542116178673,53.92208944115589],[24.548720235155212,53.80600761171077],[24.390363997202133,53.68974979128277],[23.994473402319443,53.6315548968702],[23.836117164366364,53.51503316553661],[23.836117164366364,53.456706339331866],[23.677760926413285,53.398335546780245],[23.59858280743675,53.281462085397685],[23.12351409357752,53.281462085397685],[23.044335974600976,53.22295942825059],[22.252554784835592,53.22295942825059],[22.173376665859053,53.16441282812481],[21.856664189952898,53.16441282812481],[21.77748607097636,53.10582229116659],[21.619129833023283,53.10582229116659],[21.539951714046744,53.04718782364442],[20.985704881210975,53.04718782364442],[20.906526762234435,52.98850943194915],[20.58981428632828,52.98850943194915],[20.510636167351745,52.929787122594384],[19.322964382703663,52.929787122594384],[19.243786263727127,52.87102090221662],[18.92707378782097,52.87102090221662],[18.847895668844433,52.753356755554165],[18.53118319293828,52.753356755554165],[18.3728269549852,52.63551704752172],[18.293648836008664,52.63551704752172],[18.135292598055585,52.39931117950729],[17.81858012214943,52.16240378244538],[17.660223884196355,51.924795372704935],[17.660223884196355,51.626799900482375],[17.81858012214943,51.38761626813005],[17.81858012214943,51.20776971777026],[17.89775824112597,51.147733525965265],[17.89775824112597,50.78660002493678],[17.81858012214943,50.84689797693559],[17.501867646243277,50.84689797693559],[17.343511408290198,50.78660002493678],[16.868442694430968,50.96736307162264],[16.71008645647789,50.96736307162264],[16.630908337501353,51.027530192258126],[16.393373980571738,51.027530192258126],[16.3141958615952,51.087653680605236],[15.52241467182981,51.087653680605236],[15.443236552853273,51.027530192258126],[15.284880314900196,51.027530192258126],[14.651455363087887,50.48445667129585],[14.413921006158272,50.48445667129585],[14.334742887181731,50.4238973631784],[14.334742887181731,50.241958379180055],[13.701317935369424,49.75487552119618],[13.701317935369424,49.693794827773516],[13.463783578439807,49.51029262238007],[12.830358626627499,49.26501657947908],[12.434468031744808,48.95744819768412],[12.434468031744808,48.64880009445992],[12.276111793791728,48.52503896772375],[12.276111793791728,48.401105527965164],[12.355289912768267,48.339074231774745],[12.513646150721344,48.339074231774745],[12.751180507650961,48.52503896772375],[12.98871486458058,48.58694107836399],[13.147071102533653,48.71061599989796],[13.463783578439807,48.71061599989796],[13.622139816392885,48.83411841504412],[13.622139816392885,48.895804893222795],[13.938852292299039,48.895804893222795],[14.018030411275578,48.83411841504412],[14.018030411275578,48.58694107836399],[13.542961697416347,48.276999906896364],[13.542961697416347,48.21488257014563],[13.226249221510193,47.96598344567124],[13.147071102533653,47.96598344567124],[12.98871486458058,47.84127625979073],[12.434468031744808,47.84127625979073],[12.19693367481519,48.21488257014563],[12.038577436862113,48.21488257014563],[11.880221198909037,48.15272223847916],[11.721864960955958,48.028272658931805],[11.325974366073266,48.028272658931805],[11.246796247096727,47.96598344567124],[11.16761812812019,48.090518928994754],[10.930083771190573,48.090518928994754],[10.771727533237495,47.84127625979073],[10.296658819378264,47.653893849681474],[10.059124462448649,47.653893849681474],[9.97994634347211,47.591347350195534],[9.742411986542493,47.591347350195534],[9.663233867565955,47.591347350195534],[9.584055748589417,47.653893849681474],[9.425699510636338,47.653893849681474],[9.3465213916598,47.591347350195534],[9.3465213916598,47.46612591710613],[9.108987034730184,47.34073336272368],[9.108987034730184,47.27797296216052]],[[8.633918320870954,47.403451020689936],[8.633918320870954,47.27797296216052],[8.713096439847492,47.215169838097665],[8.950630796777109,47.215169838097665],[9.029808915753646,47.27797296216052],[9.029808915753646,47.403451020689936],[8.950630796777109,47.46612591710613],[8.713096439847492,47.46612591710613],[8.633918320870954,47.403451020689936]],[[7.287890298269796,47.653893849681474],[7.20871217929326,47.716397513242406],[7.0503559413401815,47.716397513242406],[6.971177822363643,47.653893849681474],[6.971177822363643,47.46612591710613],[7.129534060316719,47.27797296216052],[7.287890298269796,47.27797296216052],[7.367068417246336,47.34073336272368],[7.367068417246336,47.46612591710613],[7.287890298269796,47.52875803316313],[7.287890298269796,47.653893849681474]],[[8.396383963941338,47.778858322642996],[8.396383963941338,47.653893849681474],[8.475562082917875,47.591347350195534],[8.713096439847492,47.591347350195534],[8.79227455882403,47.653893849681474],[8.79227455882403,47.778858322642996],[8.713096439847492,47.84127625979073],[8.475562082917875,47.84127625979073],[8.396383963941338,47.778858322642996]],[[6.100218513621718,49.693794827773516],[5.545971680785947,49.693794827773516],[5.46679356180941,49.63267077096195],[5.46679356180941,49.51029262238007],[5.545971680785947,49.449038558554676],[5.862684156692102,49.449038558554676],[5.941862275668641,49.3877411872304],[6.100218513621718,49.3877411872304],[6.179396632598257,49.449038558554676],[6.179396632598257,49.63267077096195],[6.100218513621718,49.693794827773516]],[[9.3465213916598,49.81591283759781],[9.3465213916598,49.693794827773516],[9.425699510636338,49.63267077096195],[9.584055748589417,49.63267077096195],[9.663233867565955,49.693794827773516],[9.663233867565955,49.81591283759781],[9.584055748589417,49.87690676348212],[9.425699510636338,49.87690676348212],[9.3465213916598,49.81591283759781]]],[[[22.173376665859053,49.019048313011005],[22.015020427905977,49.019048313011005],[21.935842308929438,48.95744819768412],[21.144061119164054,48.95744819768412],[20.74817052428136,49.14211891528583],[20.66899240530482,49.26501657947908],[20.66899240530482,49.3877411872304],[20.827348643257896,49.51029262238007],[21.144061119164054,49.63267077096195],[22.015020427905977,49.63267077096195],[22.410911022788667,49.449038558554676],[22.410911022788667,49.20358937209181],[22.173376665859053,49.019048313011005]]],[[[25.3405014249206,51.20776971777026],[25.023788949014442,51.20776971777026],[24.786254592084827,51.38761626813005],[24.70707647310829,51.507295512706435],[24.70707647310829,51.98426316562594],[24.786254592084827,52.10306737906941],[25.023788949014442,52.28094514058942],[25.3405014249206,52.28094514058942],[25.578035781850215,52.10306737906941],[25.65721390082675,51.98426316562594],[25.65721390082675,51.507295512706435],[25.578035781850215,51.38761626813005],[25.3405014249206,51.20776971777026]]],[[[11.246796247096727,54.72973154047351],[11.16761812812019,54.901674476931255],[11.325974366073266,54.95890065436134],[11.325974366073266,54.901674476931255],[11.484330604026344,54.78708991721852],[11.721864960955958,54.78708991721852],[11.642686841979419,54.72973154047351],[11.246796247096727,54.72973154047351]]],[[[23.281870331530595,55.24437041680807],[23.281870331530595,55.07322079138533],[23.12351409357752,54.95890065436134],[22.8859797366479,54.95890065436134],[22.569267260741746,54.84440423031318],[22.252554784835592,54.84440423031318],[22.173376665859053,54.901674476931255],[21.77748607097636,54.901674476931255],[21.460773595070208,55.016082760006775],[21.38159547609367,55.07322079138533],[21.38159547609367,55.18736462198333],[21.460773595070208,55.30133212857608],[21.619129833023283,55.35824975537334],[21.856664189952898,55.35824975537334],[21.935842308929438,55.4151232953988],[22.80680161767136,55.4151232953988],[23.281870331530595,55.24437041680807]]],[[[10.692549414260958,55.35824975537334],[10.692549414260958,55.13031474612889],[10.296658819378264,55.13031474612889],[10.138302581425187,55.24437041680807],[9.97994634347211,55.24437041680807],[9.90076822449557,55.35824975537334],[9.821590105519032,55.35824975537334],[10.059124462448649,55.5287381084931],[10.217480700401724,55.585479378521974],[10.375836938354803,55.585479378521974],[10.375836938354803,55.5287381084931],[10.534193176307879,55.4151232953988],[10.692549414260958,55.35824975537334]]],[[[16.23501774261866,56.82263060843277],[16.3141958615952,56.766859498037576],[16.07666150466558,56.487342491110155],[16.07666150466558,56.37522699632825],[15.918305266712503,56.31910309882144],[15.918305266712503,56.2067230026387],[15.680770909782888,56.2067230026387],[15.60159279080635,56.26293510095132],[15.126524076947117,56.26293510095132],[15.04734595797058,56.37522699632825],[14.730633482064425,56.37522699632825],[14.651455363087887,56.31910309882144],[14.651455363087887,56.2067230026387],[14.334742887181731,56.094166504912174],[14.334742887181731,55.981433607183945],[14.176386649228656,55.868524312745485],[14.176386649228656,55.69882963878293],[14.255564768205193,55.585479378521974],[14.176386649228656,55.47195274696405],[13.463783578439807,55.47195274696405],[13.384605459463268,55.4151232953988],[13.147071102533653,55.4151232953988],[13.067892983557114,55.47195274696405],[13.067892983557114,55.69882963878293],[12.98871486458058,55.75543862664563],[12.98871486458058,55.868524312745485],[12.830358626627499,55.981433607183945],[12.592824269697884,55.981433607183945],[12.513646150721344,55.925001009279235],[12.513646150721344,55.585479378521974],[12.355289912768267,55.585479378521974],[12.276111793791728,55.5287381084931],[12.276111793791728,55.4151232953988],[12.434468031744808,55.30133212857608],[12.276111793791728,55.24437041680807],[12.117755555838652,55.24437041680807],[12.038577436862113,55.18736462198333],[12.038577436862113,55.07322079138533],[11.880221198909037,55.07322079138533],[11.880221198909037,55.13031474612889],[11.642686841979419,55.30133212857608],[11.325974366073266,55.30133212857608],[11.16761812812019,55.69882963878293],[11.405152485049804,55.75543862664563],[11.563508723002881,55.868524312745485],[11.721864960955958,55.868524312745485],[11.721864960955958,55.75543862664563],[11.801043079932498,55.69882963878293],[12.038577436862113,55.69882963878293],[12.117755555838652,55.75543862664563],[12.117755555838652,55.981433607183945],[12.038577436862113,56.03782210588365],[12.19693367481519,56.094166504912174],[12.592824269697884,56.094166504912174],[12.672002388674422,56.150466803912906],[12.672002388674422,56.26293510095132],[12.751180507650961,56.37522699632825],[12.98871486458058,56.487342491110155],[12.98871486458058,56.71104429179035],[12.909536745604038,56.766859498037576],[12.751180507650961,56.766859498037576],[12.434468031744808,56.989679375483256],[12.19693367481519,57.32258649589373],[12.19693367481519,57.43320287080565],[12.038577436862113,57.54364294031978],[12.038577436862113,57.65390672324624],[11.959399317885573,57.708972513566614],[11.721864960955958,57.708972513566614],[11.880221198909037,57.928795064983035],[11.880221198909037,58.09319942259927],[12.117755555838652,58.09319942259927],[12.19693367481519,57.928795064983035],[12.355289912768267,57.81897190547162],[12.355289912768267,57.65390672324624],[12.276111793791728,57.598796866366584],[12.276111793791728,57.37791672263566],[12.355289912768267,57.32258649589373],[13.305427340486732,57.32258649589373],[13.384605459463268,57.37791672263566],[13.384605459463268,57.488444942600395],[13.305427340486732,57.54364294031978],[13.542961697416347,57.708972513566614],[13.622139816392885,57.598796866366584],[13.622139816392885,57.37791672263566],[13.780496054345962,57.267212188486646],[13.859674173322503,57.267212188486646],[13.938852292299039,57.267212188486646],[14.097208530252116,57.10082476289893],[14.493099125134808,57.10082476289893],[14.651455363087887,57.045274113976504],[14.730633482064425,56.93404054595196],[15.205702195923658,56.93404054595196],[15.284880314900196,56.878357624020644],[15.52241467182981,56.878357624020644],[15.60159279080635,56.82263060843277],[16.23501774261866,56.82263060843277]],[[14.57227724411135,56.487342491110155],[14.651455363087887,56.431306793659296],[14.809811601040964,56.431306793659296],[14.888989720017502,56.487342491110155],[14.888989720017502,56.766859498037576],[14.809811601040964,56.82263060843277],[14.651455363087887,56.82263060843277],[14.57227724411135,56.766859498037576],[14.57227724411135,56.487342491110155]]],[[[11.563508723002881,58.1479127865338],[11.484330604026344,58.20258211194616],[11.563508723002881,58.257207402454235],[11.801043079932498,58.257207402454235],[11.801043079932498,58.1479127865338],[11.563508723002881,58.1479127865338]]]]}}
