{"type":"Feature","properties":{"id":"sakerfalke","sourceUrl":"https://commons.wikimedia.org/wiki/File:FalcoCherrugIUCN2019_2.png","author":"Alexander K\u00fcrthy","license":"CC BY-SA 3.0","licenseUrl":"https://creativecommons.org/licenses/by-sa/3.0","sourceImageSha256":"84ad7d2e5b974be554d389d0ccd2b679452ce95b62ca5a62d51e23bc4a8b2f77","registration":{"status":"candidate","projection":"merc","proj_string":"+proj=merc +R=1 +lon_0=0","image_width":1280,"image_height":905,"parameters_1000px":[390.48799859171834,-390.24893029405666,138.90191952502627,595.8198971467408],"pixel_transform_native":[499.82463819739945,-499.5186307763925,177.79445699203364,762.6494683478282],"transform_definition":"pixel_x=sx*projected_x+tx; pixel_y=sy*projected_y+ty; inverse: lonlat = pyproj.Proj(proj_string)((px-tx)/sx,(py-ty)/sy,inverse=True)","coast_count":6583,"coast_median_px_at1000":0.27157360315322876,"coast_p90_px_at1000":2.0656673908233643,"coast_rmse_px_at1000":1.5948377847671509,"coast_rmse_capped15_px_at1000":1.5948377847671509,"sift_matches":370,"sift_inliers":278,"sift_inlier_median_px":0.5316080122333093,"sift_affine_initialization":[[1.2988012575427308,-4.193947391924631e-05,-15.155735599289017],[4.193947391924631e-05,1.2988012575427308,-214.9419212445115]],"independent_border_validation":{"method":"Natural Earth international boundaries >0.22 degrees away from coast; not used in fitting; nearest pale raster boundary pixels; only unsaturated grey base regions sampled","count":3157,"median_px_at1000":1.2792940139770508,"p90_px_at1000":5.254939079284668,"rmse_px_at1000":3.3275809288024902},"inverse_roundtrip_checks":[{"name":"Gibraltar","lonlat":[-5.6,36],"pixel_native":[128.94237752488306,425.8363049975827],"roundtrip_degree_error":8.881784197001252e-16},{"name":"Lindesnes","lonlat":[7.05,57.98],"pixel_native":[239.2957356069286,138.99941714441434],"roundtrip_degree_error":8.881784197001252e-16},{"name":"CapeComorin","lonlat":[77.55,8.08],"pixel_native":[854.308521755878,691.9713937808339],"roundtrip_degree_error":1.4210854715202004e-14},{"name":"Tokyo","lonlat":[139.7,35.7],"pixel_native":[1396.4793679850584,429.0630889564597],"roundtrip_degree_error":0.0},{"name":"Cairo","lonlat":[31.2,30.0],"pixel_native":[449.97032830901554,488.2608152530218],"roundtrip_degree_error":7.105427357601002e-15}]},"includedColors":["#00FF00","#008000","#00FFFF","#007FFF"],"adaptation":"Hue-based extraction of current seasonal colors; inverse Mercator registration; 3px closing of printed border gaps; 0.45px contour simplification; components smaller than 4 source pixels omitted; antimeridian split."},"geometry":{"type":"MultiPolygon","coordinates":[[[[54.47364922580293,25.873072007484687],[54.47364922580293,25.976231485511345],[54.58828098889432,25.873072007484687],[54.47364922580293,25.873072007484687]]],[[[39.91541531319683,20.28340725473159],[39.456888260831285,20.28340725473159],[39.57152002392267,20.390959111165856],[39.57152002392267,20.605837518425105],[39.11299297155713,21.141704148289147],[39.11299297155713,21.675639704445153],[38.88372944537436,21.888664408946244],[38.99836120846574,22.101371379586208],[38.99836120846574,22.419830723879322],[38.88372944537436,22.52582232755779],[38.88372944537436,22.843308396224412],[38.65446591919158,23.265471669256808],[38.31057062991742,23.58122024666197],[38.19593886682603,23.58122024666197],[38.081307103734645,23.791298828562073],[37.852043577551875,23.791298828562073],[37.852043577551875,24.105780295070165],[37.737411814460486,24.21043661415831],[37.50814828827772,24.21043661415831],[37.39351652518632,24.523889157166657],[37.04962123591218,24.94061064240504],[37.04962123591218,25.148445677815097],[36.476462420455235,25.563053646034586],[36.476462420455235,26.0793005488301],[36.361830657363846,26.182278943444718],[36.361830657363846,26.387962717554927],[36.13256713118108,26.593280803796016],[36.01793536808969,26.593280803796016],[36.01793536808969,26.695802093815622],[35.78867184190691,26.9005679395917],[35.55940831572414,27.512634195951524],[35.330144789541365,27.614317341815532],[34.986249500267206,27.918799989434028],[34.41309068481027,27.918799989434028],[34.29845892171889,27.71590617684956],[34.06919539553612,27.614317341815532],[34.06919539553612,26.593280803796016],[34.986249500267206,24.94061064240504],[35.215513026449976,24.732424415593155],[35.215513026449976,24.523889157166657],[35.44477655263276,24.41949132207552],[35.44477655263276,24.315007049012298],[35.78867184190691,24.00103837067815],[35.78867184190691,23.791298828562073],[35.55940831572414,23.686301775551875],[35.55940831572414,23.37080490569789],[35.78867184190691,23.265471669256808],[35.78867184190691,22.94897317843732],[36.01793536808969,22.73756146236888],[36.13256713118108,22.73756146236888],[36.705725946638005,22.20760494723413],[36.93498947282078,22.101371379586208],[36.93498947282078,21.56900897444427],[37.27888476209494,21.248647012900417],[37.27888476209494,19.528472067774775],[37.39351652518632,19.420332140562497],[37.39351652518632,18.98705576753723],[38.65446591919158,18.008084984188617],[38.99836120846574,17.35238415768956],[39.11299297155713,16.804165951491026],[39.456888260831285,16.364445320340796],[40.03004707628822,16.364445320340796],[40.1446788393796,16.58443126494909],[40.259310602471,16.364445320340796],[40.259310602471,16.034001772984755],[40.37394236556238,15.923731512193307],[40.60320589174515,15.923731512193307],[40.94710118101931,15.592558744080089],[41.0617329441107,15.592558744080089],[41.0617329441107,15.37147901814791],[40.717837654836536,15.37147901814791],[40.60320589174515,15.260850929026004],[40.60320589174515,15.039420205941507],[40.83246941792793,14.81775931216919],[40.717837654836536,14.706843513662106],[40.717837654836536,14.151426507823668],[40.83246941792793,14.040178233292501],[40.83246941792793,13.59464864731374],[40.94710118101931,13.483134106163458],[40.94710118101931,13.036559300684287],[41.0617329441107,12.924788440860915],[41.0617329441107,12.477208449846959],[41.40562823338485,11.804393493724351],[41.40562823338485,11.579749610472598],[41.74952352265902,10.90474754134559],[42.32268233811595,10.341069011857046],[43.01047291666427,10.002371926206587],[43.5836317321212,9.889393777102839],[43.92752702139536,9.550227928838849],[43.92752702139536,9.323928803644046],[43.69826349521259,8.984205857964652],[42.32268233811595,8.303815361482068],[42.09341881193318,8.076751369839979],[41.52025999647624,7.849559610280843],[40.717837654836536,7.167252794993455],[40.60320589174515,7.167252794993455],[40.259310602471,6.825709693641874],[40.1446788393796,6.597878068093259],[39.80078355010544,6.483922719328945],[39.57152002392267,6.2559351740468525],[39.227624734648515,6.2559351740468525],[38.42520239300881,5.799665179735153],[37.39351652518632,5.571389883664669],[37.16425299900355,5.343025835991964],[36.93498947282078,4.886045871060185],[36.93498947282078,3.9711795219320245],[37.04962123591218,3.8567450764379516],[37.04962123591218,3.1698307154291006],[37.16425299900355,3.055297957385486],[37.16425299900355,2.5970492765066213],[37.27888476209494,2.4824599785868267],[37.27888476209494,2.0240079989543864],[37.39351652518632,1.9093735966140089],[37.39351652518632,1.4507641074328754],[37.50814828827772,1.3360960586782997],[37.50814828827772,0.9920616325515412],[37.6227800513691,0.8773749279365888],[37.6227800513691,0.41859754722083853],[37.737411814460486,0.30389785917634243],[37.737411814460486,-2.448203082574311],[37.6227800513691,-2.5627953988283165],[37.6227800513691,-2.7919488023320094],[37.39351652518632,-3.2501178968394924],[36.93498947282078,-3.593609841675015],[36.591094183546616,-3.593609841675015],[36.476462420455235,-3.7080790350278194],[36.247198894272465,-3.7080790350278194],[36.13256713118108,-3.593609841675015],[35.55940831572414,-3.593609841675015],[35.44477655263276,-3.4791262839298516],[35.215513026449976,-3.4791262839298516],[34.871617737175825,-3.135593978967515],[34.986249500267206,-2.9065089752123923],[34.986249500267206,-2.6773774578447904],[35.100881263358595,-2.5627953988283165],[35.100881263358595,-2.1043691663253794],[35.330144789541365,-1.6458081194134386],[35.330144789541365,2.826196233235428],[35.215513026449976,2.940752977803975],[35.215513026449976,3.9711795219320245],[35.100881263358595,4.08559810302599],[35.100881263358595,4.4287541212443156],[34.871617737175825,4.886045871060185],[34.41309068481027,5.343025835991964],[34.29845892171889,5.343025835991964],[33.83993186935334,5.799665179735153],[33.725300106261955,5.799665179735153],[33.381404816987796,6.141903868739706],[33.26677305389641,6.141903868739706],[32.92287776462225,6.483922719328945],[32.80824600153086,6.483922719328945],[32.4643507122567,6.825709693641874],[31.776560133708383,7.167252794993455],[31.203401318251448,7.622243585051558],[31.088769555160063,7.622243585051558],[29.827820161154808,8.870893463375117],[29.827820161154808,9.210723959311482],[29.598556634972038,9.663321351527685],[29.598556634972038,9.889393777102839],[29.48392487188065,10.002371926206587],[29.48392487188065,10.341069011857046],[29.369293108789265,10.453887505714539],[29.369293108789265,11.017356961803806],[29.48392487188065,11.129923308314636],[29.48392487188065,12.253126197714762],[29.598556634972038,12.36519133958192],[29.598556634972038,13.259949232336707],[29.25466134569788,13.7061107270562],[29.25466134569788,13.817519948441884],[28.796134293332333,14.262620346142892],[28.222975477875398,14.373759356302463],[28.108343714784013,14.484843147373327],[27.879080188601236,14.484843147373327],[27.76444842550985,14.595871329451114],[27.535184899327078,14.595871329451114],[27.420553136235693,14.706843513662106],[27.19128961005292,14.706843513662106],[27.07665784696153,14.81775931216919],[26.732762557687373,14.81775931216919],[26.618130794595984,14.928618338177749],[24.554759058951024,14.928618338177749],[24.44012729585964,14.81775931216919],[23.981600243494093,14.81775931216919],[23.866968480402704,14.706843513662106],[23.40844142803716,14.706843513662106],[23.293809664945773,14.595871329451114],[22.949914375671614,14.595871329451114],[22.835282612580226,14.484843147373327],[22.491387323306068,14.484843147373327],[22.03286027094052,14.262620346142892],[21.80359674475775,14.262620346142892],[21.68896498166636,14.151426507823668],[21.459701455483586,14.151426507823668],[21.3450696923922,14.040178233292501],[21.115806166209428,14.040178233292501],[20.886542640026654,13.817519948441884],[20.428015587661108,13.59464864731374],[20.084120298386946,13.59464864731374],[19.96948853529556,13.483134106163458],[19.28169795674724,13.483134106163458],[19.167066193655852,13.371567501535873],[16.186640353279802,13.371567501535873],[16.072008590188414,13.483134106163458],[15.154954485457324,13.483134106163458],[15.040322722365936,13.59464864731374],[14.23790038072623,13.59464864731374],[14.123268617634842,13.7061107270562],[13.779373328360684,13.7061107270562],[13.664741565269297,13.817519948441884],[13.091582749812364,13.817519948441884],[12.976950986720977,13.928875915509659],[12.633055697446819,13.928875915509659],[12.51842393435543,14.040178233292501],[12.17452864508127,14.040178233292501],[11.716001592715724,14.262620346142892],[11.486738066532952,14.262620346142892],[10.569683961801859,14.706843513662106],[10.340420435619086,14.928618338177749],[9.767261620162152,15.15016453076833],[9.53799809397938,15.37147901814791],[8.964839278522446,15.482048416638746],[8.85020751543106,15.592558744080089],[8.5063122261569,15.592558744080089],[8.047785173791354,15.813400669558549],[7.703889884517194,15.813400669558549],[7.589258121425806,15.923731512193307],[7.245362832151646,15.923731512193307],[6.7868357797861005,16.144211076981687],[5.984413438146395,16.25435905034257],[5.869781675055007,16.364445320340796],[2.201565256130636,16.364445320340796],[2.086933493039249,16.25435905034257],[0.8259840990339965,16.25435905034257],[0.3674570466684501,16.034001772984755],[0.023561757394290214,16.034001772984755],[-0.09107000569709639,15.923731512193307],[-0.3203335318798696,15.923731512193307],[-0.5495970580626429,15.813400669558549],[-1.352019399702349,15.15016453076833],[-1.5812829258851224,15.039420205941507],[-1.8105464520678956,15.039420205941507],[-2.1544417413420556,14.81775931216919],[-3.9885499508042415,14.81775931216919],[-4.103181713895627,14.928618338177749],[-4.905604055535334,14.928618338177749],[-5.020235818626721,15.039420205941507],[-5.593394634083654,15.039420205941507],[-5.708026397175042,15.15016453076833],[-6.0519216864492,15.15016453076833],[-6.166553449540587,15.260850929026004],[-6.510448738814747,15.260850929026004],[-6.625080501906133,15.37147901814791],[-6.968975791180293,15.37147901814791],[-7.312871080454453,15.592558744080089],[-8.344556948276935,15.703009621135996],[-8.45918871136832,15.813400669558549],[-8.917715763733865,15.813400669558549],[-9.032347526825252,15.923731512193307],[-9.720138105373572,15.923731512193307],[-9.834769868464958,16.034001772984755],[-10.293296920830505,16.034001772984755],[-10.407928683921892,16.144211076981687],[-10.751823973196052,16.144211076981687],[-10.866455736287438,16.25435905034257],[-11.324982788652983,16.25435905034257],[-11.439614551744373,16.364445320340796],[-11.783509841018532,16.364445320340796],[-11.898141604109918,16.474469515369968],[-12.356668656475465,16.474469515369968],[-12.47130041956685,16.58443126494909],[-12.81519570884101,16.58443126494909],[-12.929827471932397,16.694330199727705],[-13.15909099811517,16.694330199727705],[-13.273722761206557,16.804165951491026],[-13.617618050480717,16.804165951491026],[-13.732249813572103,16.913938153164963],[-13.961513339754877,16.913938153164963],[-14.420040392120423,17.2428698041253],[-14.53467215521181,17.2428698041253],[-15.222462733760128,17.789784294808925],[-15.337094496851515,17.789784294808925],[-15.795621549217064,18.226115629892327],[-16.024885075399833,18.335028804597606],[-16.13951683849122,18.552649104720114],[-16.13951683849122,18.87855920910019],[-16.483412127765384,19.31212020800443],[-16.483412127765384,19.528472067774775],[-16.25414860158261,19.74453455920406],[-16.25414860158261,20.28340725473159],[-16.483412127765384,20.605837518425105],[-16.712675653948157,20.713163419286573],[-16.827307417039542,20.92758700023806],[-16.827307417039542,21.141704148289147],[-13.15909099811517,21.141704148289147],[-12.81519570884101,21.355512315403463],[-12.585932182658238,21.355512315403463],[-12.12740513029269,21.56900897444427],[-11.210351025561598,22.52582232755779],[-11.210351025561598,22.631732673491143],[-10.866455736287438,22.94897317843732],[-10.866455736287438,23.054555513735696],[-10.407928683921892,23.476054527665315],[-10.407928683921892,23.58122024666197],[-9.949401631556345,24.00103837067815],[-9.949401631556345,24.105780295070165],[-9.605506342282185,24.41949132207552],[-9.605506342282185,24.523889157166657],[-9.14697928991664,24.94061064240504],[-9.14697928991664,25.044572193157535],[-8.80308400064248,25.355927384178813],[-8.80308400064248,25.459535077018984],[-8.000661659002773,26.28516641675447],[-8.000661659002773,26.387962717554927],[-7.77139813282,26.593280803796016],[-7.656766369728613,26.593280803796016],[-7.542134606637226,26.79823122048513],[-7.42750284354584,26.79823122048513],[-6.73971226499752,27.410856972259264],[-6.625080501906133,27.410856972259264],[-5.822658160266427,28.12131379774544],[-5.708026397175042,28.12131379774544],[-5.249499344809494,28.525194169938615],[-4.905604055535334,28.625923953879653],[-4.676340529352561,28.82709361310084],[-2.842232319890375,29.627875352910653],[-2.612968793707602,29.827088168836294],[-1.8105464520678956,30.125163778176795],[-1.5812829258851224,30.323382781857475],[-0.778860584245416,30.6199602655104],[-0.5495970580626429,30.817175661762864],[0.25282528357706346,31.112240587861095],[0.4820888097598367,31.308442929095225],[2.660092308496182,32.18628656090823],[2.889355834678956,32.38022862966634],[5.869781675055007,33.630668980002405],[7.245362832151646,34.6747717330784],[7.359994595243034,34.6747717330784],[8.16241693688274,35.33244414993519],[8.391680463065514,35.425965016789306],[8.391680463065514,35.61268124737188],[8.5063122261569,35.70587636795335],[8.5063122261569,36.26275770960507],[8.391680463065514,36.35518862830258],[8.391680463065514,36.63182320065849],[8.277048699974126,36.723814969771816],[8.277048699974126,36.90746823999125],[8.85020751543106,36.99912953367113],[8.964839278522446,37.182120929009756],[9.194102804705222,37.27345083075339],[9.423366330887992,37.27345083075339],[9.53799809397938,37.36467007067927],[9.881893383253539,37.36467007067927],[9.996525146344926,37.27345083075339],[10.225788672527699,37.27345083075339],[10.455052198710472,36.90746823999125],[10.684315724893246,36.90746823999125],[10.913579251076019,37.09068046353772],[11.142842777258792,37.09068046353772],[11.142842777258792,36.815696684329815],[10.569683961801859,36.26275770960507],[10.569683961801859,35.98480831910696],[11.142842777258792,35.61268124737188],[11.142842777258792,35.14507753069315],[10.913579251076019,34.76904829059029],[10.111156909436312,34.201780110540184],[10.111156909436312,34.01183522840056],[10.455052198710472,33.72611974195161],[10.798947487984632,33.72611974195161],[10.913579251076019,33.630668980002405],[11.142842777258792,33.630668980002405],[11.142842777258792,33.43944993804632],[11.257474540350179,33.343681956612926],[11.372106303441564,33.343681956612926],[11.601369829624339,33.15182982935246],[11.83063335580711,33.15182982935246],[12.059896881989884,33.055745990173854],[12.28916040817266,32.86326353746823],[13.091582749812364,32.86326353746823],[13.20621451290375,32.959557173978496],[13.435478039086526,32.959557173978496],[13.55010980217791,32.86326353746823],[13.89400509145207,32.86326353746823],[14.008636854543457,32.76686523869928],[14.23790038072623,32.76686523869928],[14.696427433091776,32.4770439697567],[15.154954485457324,32.4770439697567],[15.384218011640096,32.28330943797695],[15.384218011640096,31.894597500129205],[15.498849774731484,31.699622808303655],[15.957376827097029,31.308442929095225],[16.30127211637119,31.308442929095225],[16.415903879462576,31.21039264169926],[17.103694458010896,31.21039264169926],[17.562221510376443,31.013986950295855],[17.791485036559212,31.013986950295855],[18.250012088924763,30.817175661762864],[18.708539141290313,30.42234227313798],[18.937802667473083,30.323382781857475],[19.39632971983863,30.323382781857475],[19.625593246021403,30.42234227313798],[19.96948853529556,30.71861838314707],[20.084120298386946,30.91563191310208],[20.084120298386946,31.308442929095225],[19.96948853529556,31.406391268716025],[19.96948853529556,32.089160166046305],[20.542647350752496,32.5737552933932],[21.001174403118043,32.76686523869928],[21.3450696923922,32.76686523869928],[21.574333218574974,32.959557173978496],[22.262123797123294,32.959557173978496],[22.949914375671614,32.67036243708412],[23.179177901854384,32.67036243708412],[23.179177901854384,32.38022862966634],[23.523073191128546,32.18628656090823],[23.981600243494093,32.18628656090823],[24.325495532768254,31.991930422345366],[24.554759058951024,31.991930422345366],[24.784022585133798,32.089160166046305],[25.12791787440796,31.894597500129205],[25.12791787440796,31.699622808303655],[25.242549637499344,31.601981386203516],[26.274235505321823,31.601981386203516],[26.38886726841321,31.504237480609596],[26.962026083870143,31.504237480609596],[27.07665784696153,31.406391268716025],[27.305921373144304,31.406391268716025],[27.535184899327078,31.21039264169926],[27.879080188601236,31.21039264169926],[27.993711951692628,31.112240587861095],[28.566870767149556,31.112240587861095],[28.910766056423718,30.91563191310208],[29.369293108789265,30.91563191310208],[29.598556634972038,31.013986950295855],[29.9424519242462,31.308442929095225],[30.17171545042897,31.308442929095225],[30.400978976611743,31.504237480609596],[30.744874265885905,31.504237480609596],[30.85950602897729,31.601981386203516],[31.31803308134284,31.601981386203516],[31.432664844434225,31.504237480609596],[31.776560133708383,31.504237480609596],[31.891191896799768,31.601981386203516],[32.578982475348084,31.112240587861095],[33.03750952771364,31.112240587861095],[33.15214129080502,31.21039264169926],[33.26677305389641,31.112240587861095],[33.725300106261955,31.112240587861095],[34.1838271586275,31.308442929095225],[34.642354210993055,31.797161571092772],[34.642354210993055,31.991930422345366],[34.871617737175825,32.28330943797695],[34.871617737175825,32.67036243708412],[35.100881263358595,32.959557173978496],[35.215513026449976,33.43944993804632],[35.44477655263276,33.72611974195161],[35.44477655263276,33.91670301141802],[35.67404007881553,34.1068609754186],[35.67404007881553,34.39129798401537],[35.9033036049983,34.580387739936235],[35.9033036049983,35.425965016789306],[35.78867184190691,35.519377423341794],[35.78867184190691,35.89194002152251],[35.9033036049983,35.98480831910696],[35.9033036049983,36.17021727700178],[35.67404007881553,36.53972148259018],[35.330144789541365,36.53972148259018],[34.986249500267206,36.723814969771816],[34.52772244790166,36.723814969771816],[34.06919539553612,36.35518862830258],[34.06919539553612,36.26275770960507],[33.610668343170566,36.07756744243101],[32.92287776462225,36.07756744243101],[32.69361423843948,35.98480831910696],[32.23508718607393,36.26275770960507],[32.23508718607393,36.35518862830258],[32.005823659891156,36.53972148259018],[31.31803308134284,36.815696684329815],[30.744874265885905,36.815696684329815],[30.515610739703128,36.44750992242918],[30.515610739703128,36.26275770960507],[30.17171545042897,36.26275770960507],[29.713188398063423,36.07756744243101],[29.25466134569788,36.26275770960507],[28.910766056423718,36.63182320065849],[28.681502530240945,36.723814969771816],[28.337607240966783,36.723814969771816],[28.108343714784013,36.53972148259018],[27.879080188601236,36.63182320065849],[27.420553136235693,36.63182320065849],[27.420553136235693,36.90746823999125],[27.19128961005292,36.99912953367113],[27.19128961005292,37.546776178924944],[27.07665784696153,37.63766285726158],[27.07665784696153,37.90965627510888],[26.847394320778758,38.09042880222842],[26.503499031504603,38.09042880222842],[26.274235505321823,38.270755374089084],[26.38886726841321,38.45063530903401],[26.38886726841321,38.71961632362789],[26.732762557687373,38.71961632362789],[26.847394320778758,38.80905263804198],[26.847394320778758,39.076688426244075],[26.503499031504603,39.43196268054142],[26.159603742230438,39.43196268054142],[26.044971979139053,39.520499791852],[26.159603742230438,39.697235791711634],[26.159603742230438,40.13709978721984],[26.274235505321823,40.224733342651035],[26.274235505321823,40.48695445288866],[25.930340216047664,40.83499488973804],[25.586444926773506,40.83499488973804],[25.471813163682118,40.92172112479324],[24.89865434822519,40.92172112479324],[24.784022585133798,40.83499488973804],[24.325495532768254,40.83499488973804],[24.09623200658548,40.661201667084576],[24.09623200658548,40.48695445288866],[24.44012729585964,40.224733342651035],[24.44012729585964,40.13709978721984],[24.210863769676866,40.13709978721984],[23.75233671731132,39.873520388120255],[23.40844142803716,39.96149324944556],[23.064546138763,40.31225367699689],[22.72065084948884,40.31225367699689],[22.491387323306068,40.224733342651035],[22.147492034031906,40.39966073258896],[21.918228507849136,40.748155053520925],[21.80359674475775,41.18121773016539],[21.68896498166636,41.26748907326065],[21.68896498166636,41.69713732827017],[21.574333218574974,41.7827249919206],[21.574333218574974,42.547875628755605],[21.3450696923922,42.8008679223037],[21.3450696923922,42.96895712539737],[21.001174403118043,43.22023194416923],[20.771910876935266,43.30376106394211],[19.96948853529556,43.30376106394211],[19.740225009112788,43.22023194416923],[19.28169795674724,42.88496977368928],[19.052434430564468,42.547875628755605],[19.052434430564468,42.3786420935418],[18.937802667473083,42.20895123088017],[18.823170904381694,42.20895123088017],[17.906116799650604,42.71665159659605],[17.447589747285054,42.71665159659605],[17.33295798419367,42.8008679223037],[16.989062694919507,42.8008679223037],[16.874430931828122,42.71665159659605],[16.530535642553964,42.71665159659605],[16.530535642553964,42.88496977368928],[16.415903879462576,42.96895712539737],[15.957376827097029,42.96895712539737],[15.728113300914256,43.05282995309186],[16.072008590188414,43.05282995309186],[16.186640353279802,43.13658823345212],[16.186640353279802,43.38717557247371],[15.957376827097029,43.47047545046719],[15.842745064005644,43.6367312426304],[15.613481537822869,43.6367312426304],[15.384218011640096,43.719687123172875],[14.811059196183164,44.1327457864437],[14.811059196183164,44.2971660129454],[14.925690959274549,44.4611271288361],[16.30127211637119,45.435250363696156],[16.530535642553964,45.75628438502813],[16.530535642553964,45.916112732050195],[16.64516740564535,45.99585477004454],[16.64516740564535,46.708371238431354],[16.530535642553964,46.865447108219215],[16.186640353279802,47.100201698674056],[15.842745064005644,47.56661993628979],[15.842745064005644,47.72117758467455],[15.613481537822869,47.9521569218038],[15.613481537822869,48.105572078785876],[15.498849774731484,48.18210843311169],[15.498849774731484,48.563079329605706],[15.613481537822869,48.638931584942675],[15.613481537822869,48.790294472061845],[15.728113300914256,48.94120212378328],[15.842745064005644,48.94120212378328],[16.186640353279802,49.16671075007392],[16.759799168736734,49.31648176242587],[17.562221510376443,49.83710711971461],[17.676853273467827,49.83710711971461],[18.479275615107532,50.35218680279671],[18.479275615107532,50.42531792974313],[18.937802667473083,50.71671539764567],[18.937802667473083,50.78928328674339],[19.510961482930014,51.15043677324507],[20.198752061478334,51.15043677324507],[20.65727911384388,50.934081695340325],[20.65727911384388,50.86173869976092],[20.886542640026654,50.71671539764567],[21.918228507849136,49.391196978800735],[21.918228507849136,49.24165303439275],[22.147492034031906,49.09165486555071],[22.147492034031906,48.865805182280006],[22.262123797123294,48.790294472061845],[22.262123797123294,48.258530682529944],[21.918228507849136,47.9521569218038],[21.918228507849136,47.8752780542635],[21.68896498166636,47.72117758467455],[21.68896498166636,47.643955922398376],[21.459701455483586,47.489169598201435],[21.3450696923922,47.100201698674056],[21.230437929300816,47.022064702325395],[21.230437929300816,46.865447108219215],[21.115806166209428,46.78696646790718],[21.115806166209428,46.62966140058816],[21.001174403118043,46.55083693601052],[21.001174403118043,45.99585477004454],[21.3450696923922,45.51568105333125],[21.918228507849136,45.11237957321721],[23.981600243494093,44.37920396363391],[24.554759058951024,44.37920396363391],[24.669390822042413,44.2971660129454],[26.274235505321823,44.2971660129454],[26.503499031504603,44.37920396363391],[27.19128961005292,44.86902097300149],[27.76444842550985,45.67619805730697],[27.649816662418463,46.07548206495218],[27.535184899327078,46.154994628307094],[27.535184899327078,46.31367561083006],[27.19128961005292,46.78696646790718],[26.847394320778758,47.022064702325395],[26.847394320778758,47.100201698674056],[26.044971979139053,47.643955922398376],[25.930340216047664,47.643955922398376],[25.701076689864898,47.79828495205532],[25.242549637499344,47.9521569218038],[24.89865434822519,47.9521569218038],[24.784022585133798,48.02892158595896],[24.44012729585964,48.02892158595896],[24.210863769676866,48.105572078785876],[23.866968480402704,48.411033004826756],[23.866968480402704,48.71466995281132],[24.09623200658548,48.94120212378328],[24.325495532768254,48.94120212378328],[24.44012729585964,49.01648533761704],[25.013286111316575,49.01648533761704],[25.12791787440796,49.09165486555071],[25.701076689864898,49.16671075007392],[25.81570845295628,49.24165303439275],[26.044971979139053,49.24165303439275],[26.159603742230438,49.31648176242587],[26.38886726841321,49.31648176242587],[26.847394320778758,49.46579872884979],[28.108343714784013,50.13211631857349],[28.222975477875398,50.13211631857349],[29.140029582606488,50.71671539764567],[29.140029582606488,50.78928328674339],[29.48392487188065,51.006312332750106],[29.598556634972038,51.222330697966484],[29.827820161154808,51.36578226504185],[30.057083687337585,51.65134203648829],[30.057083687337585,51.79345127194233],[30.744874265885905,52.636751527163156],[31.203401318251448,52.91430127138244],[31.203401318251448,52.98341237220314],[31.432664844434225,53.05241308988259],[31.432664844434225,53.12130350081009],[31.891191896799768,53.395763622783974],[31.891191896799768,53.46410366374086],[32.4643507122567,53.80415790911479],[33.496036580079185,54.07423103049946],[33.954563632444724,54.27564002337373],[34.29845892171889,54.27564002337373],[34.41309068481027,54.34255854744439],[34.986249500267206,54.34255854744439],[35.100881263358595,54.4093683103944],[35.67404007881553,54.4093683103944],[35.78867184190691,54.476069398298804],[36.361830657363846,54.476069398298804],[36.476462420455235,54.54266189768227],[37.04962123591218,54.54266189768227],[37.16425299900355,54.6091458955158],[37.6227800513691,54.6091458955158],[37.737411814460486,54.675521479213565],[38.31057062991742,54.675521479213565],[38.42520239300881,54.74178873662962],[38.99836120846574,54.74178873662962],[39.11299297155713,54.80794775605478],[39.68615178701406,54.80794775605478],[39.80078355010544,54.87399862621335],[40.37394236556238,54.87399862621335],[40.48857412865377,54.939941436259986],[41.0617329441107,54.939941436259986],[41.17636470720208,55.005776275776526],[41.74952352265902,55.005776275776526],[41.86415528575041,55.07150323476878],[42.43731410120735,55.07150323476878],[42.55194586429872,55.137122403663405],[43.12510467975566,55.137122403663405],[43.239736442847054,55.20263387330476],[44.04215878448675,55.20263387330476],[44.15679054757813,55.2680377349518],[44.95921288921784,55.2680377349518],[45.07384465230923,55.333334080274845],[45.87626699394894,55.333334080274845],[45.99089875704032,55.398523001352594],[46.793321098680025,55.398523001352594],[46.90795286177141,55.463604590668936],[47.710375203411125,55.463604590668936],[47.825006966502514,55.5285789411099],[48.627429308142226,55.5285789411099],[48.7420610712336,55.59344614596052],[49.42985164978193,55.59344614596052],[49.544483412873305,55.65820629890184],[49.88837870214747,55.65820629890184],[50.00301046523885,55.72285949400774],[50.23227399142163,55.72285949400774],[50.34690575451301,55.787405825741985],[51.14932809615272,55.85184538895512],[51.26395985924411,55.91617827888145],[51.60785514851827,55.91617827888145],[52.066382200883815,56.04452442171167],[52.86880454252352,56.10853786697582],[52.9834363056149,56.172445023667734],[53.32733159488907,56.172445023667734],[53.441963357980455,56.23624598889536],[53.78585864725461,56.23624598889536],[53.900490410346,56.299940860132466],[54.35901746271154,56.299940860132466],[54.47364922580293,56.36352973521561],[55.39070333053402,56.36352973521561],[55.50533509362541,56.427012712341195],[56.42238919835651,56.427012712341195],[56.53702096144789,56.490389890062566],[57.56870682927036,56.490389890062566],[57.683338592361764,56.55366136728707],[58.60039269709285,56.55366136728707],[58.71502446018423,56.61682724327307],[59.63207856491532,56.61682724327307],[59.746710328006714,56.67988761762714],[60.6637644327378,56.67988761762714],[60.77839619582919,56.742842590301066],[61.69545030056028,56.742842590301066],[61.81008206365167,56.805692261589044],[62.72713616838276,56.805692261589044],[62.84176793147415,56.86843673212473],[63.52955851002246,56.86843673212473],[63.98808556238802,56.99361047515415],[64.21734908857078,56.99361047515415],[64.33198085166218,57.056039950586914],[64.67587614093634,57.056039950586914],[65.13440319330188,57.18058461910094],[65.36366671948466,57.18058461910094],[65.47829848257605,57.242700017081255],[65.70756200875881,57.242700017081255],[65.8221937718502,57.30471092801105],[66.05145729803297,57.30471092801105],[66.16608906112435,57.36661745513754],[66.39535258730713,57.36661745513754],[66.50998435039851,57.42841970202199],[66.7392478765813,57.42841970202199],[66.85387963967268,57.49011777253694],[67.08314316585546,57.49011777253694],[67.19777492894684,57.55171177086345],[67.4270384551296,57.55171177086345],[67.541670218221,57.61320180148836],[67.77093374440376,57.61320180148836],[68.11482903367794,57.73587037909302],[68.34409255986071,57.73587037909302],[68.57335608604347,57.858124347256904],[69.2611466645918,58.04072976005967],[69.49041019077458,58.04072976005967],[71.09525487405399,58.463204838613585],[71.89767721569369,58.52314809175365],[72.01230897878509,58.58298908836024],[72.35620426805924,58.58298908836024],[72.47083603115063,58.64272793770731],[72.81473132042478,58.64272793770731],[72.92936308351617,58.702364749326826],[73.27325837279032,58.702364749326826],[73.38789013588172,58.7618996330062],[74.19031247752142,58.7618996330062],[74.30494424061281,58.702364749326826],[74.87810305606975,58.702364749326826],[74.99273481916113,58.64272793770731],[75.56589363461806,58.64272793770731],[75.68052539770945,58.58298908836024],[76.25368421316638,58.58298908836024],[76.36831597625778,58.52314809175365],[76.9414747917147,58.52314809175365],[77.05610655480609,58.463204838613585],[77.62926537026303,58.463204838613585],[77.74389713335441,58.40315921992669],[78.89021476426828,58.40315921992669],[79.00484652735966,58.34301112694283],[80.03653239518214,58.34301112694283],[80.15116415827352,58.282760451177495],[81.182850026096,58.282760451177495],[81.29748178918739,58.222407084414634],[82.67306294628405,58.222407084414634],[82.78769470937542,58.16195091870907],[85.42422526047731,58.16195091870907],[85.5388570235687,58.10139184638921],[88.74854639012753,58.10139184638921],[88.86317815321891,58.16195091870907],[89.43633696867585,58.16195091870907],[89.55096873176723,58.222407084414634],[90.23875931031556,58.222407084414634],[90.35339107340694,58.282760451177495],[90.92654988886386,58.282760451177495],[91.04118165195526,58.34301112694283],[91.61434046741219,58.34301112694283],[93.90697572923993,58.939893818056966],[94.59476630778823,59.35166676394199],[94.93866159706239,59.41008775679543],[95.16792512324517,59.52662808094975],[95.28255688633656,59.52662808094975],[95.7410839387021,59.70068610981734],[96.7727698065246,59.70068610981734],[96.88740156961597,59.75850525140346],[97.34592862198151,59.75850525140346],[98.14835096362123,59.41008775679543],[98.26298272671264,59.41008775679543],[99.29466859453508,58.880664056956554],[99.29466859453508,58.82133269878586],[99.86782740999205,58.52314809175365],[99.86782740999205,58.463204838613585],[100.21172269926619,58.282760451177495],[100.21172269926619,58.222407084414634],[100.55561798854033,58.04072976005967],[100.55561798854033,57.979964552603825],[100.8995132778145,57.79704913655064],[100.8995132778145,57.73587037909302],[101.24340856708866,57.55171177086345],[101.24340856708866,57.49011777253694],[101.58730385636282,57.30471092801105],[101.58730385636282,57.242700017081255],[101.93119914563698,57.056039950586914],[101.93119914563698,56.99361047515415],[106.74573319547522,54.34255854744439],[107.08962848474938,54.34255854744439],[107.54815553711494,54.20861265256022],[107.8920508263891,54.20861265256022],[108.35057787875463,54.07423103049946],[108.6944731680288,54.07423103049946],[109.15300022039435,53.939413005465106],[109.4968955096685,53.939413005465106],[109.95542256203404,53.80415790911479],[110.29931785130822,53.80415790911479],[110.75784490367376,53.66846508066631],[111.56026724531345,53.60045431250414],[111.67489900840485,53.5323338670037],[112.01879429767901,53.5323338670037],[112.13342606077039,53.46410366374086],[112.59195311313594,53.46410366374086],[112.70658487622732,53.395763622783974],[113.05048016550151,53.395763622783974],[113.16511192859288,53.3273136646973],[113.62363898095842,53.3273136646973],[113.7382707440498,53.25875371054433],[114.08216603332396,53.25875371054433],[114.19679779641535,53.19008368189121],[114.6553248487809,53.19008368189121],[114.76995661187227,53.12130350081009],[115.11385190114646,53.12130350081009],[115.22848366423784,53.05241308988259],[115.68701071660338,53.05241308988259],[115.80164247969478,52.98341237220314],[116.14553776896892,52.98341237220314],[116.26016953206032,52.91430127138244],[116.71869658442586,52.91430127138244],[116.83332834751724,52.84507971155093],[117.1772236367914,52.84507971155093],[117.29185539988278,52.77574761736212],[117.63575068915694,52.77574761736212],[117.86501421533974,52.70630491399615],[117.86501421533974,52.636751527163156],[119.58449066171052,51.5801198539698],[120.61617652953302,50.27894286127938],[120.7308082926244,49.61466201480241],[120.84544005571578,49.54028705860667],[120.84544005571578,48.71466995281132],[120.96007181880717,48.638931584942675],[120.96007181880717,46.708371238431354],[121.07470358189856,46.62966140058816],[121.07470358189856,45.35470487486537],[121.18933534498994,45.27404458238879],[121.18933534498994,43.55366067962207],[121.30396710808132,43.47047545046719],[121.30396710808132,40.92172112479324],[120.5015447664416,40.31225367699689],[120.38691300335022,40.13709978721984],[119.92838595098468,39.96149324944556],[119.6991224248019,39.96149324944556],[119.35522713552774,39.697235791711634],[119.24059537243636,39.520499791852],[119.24059537243636,39.343312918582264],[119.0113318462536,39.16567572052125],[118.55280479388804,39.16567572052125],[118.43817303079666,39.076688426244075],[118.2089095046139,39.076688426244075],[118.0942777415225,39.16567572052125],[117.86501421533974,39.16567572052125],[117.63575068915694,38.80905263804198],[117.63575068915694,38.45063530903401],[118.0942777415225,38.180647875623656],[118.66743655697944,38.180647875623656],[118.78206832007082,38.270755374089084],[119.0113318462536,38.00009823971502],[119.0113318462536,37.8191029966524],[119.12596360934498,37.72843849380807],[119.0113318462536,37.63766285726158],[119.0113318462536,37.36467007067927],[119.24059537243636,37.182120929009756],[119.6991224248019,37.182120929009756],[119.92838595098468,37.45577855193956],[120.04301771407606,37.45577855193956],[120.27228124025883,37.63766285726158],[120.27228124025883,37.72843849380807],[120.5015447664416,37.8191029966524],[120.96007181880717,37.8191029966524],[121.41859887117272,37.63766285726158],[121.5332306342641,37.45577855193956],[121.87712592353826,37.45577855193956],[121.99175768662964,37.546776178924944],[122.22102121281242,37.546776178924944],[122.3356529759038,37.45577855193956],[122.67954826517796,37.45577855193956],[122.67954826517796,37.36467007067927],[122.56491650208658,37.27345083075339],[122.56491650208658,36.90746823999125],[122.22102121281242,36.815696684329815],[122.10638944972102,36.90746823999125],[121.87712592353826,36.90746823999125],[121.64786239735548,36.723814969771816],[121.30396710808132,36.723814969771816],[121.07470358189856,36.63182320065849],[120.61617652953302,36.07756744243101],[120.38691300335022,36.07756744243101],[120.04301771407606,35.798962665451874],[119.92838595098468,35.61268124737188],[119.8137541878933,35.61268124737188],[119.46985889861914,35.33244414993519],[119.35522713552774,35.14507753069315],[119.35522713552774,34.86321727980479],[119.8137541878933,34.48589644514762],[120.04301771407606,34.48589644514762],[120.27228124025883,34.39129798401537],[120.38691300335022,34.1068609754186],[120.04301771407606,33.821464467735375],[119.92838595098468,33.821464467735375],[119.58449066171052,33.5351123291622],[119.35522713552774,33.5351123291622],[118.66743655697944,33.24780853616502],[118.43817303079666,33.24780853616502],[117.52111892606555,32.86326353746823],[116.94796011060862,32.76686523869928],[116.60406482133448,32.5737552933932],[116.03090600587754,32.4770439697567],[115.91627424278616,32.38022862966634],[112.70658487622732,32.38022862966634],[112.59195311313594,32.28330943797695],[112.01879429767901,32.28330943797695],[111.90416253458763,32.18628656090823],[111.44563548222209,32.18628656090823],[111.33100371913068,32.089160166046305],[110.75784490367376,32.089160166046305],[110.29931785130822,31.894597500129205],[109.95542256203404,31.894597500129205],[109.4968955096685,31.699622808303655],[109.26763198348573,31.699622808303655],[109.15300022039435,31.601981386203516],[108.92373669421157,31.601981386203516],[108.80910493112017,31.504237480609596],[108.46520964184602,31.504237480609596],[108.35057787875463,31.406391268716025],[108.12131435257186,31.406391268716025],[106.74573319547522,30.817175661762864],[106.51646966929245,30.817175661762864],[105.94331085383551,30.52120149849649],[105.71404732765274,30.52120149849649],[105.14088851219581,30.224323218468584],[104.91162498601304,30.224323218468584],[104.22383440746472,29.926546054671427],[103.99457088128194,29.72753120085677],[101.93119914563698,28.82709361310084],[101.7019356194542,28.82709361310084],[101.58730385636282,28.72655717412465],[101.24340856708866,28.72655717412465],[100.78488151472312,28.525194169938615],[100.44098622544895,28.525194169938615],[100.32635446235757,28.424368041276338],[100.21172269926619,28.525194169938615],[99.75319564690064,28.525194169938615],[99.63856388380925,28.625923953879653],[99.06540506835232,28.625923953879653],[98.95077330526092,28.72655717412465],[98.60687801598677,28.72655717412465],[96.19961099106764,29.926546054671427],[95.7410839387021,29.926546054671427],[95.39718864942795,29.72753120085677],[95.16792512324517,29.72753120085677],[94.02160749233131,29.228267253916236],[93.79234396614852,29.027875283964114],[93.79234396614852,28.927533054637188],[92.87528986141744,28.12131379774544],[92.41676280905189,27.918799989434028],[91.72897223050357,27.918799989434028],[91.61434046741219,28.02010450799456],[88.74854639012753,28.02010450799456],[88.63391462703613,27.918799989434028],[87.2583334699395,27.918799989434028],[87.14370170684812,27.81740046945452],[86.91443818066533,27.81740046945452],[86.79980641757395,27.71590617684956],[86.57054289139117,27.71590617684956],[86.45591112829979,27.614317341815532],[86.22664760211701,27.614317341815532],[85.99738407593425,27.512634195951524],[84.85106644502038,26.593280803796016],[84.736434681929,26.593280803796016],[84.39253939265484,26.28516641675447],[84.27790762956344,26.28516641675447],[83.93401234028929,25.976231485511345],[83.47548528792375,25.76982237014104],[83.24622176174097,25.563053646034586],[83.13158999864959,25.563053646034586],[82.9023264724668,25.355927384178813],[82.78769470937542,25.355927384178813],[82.55843118319264,25.148445677815097],[82.21453589391848,25.044572193157535],[81.98527236773572,24.8365612934561],[81.64137707846156,24.732424415593155],[81.06821826300462,24.315007049012298],[80.72432297373047,24.21043661415831],[80.49505944754769,24.00103837067815],[80.15116415827352,23.896211121284573],[79.92190063209075,23.686301775551875],[79.23411005354244,23.37080490569789],[79.00484652735966,23.37080490569789],[78.6609512380855,23.1600551081983],[78.43168771190273,23.1600551081983],[78.08779242262857,22.94897317843732],[77.8585288964458,22.94897317843732],[77.51463360717166,22.73756146236888],[77.28537008098886,22.73756146236888],[76.9414747917147,22.52582232755779],[76.36831597625778,22.419830723879322],[76.0244206869836,22.20760494723413],[75.45126187152668,22.101371379586208],[75.33663010843529,21.99505776482579],[75.10736658225254,21.99505776482579],[74.99273481916113,21.888664408946244],[74.64883952988697,21.888664408946244],[74.53420776679557,21.782191619269845],[74.30494424061281,21.782191619269845],[73.96104895133865,21.56900897444427],[73.04399484660756,21.56900897444427],[72.81473132042478,21.46229974056008],[72.70009955733342,21.56900897444427],[72.35620426805924,21.56900897444427],[72.12694074187647,21.141704148289147],[71.20988663714537,20.713163419286573],[70.63672782168844,20.713163419286573],[70.40746429550566,20.820413353808874],[68.91725137531763,22.20760494723413],[68.91725137531763,22.419830723879322],[69.14651490150041,22.631732673491143],[69.14651490150041,22.843308396224412],[68.68798784913487,23.054555513735696],[68.4587243229521,23.265471669256808],[68.4587243229521,23.37080490569789],[68.11482903367794,23.791298828562073],[67.541670218221,23.791298828562073],[67.31240669203822,24.105780295070165],[67.31240669203822,24.62820027948124],[66.85387963967268,24.8365612934561],[66.6246161134899,24.8365612934561],[66.6246161134899,25.252230829864462],[66.39535258730713,25.459535077018984],[66.05145729803297,25.459535077018984],[65.93682553494159,25.355927384178813],[65.24903495639327,25.355927384178813],[65.13440319330188,25.252230829864462],[64.79050790402772,25.252230829864462],[64.67587614093634,25.148445677815097],[64.44661261475356,25.252230829864462],[64.21734908857078,25.252230829864462],[64.1027173254794,25.355927384178813],[63.64419027311385,25.355927384178813],[63.52955851002246,25.252230829864462],[62.61250440529138,25.252230829864462],[62.3832408791086,25.044572193157535],[61.35155501128612,25.044572193157535],[61.00765972201196,25.252230829864462],[60.43450090655503,25.252230829864462],[60.31986914346364,25.355927384178813],[59.63207856491532,25.355927384178813],[59.51744680182393,25.459535077018984],[59.17355151254978,25.459535077018984],[59.05891974945839,25.355927384178813],[58.82965622327562,25.563053646034586],[58.02723388163592,25.563053646034586],[57.56870682927036,25.76982237014104],[57.33944330308759,25.76982237014104],[56.99554801381344,26.387962717554927],[56.99554801381344,26.79823122048513],[56.766284487630664,27.002812008322536],[56.53702096144789,27.002812008322536],[56.42238919835651,26.79823122048513],[56.07849390908235,26.79823122048513],[55.84923038289957,26.593280803796016],[55.50533509362541,26.593280803796016],[55.39070333053402,26.49066759603867],[55.39070333053402,26.28516641675447],[55.16143980435125,26.28516641675447],[55.046808041259865,26.49066759603867],[54.70291275198571,26.49066759603867],[54.47364922580293,26.182278943444718],[54.47364922580293,26.49066759603867],[54.35901746271154,26.593280803796016],[54.12975393652877,26.593280803796016],[53.900490410346,26.49066759603867],[53.78585864725461,26.695802093815622],[53.212699831797686,26.79823122048513],[53.212699831797686,27.002812008322536],[52.75417277943213,27.207021230408817],[52.41027749015798,27.614317341815532],[52.295645727066585,27.614317341815532],[52.066382200883815,27.81740046945452],[51.49322338542688,27.81740046945452],[51.26395985924411,28.02010450799456],[51.26395985924411,28.22242763269887],[51.03469633306133,28.525194169938615],[51.03469633306133,28.72655717412465],[50.805432806878564,28.82709361310084],[50.805432806878564,29.027875283964114],[50.57616928069579,29.228267253916236],[50.34690575451301,29.228267253916236],[50.461537517604405,29.428267832814235],[50.461537517604405,29.627875352910653],[50.11764222833024,29.926546054671427],[50.00301046523885,30.125163778176795],[49.77374693905608,30.125163778176795],[49.544483412873305,30.02590465758042],[49.42985164978193,30.125163778176795],[49.085956360507765,30.125163778176795],[48.39816578195944,29.827088168836294],[48.39816578195944,29.428267832814235],[48.168902255776665,29.328316572005917],[48.168902255776665,29.027875283964114],[48.39816578195944,28.82709361310084],[48.39816578195944,28.625923953879653],[48.627429308142226,28.22242763269887],[48.85669283432499,28.02010450799456],[48.97132459741637,27.71590617684956],[49.65911517596469,27.308985905142904],[49.77374693905608,27.002812008322536],[50.23227399142163,26.695802093815622],[50.23227399142163,26.387962717554927],[50.34690575451301,26.28516641675447],[50.690801043787175,26.28516641675447],[50.805432806878564,26.0793005488301],[51.37859162233549,26.182278943444718],[51.49322338542688,25.976231485511345],[51.60785514851827,25.976231485511345],[51.60785514851827,24.732424415593155],[51.72248691160965,24.62820027948124],[51.72248691160965,24.41949132207552],[51.95175043779243,24.21043661415831],[52.1810139639752,24.105780295070165],[52.41027749015798,24.105780295070165],[52.52490925324936,24.21043661415831],[52.52490925324936,24.41949132207552],[52.295645727066585,24.523889157166657],[52.63954101634075,24.41949132207552],[52.75417277943213,24.21043661415831],[52.9834363056149,24.21043661415831],[53.09806806870629,24.41949132207552],[53.441963357980455,24.41949132207552],[53.55659512107184,24.315007049012298],[54.01512217343739,24.315007049012298],[54.24438569962016,24.41949132207552],[55.27607156744264,25.252230829864462],[55.27607156744264,25.355927384178813],[55.73459861980818,25.76982237014104],[55.96386214599096,25.873072007484687],[56.07849390908235,26.182278943444718],[56.30775743526512,26.387962717554927],[56.53702096144789,26.387962717554927],[56.53702096144789,26.0793005488301],[56.42238919835651,25.976231485511345],[56.42238919835651,24.8365612934561],[56.53702096144789,24.62820027948124],[57.11017977690482,24.00103837067815],[57.56870682927036,23.791298828562073],[57.912602118544534,23.791298828562073],[58.02723388163592,23.686301775551875],[58.60039269709285,23.686301775551875],[58.944287986367,23.37080490569789],[58.944287986367,23.265471669256808],[59.51744680182393,22.631732673491143],[59.8613420910981,22.52582232755779],[59.8613420910981,22.20760494723413],[59.51744680182393,21.782191619269845],[59.40281503873255,21.46229974056008],[59.17355151254978,21.355512315403463],[58.82965622327562,21.034684038117117],[58.60039269709285,20.49843597427214],[58.37112917091007,20.28340725473159],[58.25649740781869,20.390959111165856],[58.02723388163592,20.390959111165856],[57.797970355453145,20.068079870796247],[57.797970355453145,18.98705576753723],[57.683338592361764,18.87855920910019],[57.11017977690482,18.87855920910019],[56.88091625072205,18.769992349278102],[56.65165272453928,18.552649104720114],[56.65165272453928,18.226115629892327],[56.42238919835651,18.008084984188617],[56.42238919835651,17.89896821800493],[55.61996685671681,17.89896821800493],[55.27607156744264,17.571216400165707],[55.27607156744264,17.133290443681968],[54.93217627816848,16.913938153164963],[54.70291275198571,16.913938153164963],[54.58828098889432,17.023646438821167],[54.12975393652877,17.023646438821167],[53.55659512107184,16.694330199727705],[53.09806806870629,16.694330199727705],[52.75417277943213,16.474469515369968],[52.52490925324936,16.474469515369968],[52.1810139639752,16.034001772984755],[52.1810139639752,15.592558744080089],[52.066382200883815,15.482048416638746],[51.83711867470105,15.482048416638746],[51.60785514851827,15.260850929026004],[50.57616928069579,15.039420205941507],[50.23227399142163,14.81775931216919],[49.77374693905608,14.81775931216919],[49.315219886690535,14.595871329451114],[48.7420610712336,14.040178233292501],[48.51279754505083,14.040178233292501],[48.39816578195944,13.928875915509659],[47.825006966502514,13.928875915509659],[47.36647991413696,13.59464864731374],[46.793321098680025,13.483134106163458],[46.67868933558864,13.371567501535873],[45.76163523085755,13.371567501535873],[45.07384465230923,12.812967521712766],[45.07384465230923,12.701096946925087],[44.5006858368523,12.701096946925087],[44.38605407376091,12.589177121119414],[43.92752702139536,12.589177121119414],[43.812895258303975,12.701096946925087],[43.46899996902982,12.701096946925087],[43.239736442847054,13.148279698440522],[43.239736442847054,13.817519948441884],[43.12510467975566,13.928875915509659],[42.89584115357288,13.928875915509659],[42.78120939048149,13.817519948441884],[42.78120939048149,13.59464864731374],[42.66657762739011,13.59464864731374],[42.66657762739011,14.040178233292501],[42.89584115357288,14.040178233292501],[43.01047291666427,14.151426507823668],[43.01047291666427,14.595871329451114],[42.89584115357288,14.706843513662106],[42.89584115357288,15.039420205941507],[42.55194586429872,15.260850929026004],[42.32268233811595,15.260850929026004],[42.208050575024565,15.039420205941507],[41.97878704884179,15.15016453076833],[41.97878704884179,15.260850929026004],[42.208050575024565,15.260850929026004],[42.32268233811595,15.37147901814791],[42.32268233811595,15.703009621135996],[42.43731410120735,15.813400669558549],[42.43731410120735,16.034001772984755],[42.208050575024565,16.25435905034257],[41.97878704884179,16.25435905034257],[41.97878704884179,16.474469515369968],[41.52025999647624,16.804165951491026],[41.52025999647624,16.913938153164963],[41.74952352265902,17.133290443681968],[42.09341881193318,17.133290443681968],[42.208050575024565,17.2428698041253],[42.208050575024565,17.461833143078447],[41.74952352265902,17.89896821800493],[41.52025999647624,17.89896821800493],[41.52025999647624,18.226115629892327],[41.29099647029347,18.443873412669877],[41.0617329441107,18.443873412669877],[41.0617329441107,18.98705576753723],[40.83246941792793,19.420332140562497],[40.60320589174515,19.636539652587977],[40.60320589174515,19.74453455920406],[40.37394236556238,19.960305000951376],[40.1446788393796,19.960305000951376],[40.1446788393796,20.068079870796247],[39.91541531319683,20.28340725473159]],[[27.649816662418463,40.661201667084576],[28.108343714784013,40.48695445288866],[28.45223900405817,40.48695445288866],[28.910766056423718,40.661201667084576],[28.910766056423718,40.83499488973804],[28.681502530240945,41.00833370885228],[27.649816662418463,41.00833370885228],[27.535184899327078,40.92172112479324],[27.535184899327078,40.748155053520925],[27.649816662418463,40.661201667084576]],[[101.01414504090589,43.47047545046719],[100.0970909361748,43.80252830591504],[99.86782740999205,43.80252830591504],[99.52393212071787,43.9678665215615],[99.29466859453508,43.9678665215615],[98.95077330526092,44.1327457864437],[98.72150977907816,44.1327457864437],[96.65813804343321,44.86902097300149],[96.42887451725042,44.86902097300149],[93.79234396614852,45.8362559403069],[93.56308043996576,45.8362559403069],[93.44844867687438,45.916112732050195],[92.87528986141744,45.916112732050195],[92.76065809832606,45.99585477004454],[92.41676280905189,45.99585477004454],[92.30213104596051,45.916112732050195],[91.95823575668635,45.916112732050195],[91.27044517813803,45.67619805730697],[90.92654988886386,45.435250363696156],[90.81191812577248,45.435250363696156],[89.66560049485861,44.54293550190676],[89.32170520558445,44.0503635286862],[88.86317815321891,43.6367312426304],[88.74854639012753,43.38717557247371],[88.51928286394475,43.22023194416923],[88.40465110085337,42.96895712539737],[87.48759699612229,42.03880329736859],[87.37296523303088,41.7827249919206],[86.91443818066533,41.3536465770348],[86.91443818066533,41.26748907326065],[86.68517465448257,41.09483259318573],[85.65348878666009,39.520499791852],[84.27790762956344,38.540407579930694],[82.21453589391848,37.72843849380807],[81.41211355227877,37.63766285726158],[81.29748178918739,37.546776178924944],[79.46337357972521,37.546776178924944],[79.34874181663382,37.63766285726158],[78.89021476426828,37.63766285726158],[78.77558300117688,37.72843849380807],[78.31705594881134,37.72843849380807],[78.20242418571995,37.8191029966524],[77.51463360717166,37.8191029966524],[77.40000184408024,37.90965627510888],[76.82684302862332,37.90965627510888],[76.71221126553193,38.00009823971502],[76.0244206869836,38.00009823971502],[75.90978892389222,38.09042880222842],[74.99273481916113,38.09042880222842],[74.87810305606975,38.180647875623656],[73.15862660969894,38.180647875623656],[72.70009955733342,38.00009823971502],[72.47083603115063,38.00009823971502],[71.7830454526023,37.546776178924944],[71.32451840023676,37.36467007067927],[71.09525487405399,37.182120929009756],[70.9806231109626,37.182120929009756],[70.75135958477983,36.99912953367113],[70.75135958477983,36.815696684329815],[70.86599134787122,36.63182320065849],[71.43915016332814,36.17021727700178],[71.66841368951091,36.17021727700178],[72.01230897878509,35.98480831910696],[72.24157250496785,35.98480831910696],[72.81473132042478,35.70587636795335],[73.04399484660756,35.70587636795335],[73.73178542515588,35.425965016789306],[74.64883952988697,34.86321727980479],[74.76347129297837,34.86321727980479],[74.76347129297837,34.76904829059029],[75.45126187152668,34.201780110540184],[75.68052539770945,33.821464467735375],[76.0244206869836,33.5351123291622],[76.25368421316638,33.43944993804632],[76.59757950244054,33.43944993804632],[77.05610655480609,33.24780853616502],[78.89021476426828,33.24780853616502],[79.00484652735966,33.15182982935246],[79.23411005354244,33.15182982935246],[79.69263710590798,32.86326353746823],[81.41211355227877,32.18628656090823],[82.32916765700988,31.601981386203516],[82.78769470937542,31.406391268716025],[83.01695823555819,31.406391268716025],[83.13158999864959,31.308442929095225],[83.36085352483235,31.308442929095225],[83.47548528792375,31.21039264169926],[83.70474881410651,31.21039264169926],[83.81938057719789,31.112240587861095],[84.04864410338067,31.112240587861095],[84.16327586647205,31.013986950295855],[84.96569820811176,30.91563191310208],[85.08032997120317,30.817175661762864],[85.42422526047731,30.817175661762864],[85.5388570235687,30.71861838314707],[85.88275231284288,30.71861838314707],[86.34127936520841,30.52120149849649],[86.68517465448257,30.52120149849649],[86.79980641757395,30.42234227313798],[87.02906994375672,30.42234227313798],[87.14370170684812,30.323382781857475],[87.48759699612229,30.323382781857475],[87.60222875921366,30.224323218468584],[89.32170520558445,30.224323218468584],[89.43633696867585,30.323382781857475],[89.78023225795,30.323382781857475],[90.23875931031556,30.52120149849649],[90.5826545995897,30.52120149849649],[90.6972863626811,30.6199602655104],[90.92654988886386,30.6199602655104],[91.15581341504665,30.71861838314707],[91.84360399359497,31.308442929095225],[91.95823575668635,31.308442929095225],[93.10455338760022,32.18628656090823],[93.67771220305714,32.28330943797695],[93.79234396614852,32.38022862966634],[94.02160749233131,32.38022862966634],[94.1362392554227,32.4770439697567],[94.36550278160547,32.4770439697567],[94.48013454469685,32.5737552933932],[94.70939807087963,32.5737552933932],[94.82402983397101,32.67036243708412],[94.82402983397101,32.86326353746823],[94.70939807087963,32.959557173978496],[94.36550278160547,32.959557173978496],[94.25087101851409,33.055745990173854],[93.2191851506916,33.055745990173854],[92.53139457214328,33.343681956612926],[92.30213104596051,33.5351123291622],[92.18749928286911,33.5351123291622],[92.18749928286911,33.630668980002405],[91.84360399359497,34.01183522840056],[91.84360399359497,34.580387739936235],[91.95823575668635,34.6747717330784],[91.95823575668635,35.23881494629731],[92.07286751977773,35.33244414993519],[92.07286751977773,35.798962665451874],[92.41676280905189,36.17021727700178],[92.53139457214328,36.44750992242918],[92.64602633523468,36.44750992242918],[92.98992162450882,36.723814969771816],[93.44844867687438,36.90746823999125],[93.67771220305714,37.09068046353772],[94.1362392554227,37.27345083075339],[94.36550278160547,37.27345083075339],[94.93866159706239,37.546776178924944],[95.7410839387021,37.63766285726158],[95.85571570179351,37.72843849380807],[96.31424275415904,37.72843849380807],[96.42887451725042,37.8191029966524],[96.7727698065246,37.8191029966524],[96.88740156961597,37.90965627510888],[97.23129685889013,37.90965627510888],[97.34592862198151,38.00009823971502],[97.68982391125567,38.00009823971502],[97.80445567434707,38.09042880222842],[98.14835096362123,38.09042880222842],[98.26298272671264,38.180647875623656],[98.60687801598677,38.180647875623656],[98.72150977907816,38.270755374089084],[99.06540506835232,38.270755374089084],[99.1800368314437,38.36075121302372],[99.52393212071787,38.36075121302372],[99.63856388380925,38.45063530903401],[99.98245917308341,38.45063530903401],[100.0970909361748,38.540407579930694],[100.44098622544895,38.540407579930694],[100.55561798854033,38.63006794472548],[100.8995132778145,38.63006794472548],[101.35804033018005,38.80905263804198],[101.58730385636282,38.80905263804198],[101.7019356194542,38.898376810563086],[101.93119914563698,38.898376810563086],[102.04583090872836,38.987588764974454],[102.27509443491117,38.987588764974454],[102.38972619800253,39.076688426244075],[102.61898972418531,39.076688426244075],[102.7336214872767,39.16567572052125],[103.07751677655085,39.16567572052125],[104.45309793364748,39.697235791711634],[105.37015203837858,40.39966073258896],[105.37015203837858,40.57413478248371],[105.59941556456135,40.83499488973804],[105.59941556456135,41.43969019714147],[105.14088851219581,42.1239343812887],[104.10920264437333,42.8008679223037],[103.87993911819056,42.8008679223037],[102.96288501345946,43.13658823345212],[102.61898972418531,43.13658823345212],[102.16046267181976,43.30376106394211],[101.8165673825456,43.30376106394211],[101.7019356194542,43.38717557247371],[101.35804033018005,43.38717557247371],[101.24340856708866,43.47047545046719],[101.01414504090589,43.47047545046719]],[[58.82965622327562,45.916112732050195],[58.71502446018423,45.8362559403069],[58.60039269709285,45.435250363696156],[58.25649740781869,44.950255318713076],[58.25649740781869,44.70620784979932],[58.37112917091007,44.624629077146814],[58.25649740781869,44.54293550190676],[58.25649740781869,44.37920396363391],[58.60039269709285,44.0503635286862],[59.05891974945839,43.88525477650338],[59.28818327564116,43.88525477650338],[59.51744680182393,43.9678665215615],[59.51744680182393,43.88525477650338],[59.746710328006714,43.719687123172875],[59.97597385418948,43.719687123172875],[60.09060561728087,43.88525477650338],[60.43450090655503,44.1327457864437],[60.43450090655503,44.21501328436567],[60.6637644327378,44.2971660129454],[60.6637644327378,44.37920396363391],[61.00765972201196,44.70620784979932],[61.35155501128612,44.70620784979932],[61.46618677437751,44.787671816045645],[61.46618677437751,44.950255318713076],[61.23692324819474,45.031374852153164],[61.122291485103354,45.1932694827194],[61.122291485103354,45.35470487486537],[60.89302795892057,45.51568105333125],[60.89302795892057,45.67619805730697],[60.77839619582919,45.8362559403069],[60.89302795892057,45.916112732050195],[60.89302795892057,46.07548206495218],[60.77839619582919,46.154994628307094],[59.97597385418948,46.154994628307094],[59.63207856491532,45.99585477004454],[59.63207856491532,45.8362559403069],[59.746710328006714,45.75628438502813],[60.09060561728087,45.75628438502813],[59.97597385418948,45.59599694911999],[59.746710328006714,45.59599694911999],[59.63207856491532,45.75628438502813],[59.28818327564116,45.75628438502813],[59.17355151254978,45.916112732050195],[58.82965622327562,45.916112732050195]],[[30.286347213520358,41.26748907326065],[30.400978976611743,41.18121773016539],[30.744874265885905,41.18121773016539],[30.85950602897729,41.09483259318573],[31.203401318251448,41.09483259318573],[31.54729660752561,41.43969019714147],[32.120455422982545,41.61143561439631],[32.578982475348084,41.8681985663976],[33.15214129080502,41.953558013819375],[33.26677305389641,42.03880329736859],[34.871617737175825,42.03880329736859],[35.100881263358595,42.1239343812887],[35.215513026449976,42.03880329736859],[35.215513026449976,41.8681985663976],[35.44477655263276,41.69713732827017],[35.78867184190691,41.69713732827017],[36.01793536808969,41.7827249919206],[36.13256713118108,41.69713732827017],[36.13256713118108,41.525619890320904],[36.361830657363846,41.3536465770348],[36.93498947282078,41.3536465770348],[37.16425299900355,41.18121773016539],[37.737411814460486,41.18121773016539],[37.966675340643256,41.00833370885228],[38.76909768228296,41.00833370885228],[38.88372944537436,41.09483259318573],[39.57152002392267,41.09483259318573],[39.68615178701406,41.00833370885228],[40.37394236556238,41.00833370885228],[41.29099647029347,41.3536465770348],[41.74952352265902,41.7827249919206],[41.74952352265902,42.03880329736859],[41.52025999647624,42.3786420935418],[41.52025999647624,42.63232082294488],[41.29099647029347,42.8008679223037],[41.17636470720208,42.8008679223037],[40.83246941792793,43.05282995309186],[40.60320589174515,43.05282995309186],[40.37394236556238,43.13658823345212],[40.03004707628822,43.38717557247371],[39.91541531319683,43.38717557247371],[39.91541531319683,43.47047545046719],[39.68615178701406,43.55366067962207],[39.68615178701406,43.6367312426304],[38.88372944537436,44.21501328436567],[38.76909768228296,44.21501328436567],[38.53983415610019,44.37920396363391],[38.31057062991742,44.37920396363391],[38.081307103734645,44.4611271288361],[37.852043577551875,44.624629077146814],[37.6227800513691,44.624629077146814],[37.39351652518632,44.70620784979932],[37.27888476209494,44.950255318713076],[36.93498947282078,45.11237957321721],[36.361830657363846,45.11237957321721],[36.247198894272465,45.031374852153164],[35.44477655263276,45.031374852153164],[35.100881263358595,44.787671816045645],[34.986249500267206,44.86902097300149],[34.75698597408444,44.86902097300149],[34.1838271586275,44.4611271288361],[33.954563632444724,44.37920396363391],[33.725300106261955,44.37920396363391],[33.496036580079185,44.54293550190676],[33.496036580079185,44.70620784979932],[33.610668343170566,44.787671816045645],[33.610668343170566,45.11237957321721],[33.496036580079185,45.1932694827194],[33.15214129080502,45.1932694827194],[32.92287776462225,45.35470487486537],[32.4643507122567,45.35470487486537],[32.4643507122567,45.435250363696156],[32.69361423843948,45.59599694911999],[32.80824600153086,45.59599694911999],[33.15214129080502,45.8362559403069],[33.15214129080502,45.99585477004454],[33.03750952771364,46.07548206495218],[32.349718949165315,46.07548206495218],[32.120455422982545,46.23439247251113],[31.776560133708383,46.31367561083006],[31.776560133708383,46.39284405738965],[31.432664844434225,46.62966140058816],[31.088769555160063,46.62966140058816],[30.744874265885905,46.39284405738965],[30.63024250279452,46.154994628307094],[30.057083687337585,45.75628438502813],[29.827820161154808,45.67619805730697],[29.827820161154808,45.35470487486537],[29.713188398063423,45.27404458238879],[29.713188398063423,45.031374852153164],[29.598556634972038,44.86902097300149],[29.369293108789265,44.86902097300149],[29.140029582606488,44.787671816045645],[28.681502530240945,44.37920396363391],[28.681502530240945,43.55366067962207],[28.566870767149556,43.38717557247371],[28.222975477875398,43.38717557247371],[27.993711951692628,43.22023194416923],[27.993711951692628,42.88496977368928],[27.76444842550985,42.63232082294488],[27.76444842550985,42.3786420935418],[28.108343714784013,42.03880329736859],[28.108343714784013,41.69713732827017],[28.45223900405817,41.43969019714147],[28.681502530240945,41.3536465770348],[28.910766056423718,41.3536465770348],[29.025397819515103,41.26748907326065],[29.48392487188065,41.26748907326065],[29.598556634972038,41.18121773016539],[30.17171545042897,41.18121773016539],[30.286347213520358,41.26748907326065]],[[52.63954101634075,42.63232082294488],[52.41027749015798,42.8008679223037],[51.95175043779243,42.8008679223037],[51.60785514851827,43.13658823345212],[51.26395985924411,43.13658823345212],[51.26395985924411,43.55366067962207],[51.03469633306133,43.719687123172875],[51.03469633306133,43.88525477650338],[50.57616928069579,44.2971660129454],[50.34690575451301,44.2971660129454],[50.23227399142163,44.37920396363391],[50.23227399142163,44.787671816045645],[50.00301046523885,44.86902097300149],[50.00301046523885,45.031374852153164],[50.34690575451301,45.11237957321721],[50.461537517604405,44.950255318713076],[50.805432806878564,44.950255318713076],[51.26395985924411,45.1932694827194],[51.37859162233549,45.35470487486537],[51.60785514851827,45.435250363696156],[52.41027749015798,45.435250363696156],[52.75417277943213,45.67619805730697],[52.75417277943213,45.916112732050195],[52.63954101634075,46.07548206495218],[52.86880454252352,46.23439247251113],[52.86880454252352,46.62966140058816],[52.75417277943213,46.708371238431354],[52.295645727066585,46.708371238431354],[52.1810139639752,46.78696646790718],[51.83711867470105,46.78696646790718],[51.60785514851827,46.708371238431354],[51.60785514851827,46.78696646790718],[51.37859162233549,46.94381317940367],[51.14932809615272,46.94381317940367],[50.690801043787175,46.78696646790718],[50.461537517604405,46.78696646790718],[50.23227399142163,46.62966140058816],[50.11764222833024,46.62966140058816],[49.88837870214747,46.47189782717179],[49.88837870214747,46.23439247251113],[49.77374693905608,46.23439247251113],[49.544483412873305,46.07548206495218],[49.544483412873305,45.916112732050195],[48.85669283432499,45.916112732050195],[48.7420610712336,45.8362559403069],[48.7420610712336,45.59599694911999],[48.39816578195944,45.59599694911999],[48.28353401886805,45.435250363696156],[48.05427049268528,45.35470487486537],[48.05427049268528,45.1932694827194],[47.939638729593895,45.1932694827194],[47.825006966502514,45.35470487486537],[47.59574344031973,45.35470487486537],[47.36647991413696,45.031374852153164],[47.36647991413696,44.86902097300149],[47.02258462486281,44.70620784979932],[47.02258462486281,44.37920396363391],[47.25184815104558,44.2971660129454],[47.25184815104558,44.21501328436567],[47.48111167722835,44.0503635286862],[47.825006966502514,44.0503635286862],[47.825006966502514,43.88525477650338],[47.59574344031973,43.719687123172875],[47.59574344031973,42.96895712539737],[47.710375203411125,42.88496977368928],[47.710375203411125,42.71665159659605],[48.05427049268528,42.46331604246438],[48.28353401886805,42.1239343812887],[48.85669283432499,41.69713732827017],[48.85669283432499,41.61143561439631],[49.20058812359915,41.26748907326065],[49.20058812359915,41.09483259318573],[49.544483412873305,40.83499488973804],[49.544483412873305,40.748155053520925],[49.77374693905608,40.57413478248371],[50.23227399142163,40.57413478248371],[50.461537517604405,40.39966073258896],[50.57616928069579,40.39966073258896],[50.57616928069579,40.31225367699689],[50.34690575451301,40.224733342651035],[50.23227399142163,40.31225367699689],[49.77374693905608,40.31225367699689],[49.65911517596469,40.224733342651035],[49.65911517596469,39.96149324944556],[49.42985164978193,39.873520388120255],[49.42985164978193,39.254550575133315],[49.085956360507765,38.898376810563086],[48.85669283432499,38.80905263804198],[48.85669283432499,38.270755374089084],[48.97132459741637,38.180647875623656],[48.97132459741637,37.8191029966524],[49.315219886690535,37.546776178924944],[49.544483412873305,37.45577855193956],[50.11764222833024,37.45577855193956],[50.23227399142163,37.27345083075339],[50.57616928069579,36.99912953367113],[50.690801043787175,36.99912953367113],[51.14932809615272,36.723814969771816],[51.49322338542688,36.723814969771816],[51.60785514851827,36.63182320065849],[52.295645727066585,36.63182320065849],[52.41027749015798,36.723814969771816],[52.75417277943213,36.723814969771816],[52.86880454252352,36.815696684329815],[53.09806806870629,36.815696684329815],[53.212699831797686,36.90746823999125],[53.78585864725461,36.90746823999125],[53.900490410346,36.99912953367113],[53.900490410346,37.546776178924944],[53.78585864725461,37.63766285726158],[53.78585864725461,38.09042880222842],[53.900490410346,38.180647875623656],[53.900490410346,38.36075121302372],[53.78585864725461,38.45063530903401],[53.78585864725461,38.63006794472548],[53.900490410346,38.71961632362789],[53.900490410346,38.898376810563086],[53.441963357980455,39.254550575133315],[53.212699831797686,39.254550575133315],[53.09806806870629,39.16567572052125],[53.09806806870629,39.697235791711634],[52.75417277943213,39.96149324944556],[52.75417277943213,40.661201667084576],[52.86880454252352,40.748155053520925],[52.86880454252352,41.26748907326065],[52.52490925324936,41.525619890320904],[52.52490925324936,41.69713732827017],[52.41027749015798,41.7827249919206],[52.41027749015798,42.20895123088017],[52.63954101634075,42.46331604246438],[52.63954101634075,42.63232082294488]],[[35.55940831572414,46.47189782717179],[34.986249500267206,45.99585477004454],[34.986249500267206,45.75628438502813],[35.44477655263276,45.35470487486537],[35.67404007881553,45.35470487486537],[35.78867184190691,45.435250363696156],[36.247198894272465,45.435250363696156],[36.361830657363846,45.51568105333125],[36.476462420455235,45.435250363696156],[37.04962123591218,45.435250363696156],[37.16425299900355,45.35470487486537],[37.39351652518632,45.35470487486537],[37.6227800513691,45.51568105333125],[37.6227800513691,45.67619805730697],[37.852043577551875,45.8362559403069],[37.966675340643256,46.07548206495218],[38.19593886682603,46.154994628307094],[38.19593886682603,46.31367561083006],[37.852043577551875,46.47189782717179],[37.737411814460486,46.708371238431354],[38.19593886682603,46.708371238431354],[38.31057062991742,46.78696646790718],[38.31057062991742,46.94381317940367],[37.966675340643256,47.100201698674056],[37.6227800513691,47.100201698674056],[37.39351652518632,46.94381317940367],[37.39351652518632,46.865447108219215],[37.04962123591218,46.865447108219215],[36.82035770972939,46.62966140058816],[36.361830657363846,46.62966140058816],[36.13256713118108,46.47189782717179],[36.01793536808969,46.55083693601052],[35.78867184190691,46.55083693601052],[35.55940831572414,46.47189782717179]]],[[[33.83993186935334,34.957278569369095],[33.381404816987796,34.6747717330784],[33.15214129080502,34.6747717330784],[32.92287776462225,34.580387739936235],[32.80824600153086,34.6747717330784],[32.4643507122567,34.6747717330784],[32.23508718607393,34.957278569369095],[32.349718949165315,35.14507753069315],[32.578982475348084,35.14507753069315],[32.80824600153086,35.23881494629731],[32.92287776462225,35.425965016789306],[33.954563632444724,35.425965016789306],[34.41309068481027,35.70587636795335],[34.642354210993055,35.70587636795335],[34.29845892171889,35.425965016789306],[34.06919539553612,35.33244414993519],[34.06919539553612,34.957278569369095],[33.83993186935334,34.957278569369095]]],[[[14.467163906909004,35.798962665451874],[14.23790038072623,35.98480831910696],[14.23790038072623,36.07756744243101],[14.352532143817616,36.07756744243101],[14.58179567000039,35.89194002152251],[14.58179567000039,35.798962665451874],[14.467163906909004,35.798962665451874]]],[[[52.9834363056149,39.076688426244075],[53.09806806870629,39.16567572052125],[53.09806806870629,38.71961632362789],[52.9834363056149,38.80905263804198],[52.9834363056149,39.076688426244075]]],[[[16.186640353279802,41.43969019714147],[16.30127211637119,41.3536465770348],[17.906116799650604,40.748155053520925],[18.479275615107532,40.31225367699689],[18.59390737819892,40.13709978721984],[18.479275615107532,40.04935306950512],[18.479275615107532,39.873520388120255],[18.250012088924763,39.785434547752175],[18.02074856274199,39.96149324944556],[17.791485036559212,40.31225367699689],[17.33295798419367,40.31225367699689],[17.218326221102284,40.39966073258896],[16.989062694919507,40.39966073258896],[16.759799168736734,40.224733342651035],[16.64516740564535,40.04935306950512],[16.64516740564535,39.697235791711634],[17.218326221102284,39.43196268054142],[17.218326221102284,38.987588764974454],[17.103694458010896,38.898376810563086],[16.759799168736734,38.898376810563086],[16.64516740564535,38.80905263804198],[16.64516740564535,38.45063530903401],[16.186640353279802,38.09042880222842],[16.072008590188414,37.90965627510888],[15.384218011640096,37.90965627510888],[15.269586248548709,37.8191029966524],[15.154954485457324,37.36467007067927],[15.384218011640096,36.99912953367113],[15.154954485457324,36.815696684329815],[15.154954485457324,36.63182320065849],[15.040322722365936,36.63182320065849],[14.925690959274549,36.723814969771816],[14.58179567000039,36.723814969771816],[14.23790038072623,37.09068046353772],[13.779373328360684,37.09068046353772],[13.55010980217791,37.27345083075339],[13.435478039086526,37.27345083075339],[12.976950986720977,37.546776178924944],[12.633055697446819,37.546776178924944],[12.403792171264044,37.72843849380807],[12.403792171264044,37.90965627510888],[12.633055697446819,38.180647875623656],[13.20621451290375,38.180647875623656],[13.320846275995137,38.270755374089084],[13.664741565269297,38.09042880222842],[14.58179567000039,38.09042880222842],[14.696427433091776,38.180647875623656],[15.154954485457324,38.180647875623656],[15.269586248548709,38.270755374089084],[15.498849774731484,38.270755374089084],[15.842745064005644,38.45063530903401],[15.842745064005644,38.71961632362789],[16.072008590188414,38.80905263804198],[16.072008590188414,39.343312918582264],[15.957376827097029,39.43196268054142],[16.186640353279802,39.520499791852],[16.186640353279802,39.873520388120255],[16.415903879462576,40.04935306950512],[16.415903879462576,40.83499488973804],[16.186640353279802,41.00833370885228],[15.728113300914256,41.00833370885228],[15.498849774731484,41.09483259318573],[15.154954485457324,41.3536465770348],[15.040322722365936,41.525619890320904],[15.040322722365936,41.69713732827017],[14.925690959274549,41.7827249919206],[14.925690959274549,42.03880329736859],[15.154954485457324,41.953558013819375],[15.384218011640096,41.953558013819375],[15.498849774731484,42.1239343812887],[15.728113300914256,42.20895123088017],[15.728113300914256,42.03880329736859],[15.842745064005644,41.953558013819375],[16.186640353279802,41.953558013819375],[16.186640353279802,41.43969019714147]]],[[[9.881893383253539,40.57413478248371],[9.767261620162152,40.39966073258896],[9.767261620162152,39.785434547752175],[9.652629857070766,39.697235791711634],[9.652629857070766,39.16567572052125],[9.53799809397938,39.076688426244075],[9.423366330887992,39.16567572052125],[9.194102804705222,39.16567572052125],[8.964839278522446,38.898376810563086],[8.620943989248286,38.898376810563086],[8.391680463065514,38.987588764974454],[8.391680463065514,40.48695445288866],[8.16241693688274,40.57413478248371],[8.16241693688274,41.00833370885228],[8.391680463065514,40.92172112479324],[8.735575752339672,40.92172112479324],[9.194102804705222,41.26748907326065],[9.308734567796606,41.26748907326065],[9.652629857070766,41.09483259318573],[9.767261620162152,40.92172112479324],[9.767261620162152,40.661201667084576],[9.881893383253539,40.57413478248371]]],[[[59.40281503873255,44.950255318713076],[59.17355151254978,44.787671816045645],[58.944287986367,44.950255318713076],[59.05891974945839,45.031374852153164],[59.05891974945839,45.1932694827194],[58.944287986367,45.35470487486537],[59.05891974945839,45.435250363696156],[59.05891974945839,45.59599694911999],[59.17355151254978,45.59599694911999],[59.17355151254978,45.435250363696156],[59.40281503873255,45.27404458238879],[59.40281503873255,44.950255318713076]]]]}}
