{"type":"Feature","properties":{"id":"schreiseeadler","sourceUrl":"https://commons.wikimedia.org/wiki/File:Icthyophaga_vocifer_distribution_map.svg","author":"T45614631 (WiTo7946); basemap: Master Uegly","license":"CC BY-SA 4.0","licenseUrl":"https://creativecommons.org/licenses/by-sa/4.0/","sourceImageSha256":"38d62aa51695fa1924a402093d3492e6fd3861dc03bedb410e7fe7d84e7fa580","registration":{"proj_string":"+proj=eqc +R=1 +lon_0=0","parameters_1000px":[720.2513822234529,-730.8999978541278,250.91241612263275,519.4051743147256],"coast_rmse_capped15_px":2.2728769779205322,"coast_median_px":0.15456685423851013,"coast_p90_px":2.017989158630371,"sample_count":2080,"image_width":1161,"image_height":1161,"pixel_transform_native":[836.2118547614288,-848.5748975086424,291.3093151183766,603.0294073793964],"transform_definition":"pixel_x=sx*projected_x+tx; pixel_y=sy*projected_y+ty","validation":"Odd coastline samples withheld from affine fit. Normalized to 1000px width.","controls":[[-17.5,14.7,40,383],[-5.6,36,218,70],[51.3,12,1034,421],[18.5,-34.3,568,1118],[45.15,-25.6,974,980]],"review_bounds":[-19,-36,54,38]},"includedColors":["#008000","#0080FF"],"adaptation":"Inverse map projection; present seasonal range colors combined; 3px border closing; contours simplified by 0.45 source pixels; components below 4 source pixels omitted; split at the antimeridian."},"geometry":{"type":"MultiPolygon","coordinates":[[[[-15.30076524194966,18.705026380642025],[-15.232246984062217,18.63750637777451],[-15.02669221039988,18.63750637777451],[-14.958173952512437,18.569986374907],[-14.821137436737548,18.569986374907],[-14.547064405187767,18.434946369171975],[-13.998918342088206,18.029826351966904],[-13.93040008420076,18.029826351966904],[-13.724845310538425,17.827266343364364],[-13.656327052650981,17.827266343364364],[-13.450772278988646,17.62470633476183],[-13.3822540211012,17.62470633476183],[-12.628553184339307,16.949506306086707],[-12.491516668564413,16.881986303219193],[-12.354480152789524,16.881986303219193],[-12.285961894902082,16.814466300351683],[-12.080407121239745,16.814466300351683],[-11.806334089689964,16.67942629461666],[-11.395224542365293,16.3418262802791],[-10.435968931941064,15.869186260206515],[-9.956341126728947,15.801666257339],[-9.887822868841502,15.73414625447149],[-8.928567258417273,15.73414625447149],[-8.860049000529827,15.801666257339],[-8.448939453205156,15.801666257339],[-8.380421195317712,15.869186260206515],[-8.037829905880486,15.869186260206515],[-7.969311647993041,15.936706263074027],[-7.7637568743307055,15.936706263074027],[-7.695238616443261,16.00422626594154],[-7.4211655848934805,16.00422626594154],[-7.352647327006036,16.07174626880905],[-7.078574295456255,16.07174626880905],[-7.01005603756881,16.13926627167656],[-6.804501263906475,16.13926627167656],[-6.73598300601903,16.206786274544076],[-6.119318685032024,16.274306277411586],[-6.050800427144579,16.3418262802791],[-5.708209137707354,16.40934628314661],[-5.434136106157574,16.544386288881636],[-5.297099590382683,16.67942629461666],[-5.091544816720349,16.746946297484172],[-4.9545083009454585,16.881986303219193],[-4.269325722071008,17.219586317556757],[-3.926734432633783,17.287106320424268],[-3.858216174746337,17.35462632329178],[-3.7211796589714474,17.35462632329178],[-3.652661401084002,17.422146326159293],[-3.515624885309112,17.422146326159293],[-3.4471066274216673,17.489666329026807],[-3.173033595871887,17.489666329026807],[-3.104515337984442,17.557186331894318],[-2.7619240485472165,17.557186331894318],[-2.6934057906597717,17.62470633476183],[-2.1452597275602114,17.62470633476183],[-2.076741469672766,17.69222633762934],[-1.665631922348096,17.69222633762934],[-1.597113664460651,17.759746340496854],[-1.1860041171359805,17.759746340496854],[-1.1174858592485355,17.827266343364364],[-0.63785805403642,17.827266343364364],[-0.569339796148975,17.89478634623188],[0.32139755638781065,17.89478634623188],[0.3899158142752557,17.827266343364364],[0.732507103712481,17.827266343364364],[0.801025361599926,17.759746340496854],[1.1436166510371513,17.759746340496854],[1.2121349089245963,17.69222633762934],[1.5547261983618217,17.69222633762934],[1.623244456249267,17.62470633476183],[1.8973174877990469,17.62470633476183],[1.9658357456864917,17.557186331894318],[2.171390519348827,17.557186331894318],[2.4454635508986073,17.422146326159293],[2.5825000666734974,17.422146326159293],[3.541755677097728,16.949506306086707],[3.8843469665349533,16.67942629461666],[4.432493029634514,16.40934628314661],[4.569529545409404,16.274306277411586],[5.254712124283855,15.936706263074027],[5.59730341372108,15.869186260206515],[5.665821671608525,15.801666257339],[5.871376445270861,15.801666257339],[5.939894703158306,15.73414625447149],[6.213967734708086,15.73414625447149],[6.2824859925955305,15.666626251603978],[9.571362371192894,15.666626251603978],[9.639880629080338,15.599106248736467],[10.256544950067344,15.599106248736467],[10.325063207954788,15.531586245868953],[10.530617981617123,15.531586245868953],[10.599136239504569,15.464066243001444],[10.873209271054348,15.464066243001444],[10.941727528941794,15.39654624013393],[11.147282302604129,15.39654624013393],[11.215800560491575,15.329026237266419],[11.42135533415391,15.329026237266419],[11.489873592041354,15.261506234398906],[12.10653791302836,15.193986231531392],[12.175056170915804,15.126466228663881],[12.449129202465585,15.126466228663881],[12.517647460353029,15.058946225796369],[12.860238749790255,15.058946225796369],[12.928757007677701,14.991426222928858],[13.339866555002372,14.991426222928858],[13.408384812889816,14.923906220061344],[13.819494360214486,14.923906220061344],[13.88801261810193,14.856386217193835],[14.299122165426601,14.856386217193835],[14.367640423314047,14.78886621432632],[14.984304744301053,14.78886621432632],[15.052823002188497,14.721346211458807],[16.423188159937403,14.721346211458807],[16.49170641782484,14.78886621432632],[16.69726119148718,14.78886621432632],[17.245407254586738,15.058946225796369],[17.519480286136517,15.329026237266419],[17.725035059798856,15.39654624013393],[17.862071575573744,15.531586245868953],[18.273181122898414,15.73414625447149],[18.61577241233564,15.801666257339],[18.684290670223085,15.869186260206515],[18.88984544388542,15.869186260206515],[18.958363701772864,15.936706263074027],[19.232436733322643,15.936706263074027],[19.30095499121009,16.00422626594154],[19.71206453853476,16.00422626594154],[19.780582796422205,16.07174626880905],[20.94539318050877,16.07174626880905],[21.013911438396217,16.00422626594154],[21.699094017270667,16.00422626594154],[21.76761227515811,15.936706263074027],[22.315758338257673,15.936706263074027],[22.384276596145117,15.869186260206515],[22.863904401357235,15.869186260206515],[22.932422659244676,15.801666257339],[23.069459175019567,15.801666257339],[23.137977432907014,15.869186260206515],[23.343532206569346,15.869186260206515],[23.412050464456794,15.801666257339],[23.75464175389402,15.801666257339],[24.0287147854438,15.666626251603978],[24.16575130121869,15.666626251603978],[24.43982433276847,15.464066243001444],[24.98797039586803,15.464066243001444],[25.056488653755476,15.39654624013393],[28.413883290240282,15.39654624013393],[28.48240154812773,15.464066243001444],[28.619438063902617,15.464066243001444],[28.75647457967751,15.599106248736467],[28.962029353339844,15.666626251603978],[29.236102384889623,15.869186260206515],[29.373138900664514,15.869186260206515],[29.57869367432685,16.00422626594154],[29.715730190101734,16.00422626594154],[29.921284963764077,16.13926627167656],[30.263876253201303,16.206786274544076],[30.469431026863635,16.3418262802791],[30.81202231630086,16.40934628314661],[31.017577089963194,16.544386288881636],[31.15461360573808,16.544386288881636],[31.36016837940042,16.67942629461666],[31.702759668837647,16.746946297484172],[31.771277926725087,16.814466300351683],[31.908314442499982,16.814466300351683],[32.113869216162314,16.949506306086707],[32.456460505599544,17.01702630895422],[32.66201527926187,17.152066314689247],[33.0046065686991,17.219586317556757],[33.07312482658655,17.287106320424268],[33.21016134236143,17.287106320424268],[33.27867960024888,17.35462632329178],[33.41571611602377,17.35462632329178],[33.484234373911214,17.422146326159293],[33.62127088968611,17.422146326159293],[33.689789147573556,17.489666329026807],[33.826825663348444,17.489666329026807],[33.895343921235884,17.557186331894318],[34.10089869489822,17.557186331894318],[34.16941695278567,17.62470633476183],[35.7453368841969,17.62470633476183],[36.15644643152157,17.152066314689247],[36.15644643152157,17.084546311821732],[36.430519463071356,16.814466300351683],[36.4990377209588,16.814466300351683],[36.636074236733684,16.67942629461666],[36.77311075250858,16.67942629461666],[36.91014726828347,16.611906291749147],[37.25273855772069,16.274306277411586],[37.66384810504537,16.07174626880905],[37.800884620820256,16.07174626880905],[37.8694028787077,16.00422626594154],[38.211994168144926,16.00422626594154],[38.280512426032374,15.936706263074027],[39.102731520681715,15.936706263074027],[39.2397680364566,16.00422626594154],[39.37680455223149,15.73414625447149],[39.51384106800638,15.666626251603978],[39.51384106800638,15.531586245868953],[39.65087758378127,15.39654624013393],[39.78791409955616,15.39654624013393],[39.856432357443616,15.464066243001444],[39.9934688732185,15.329026237266419],[39.9934688732185,15.193986231531392],[40.06198713110594,15.058946225796369],[40.19902364688083,14.923906220061344],[40.33606016265572,14.923906220061344],[40.473096678430615,14.991426222928858],[40.74716970998039,14.721346211458807],[40.88420622575528,14.653826208591298],[41.08976099941762,14.653826208591298],[41.29531577307995,14.45126619998876],[41.432352288854844,14.181186188518712],[41.56938880462973,14.046146182783689],[41.63790706251718,14.046146182783689],[41.843461836179515,13.843586174181151],[41.91198009406696,13.843586174181151],[42.254571383504185,13.50598615984359],[42.11753486772929,13.235906148373543],[41.63790706251718,12.763266128300957],[41.500870546742284,12.493186116830909],[41.500870546742284,12.358146111095886],[41.432352288854844,12.290626108228372],[41.432352288854844,12.088066099625836],[41.363834030967396,12.020546096758325],[41.363834030967396,11.277826065215692],[41.432352288854844,11.21030606234818],[41.432352288854844,10.805186045143108],[41.500870546742284,10.737666042275595],[41.500870546742284,10.467586030805546],[41.56938880462973,10.400066027938035],[41.56938880462973,10.1975060193355],[41.77494357829207,9.792386002130426],[41.77494357829207,9.657345996395401],[41.9804983519544,9.252225979190328],[42.11753486772929,9.117185973455305],[42.254571383504185,8.779585959117744],[42.39160789927907,8.64454595338272],[42.46012615716652,8.441985944780182],[42.597162672941415,8.306945939045159],[42.66568093082885,8.104385930442623],[42.802717446603744,7.969345924707599],[42.871235704491184,7.766785916105062],[43.00827222026608,7.6317459103700385],[43.28234525181586,7.091585887429941],[43.28234525181586,6.956545881694916],[43.3508635097033,6.889025878827405],[43.3508635097033,6.41638585875482],[43.41938176759075,6.348865855887308],[43.41938176759075,5.471105818609651],[43.3508635097033,5.403585815742139],[43.3508635097033,5.268545810007114],[43.41938176759075,5.201025807139603],[43.41938176759075,4.930945795669554],[43.3508635097033,4.79590578993453],[43.28234525181586,4.79590578993453],[43.145308736040974,4.660865784199506],[43.07679047815353,4.660865784199506],[42.93975396237863,4.525825778464481],[42.871235704491184,4.525825778464481],[42.597162672941415,4.323265769861945],[42.46012615716652,4.323265769861945],[42.39160789927907,4.2557457669944325],[42.18605312561674,4.2557457669944325],[42.11753486772929,4.188225764126921],[41.843461836179515,4.188225764126921],[41.77494357829207,4.1207057612594085],[41.500870546742284,4.1207057612594085],[41.363834030967396,4.053185758391897],[41.29531577307995,4.1207057612594085],[41.08976099941762,4.1207057612594085],[41.02124274153017,4.188225764126921],[40.88420622575528,4.188225764126921],[40.81568796786784,4.2557457669944325],[40.06198713110594,4.2557457669944325],[39.51384106800638,4.525825778464481],[39.171249778569155,4.593345781331994],[39.102731520681715,4.660865784199506],[38.96569500490682,4.660865784199506],[38.89717674701937,4.728385787067017],[38.760140231244485,4.728385787067017],[38.69162197335704,4.79590578993453],[38.55458545758216,4.79590578993453],[38.486067199694716,4.863425792802042],[38.280512426032374,4.863425792802042],[38.211994168144926,4.930945795669554],[37.93792113659514,4.930945795669554],[37.8694028787077,4.998465798537066],[36.70459249462113,4.998465798537066],[36.636074236733684,4.930945795669554],[36.430519463071356,4.930945795669554],[36.36200120518391,4.863425792802042],[36.01940991574668,4.79590578993453],[35.95089165785924,4.728385787067017],[35.81385514208436,4.728385787067017],[35.53978211053457,4.593345781331994],[35.197190821097344,4.2557457669944325],[35.197190821097344,4.188225764126921],[35.060154305322456,4.053185758391897],[34.99163604743501,3.918145752656872],[34.99163604743501,3.7831057469218483],[34.85459953166012,3.5805457383193118],[34.85459953166012,3.3779857297167752],[34.78608127377267,3.310465726849263],[34.78608127377267,0.6771856150162912],[34.85459953166012,0.6096656121487791],[34.85459953166012,0.4071056035462428],[34.92311778954756,0.3395856006787307],[34.92311778954756,0.2045455949437065],[35.1286725632099,-0.06553441652634191],[35.1286725632099,-0.133054419393854],[35.608300368422015,-0.5381744365989266],[35.608300368422015,-0.6056944394664386],[36.01940991574668,-1.0108144566715114],[36.29348294729646,-1.1458544624065354],[36.430519463071356,-1.2808944681415597],[36.567555978846244,-1.2808944681415597],[36.978665526170914,-1.483454476744096],[37.25273855772069,-1.483454476744096],[37.32125681560814,-1.550974479611608],[37.800884620820256,-1.550974479611608],[37.8694028787077,-1.6184944824791203],[38.14347591025748,-1.6184944824791203],[38.211994168144926,-1.6860144853466323],[38.41754894180726,-1.6860144853466323],[38.486067199694716,-1.7535344882141444],[38.760140231244485,-1.7535344882141444],[38.82865848913193,-1.8210544910816566],[39.171249778569155,-1.7535344882141444],[40.130505388993384,-1.2808944681415597],[40.54161493631806,-0.9432944538039992],[40.6101331942055,-0.9432944538039992],[41.843461836179515,0.27206559781121864],[42.11753486772929,0.4071056035462428],[42.254571383504185,0.542145609281267],[42.323089641391626,0.542145609281267],[42.46012615716652,0.6771856150162912],[42.93975396237863,0.8797456236188275],[43.07679047815353,1.0147856293538517],[43.28234525181586,1.0147856293538517],[43.3508635097033,0.9472656264863397],[43.48790002547819,0.9472656264863397],[43.48790002547819,0.8122256207513154],[42.597162672941415,-0.06553441652634191],[42.597162672941415,-0.133054419393854],[42.39160789927907,-0.33561442799639035],[42.39160789927907,-0.40313443086390244],[42.18605312561674,-0.6056944394664386],[42.04901660984184,-0.9432944538039992],[41.15827925730506,-1.8885744939491689],[41.15827925730506,-1.9560944968166807],[41.02124274153017,-2.091134502551705],[40.952724483642726,-2.091134502551705],[40.6101331942055,-2.4287345168892656],[40.6101331942055,-2.4962545197567776],[40.26754190476828,-2.90137453696185],[40.26754190476828,-2.9688945398293627],[40.130505388993384,-3.0364145426968743],[40.06198713110594,-3.171454548431899],[40.06198713110594,-3.306494554166923],[39.924950615331056,-3.441534559901947],[39.856432357443616,-3.6440945685044834],[39.719395841668714,-3.7791345742395075],[39.719395841668714,-3.914174579974532],[39.30828629434404,-4.454334602914629],[39.30828629434404,-4.589374608649653],[39.102731520681715,-4.859454620119701],[38.96569500490682,-5.12953463158975],[38.96569500490682,-5.264574637324774],[38.82865848913193,-5.46713464592731],[38.82865848913193,-5.939774665999895],[39.03421326279427,-6.209854677469943],[39.102731520681715,-6.41241468607248],[39.30828629434404,-6.614974694675016],[39.37680455223149,-6.614974694675016],[39.51384106800638,-6.885054706145064],[39.51384106800638,-7.492734731952673],[39.44532281011893,-7.560254734820186],[39.44532281011893,-8.03289475489277],[39.37680455223149,-8.100414757760282],[39.37680455223149,-8.640574780700378],[39.51384106800638,-8.843134789302916],[39.51384106800638,-9.045694797905451],[39.719395841668714,-9.248254806507987],[39.924950615331056,-9.65337482371306],[40.473096678430615,-10.193534846653158],[40.473096678430615,-10.93625487819579],[40.54161493631806,-11.003774881063302],[40.54161493631806,-11.138814886798327],[40.473096678430615,-11.20633488966584],[40.473096678430615,-12.016574924075984],[40.54161493631806,-12.084094926943497],[40.54161493631806,-12.354174938413545],[40.473096678430615,-12.421694941281057],[40.473096678430615,-13.231934975691203],[40.54161493631806,-13.299454978558714],[40.54161493631806,-13.637054992896275],[40.67865145209294,-13.839615001498812],[40.67865145209294,-14.042175010101348],[40.74716970998039,-14.10969501296886],[40.74716970998039,-14.717375038776469],[40.33606016265572,-15.527615073186613],[40.33606016265572,-15.662655078921636],[39.924950615331056,-16.202815101861734],[39.856432357443616,-16.405375110464274],[39.719395841668714,-16.540415116199295],[37.25273855772069,-17.755775167814512],[36.636074236733684,-18.363455193622123],[36.636074236733684,-18.430975196489637],[36.29348294729646,-18.768575210827194],[36.22496468940902,-18.903615216562216],[35.81385514208436,-19.106175225164755],[35.67681862630946,-19.24121523089978],[35.608300368422015,-19.24121523089978],[34.64904475799778,-20.051455265309926],[34.64904475799778,-20.25401527391246],[34.58052650011033,-20.321535276779972],[34.58052650011033,-20.726655293985047],[34.717563015885226,-20.861695299720072],[34.717563015885226,-20.92921530258758],[34.92311778954756,-21.199295314057633],[34.99163604743501,-21.53689532839519],[35.060154305322456,-21.604415331262704],[35.060154305322456,-21.739455336997725],[35.47126385264712,-22.54969537140787],[35.47126385264712,-23.022335391480457],[35.33422733687223,-23.292415402950507],[35.33422733687223,-23.42745540868553],[35.265709078984784,-23.494975411553042],[35.265709078984784,-23.630015417288067],[35.33422733687223,-23.697535420155578],[35.47126385264712,-23.697535420155578],[35.47126385264712,-23.900095428758114],[35.40274559475968,-24.03513543449314],[35.060154305322456,-24.3727354488307],[34.64904475799778,-24.575295457433235],[34.5120082422229,-24.575295457433235],[34.44348998433546,-24.642815460300746],[34.306453468560555,-24.642815460300746],[34.16941695278567,-24.71033546316826],[33.41571611602377,-25.520575497578406],[33.347197858136326,-25.520575497578406],[33.0046065686991,-25.858175511915963],[33.0046065686991,-26.128255523386017],[32.936088310811655,-26.195775526253524],[32.936088310811655,-26.533375540591088],[32.86757005292421,-26.6008955434586],[32.86757005292421,-27.00601556066367],[32.79905179503677,-27.07353556353118],[32.79905179503677,-27.343615575001234],[32.73053353714932,-27.41113557786874],[32.73053353714932,-27.61369558647128],[32.593497021374425,-27.883775597941327],[32.593497021374425,-28.01881560367635],[32.524978763486985,-28.086335606543866],[32.524978763486985,-28.2888956151464],[32.456460505599544,-28.356415618013912],[32.456460505599544,-28.491455623748937],[32.3879422477121,-28.55897562661645],[32.3879422477121,-28.89657564095401],[32.31942398982465,-28.964095643821526],[32.31942398982465,-29.099135649556544],[32.25090573193721,-29.234175655291573],[31.771277926725087,-29.706815675364158],[31.702759668837647,-29.706815675364158],[31.291650121512976,-30.111935692569226],[31.15461360573808,-30.179455695436744],[31.15461360573808,-30.24697569830425],[30.94905883207575,-30.5170557097743],[30.94905883207575,-30.719615718376836],[30.880540574188302,-30.854655724111858],[30.674985800525967,-31.057215732714397],[30.537949284751083,-31.327295744184443],[30.400912768976188,-31.46233574991947],[30.400912768976188,-31.52985575278698],[30.195357995313856,-31.732415761389518],[30.05832147953896,-32.00249577285957],[29.85276670587663,-32.2050557814621],[29.85276670587663,-32.27257578432961],[29.099065869114735,-33.08281581873976],[29.030547611227288,-33.08281581873976],[28.619438063902617,-33.48793583594483],[28.345365032352838,-33.62297584167986],[28.071292000803055,-33.8930558531499],[28.00277374291561,-33.8930558531499],[27.523145937703497,-34.36569587322249],[27.454627679816053,-34.36569587322249],[27.31759116404116,-34.500735878957514],[27.24907290615372,-34.500735878957514],[26.974999874603935,-34.70329588756005],[26.632408585166708,-34.77081589042756],[26.56389032727927,-34.838335893295074],[26.221299037842044,-34.838335893295074],[26.152780779954597,-34.77081589042756],[26.015744264179705,-34.77081589042756],[25.604634716855035,-35.04089590189761],[25.262043427417808,-35.108415904765124],[25.19352516953037,-35.175935907632635],[24.98797039586803,-35.175935907632635],[24.919452137980585,-35.24345591050015],[24.71389736431825,-35.24345591050015],[24.645379106430802,-35.310975913367656],[24.30278781699358,-35.310975913367656],[24.0287147854438,-35.175935907632635],[23.89167826966891,-35.175935907632635],[23.823160011781464,-35.108415904765124],[23.48056872234424,-35.108415904765124],[23.206495690794462,-35.24345591050015],[22.932422659244676,-35.24345591050015],[22.658349627694896,-35.108415904765124],[22.384276596145117,-35.108415904765124],[21.63057575938322,-35.581055924837706],[20.94539318050877,-35.581055924837706],[20.123174085859432,-35.986175942042784],[19.57502802275987,-35.986175942042784],[19.02688195966031,-35.581055924837706],[18.88984544388542,-35.581055924837706],[18.684290670223085,-35.310975913367656],[18.547254154448193,-35.24345591050015],[18.410217638673306,-35.24345591050015],[18.478735896560753,-35.108415904765124],[18.478735896560753,-34.838335893295074],[18.273181122898414,-34.635775884692535],[18.273181122898414,-34.568255881825024],[18.06762634923608,-34.36569587322249],[17.999108091348635,-34.23065586748747],[17.999108091348635,-33.960575856017414],[18.204662865010967,-33.8930558531499],[18.410217638673306,-33.62297584167986],[18.410217638673306,-33.21785582447478],[18.06762634923608,-32.88025581013722],[17.999108091348635,-32.88025581013722],[17.999108091348635,-32.7452158044022],[17.862071575573744,-32.54265579579967],[17.862071575573744,-32.2050557814621],[17.725035059798856,-31.934975769992054],[17.725035059798856,-31.664895758522007],[17.930589833461188,-31.259775741316933],[17.862071575573744,-30.922175726979376],[17.38244377036163,-30.179455695436744],[17.38244377036163,-30.044415689701715],[17.108370738811853,-29.57177566962913],[17.108370738811853,-29.301695658159083],[17.039852480924406,-29.234175655291573],[17.039852480924406,-29.099135649556544],[16.834297707262067,-28.829055638086498],[16.765779449374623,-28.626495629483962],[16.560224675712288,-28.423935620881426],[16.49170641782484,-28.423935620881426],[16.49170641782484,-28.356415618013912],[16.21763338627506,-28.086335606543866],[16.149115128387617,-28.086335606543866],[15.738005581062948,-27.681215589338795],[15.738005581062948,-27.61369558647128],[15.600969065288059,-27.478655580736255],[15.600969065288059,-27.41113557786874],[15.395414291625722,-27.141055566398695],[15.32689603373828,-26.803455552061134],[15.258377775850832,-26.735935549193623],[15.258377775850832,-26.6008955434586],[15.052823002188497,-26.33081553198855],[15.052823002188497,-26.060735520518502],[14.984304744301053,-25.99321551765099],[14.984304744301053,-25.453055494710892],[14.915786486413605,-25.38553549184338],[14.915786486413605,-24.980415474638306],[14.778749970638716,-24.71033546316826],[14.778749970638716,-24.507775454565724],[14.710231712751272,-24.440255451698214],[14.710231712751272,-24.305215445963185],[14.641713454863826,-24.237695443095674],[14.641713454863826,-24.03513543449314],[14.573195196976382,-23.967615431625628],[14.573195196976382,-23.224895400082993],[14.504676939088936,-23.157375397215482],[14.504676939088936,-22.954815388612943],[14.573195196976382,-22.887295385745436],[14.573195196976382,-22.617215374275382],[14.641713454863826,-22.54969537140787],[14.641713454863826,-22.41465536567285],[14.573195196976382,-22.279615359937825],[14.230603907539155,-21.942015345600264],[14.093567391764266,-21.671935334130218],[13.88801261810193,-21.46937532552768],[13.75097610232704,-21.199295314057633],[13.75097610232704,-21.064255308322604],[13.339866555002372,-20.321535276779972],[13.339866555002372,-20.186495271044947],[12.860238749790255,-19.24121523089978],[12.517647460353029,-18.83609521369471],[12.38061094457814,-18.498495199357144],[12.038019655140914,-18.160895185019584],[11.900983139366025,-17.890815173549537],[11.900983139366025,-17.755775167814512],[11.832464881478579,-17.688255164946998],[11.832464881478579,-16.540415116199295],[11.900983139366025,-16.47289511333178],[11.900983139366025,-15.595135076054126],[12.10653791302836,-15.325055064584078],[12.10653791302836,-14.987455050246517],[12.24357442880325,-14.78489504164398],[12.24357442880325,-14.447295027306419],[12.312092686690697,-14.379775024438908],[12.312092686690697,-14.10969501296886],[12.449129202465585,-13.907135004366323],[12.449129202465585,-13.637054992896275],[12.586165718240474,-13.502014987161251],[12.723202234015364,-13.231934975691203],[12.723202234015364,-13.096894969956178],[13.06579352345259,-12.691774952751105],[13.20283003922748,-12.421694941281057],[13.88801261810193,-11.746494912605936],[13.88801261810193,-11.543934904003399],[13.956530875989376,-11.476414901135888],[13.956530875989376,-11.003774881063302],[13.88801261810193,-10.93625487819579],[13.88801261810193,-10.733694869593254],[13.819494360214486,-10.666174866725742],[13.819494360214486,-10.531134860990718],[13.476903070777261,-9.855934832315597],[13.339866555002372,-9.720894826580572],[13.339866555002372,-9.58585482084555],[13.271348297114926,-9.518334817978037],[13.271348297114926,-9.248254806507987],[13.134311781340037,-9.113214800772964],[13.134311781340037,-8.843134789302916],[13.476903070777261,-8.640574780700378],[13.476903070777261,-8.505534774965355],[13.271348297114926,-8.100414757760282],[13.271348297114926,-7.830334746290235],[13.134311781340037,-7.560254734820186],[13.134311781340037,-7.425214729085162],[12.997275265565147,-7.155134717615113],[12.79172049190281,-6.952574709012577],[12.723202234015364,-6.817534703277552],[12.723202234015364,-6.682494697542528],[12.654683976127922,-6.614974694675016],[12.654683976127922,-6.479934688939991],[12.312092686690697,-5.872254663132383],[12.312092686690697,-5.6021746516623345],[12.24357442880325,-5.534654648794823],[12.24357442880325,-5.12953463158975],[12.038019655140914,-4.926974622987213],[11.96950139725347,-4.724414614384678],[11.763946623591135,-4.521854605782141],[11.626910107816245,-4.251774594312092],[11.489873592041354,-4.116734588577068],[11.489873592041354,-4.049214585709556],[10.873209271054348,-3.441534559901947],[10.873209271054348,-3.374014557034435],[10.667654497392013,-3.171454548431899],[10.393581465842233,-3.0364145426968743],[10.119508434292456,-2.766334531226826],[10.050990176405008,-2.766334531226826],[9.708398886967784,-2.4287345168892656],[9.708398886967784,-2.3612145140217535],[9.571362371192894,-2.226174508286729],[9.571362371192894,-2.023614499684193],[9.160252823868221,-1.2133744652740477],[9.023216308093332,-1.0783344595390234],[9.023216308093332,-0.9432944538039992],[8.886179792318442,-0.7407344452014629],[8.886179792318442,-0.6732144423339508],[8.954698050205888,-0.6732144423339508],[9.228771081755667,-0.40313443086390244],[9.297289339643113,-0.2680944251288782],[9.297289339643113,-0.133054419393854],[9.365807597530557,-0.06553441652634191],[9.297289339643113,0.4071056035462428],[9.434325855418003,0.6771856150162912],[9.434325855418003,1.0147856293538517],[9.502844113305446,1.082305632221364],[9.434325855418003,1.5549456522939487],[9.639880629080338,1.757505660896485],[9.776917144855231,1.757505660896485],[9.913953660630119,1.9600656694990213],[9.913953660630119,2.365185686704094],[9.982471918517563,2.432705689571606],[9.982471918517563,2.9053457096441906],[10.050990176405008,2.9728657125117026],[10.050990176405008,3.310465726849263],[9.708398886967784,3.648065741186824],[9.708398886967784,3.918145752656872],[9.571362371192894,4.053185758391897],[9.365807597530557,4.053185758391897],[9.228771081755667,4.1207057612594085],[9.160252823868221,4.2557457669944325],[8.749143276543553,4.660865784199506],[8.475070244993772,4.79590578993453],[8.132478955556547,4.728385787067017],[8.063960697669103,4.660865784199506],[7.858405924006766,4.660865784199506],[7.789887666119321,4.593345781331994],[7.173223345132316,4.593345781331994],[7.104705087244871,4.525825778464481],[7.036186829357426,4.593345781331994],[6.830632055695091,4.593345781331994],[6.762113797807646,4.525825778464481],[6.41952250837042,4.525825778464481],[6.351004250482975,4.458305775596969],[5.939894703158306,4.458305775596969],[5.734339929495969,4.593345781331994],[5.59730341372108,4.998465798537066],[5.460266897946189,5.13350580427209],[5.460266897946189,5.336065812874626],[5.391748640058744,5.403585815742139],[5.391748640058744,5.538625821477162],[5.254712124283855,5.808705832947211],[5.117675608508964,5.9437458386822355],[5.117675608508964,6.011265841549748],[4.638047803296849,6.41638585875482],[4.501011287521959,6.483905861622333],[4.363974771747069,6.483905861622333],[4.295456513859624,6.551425864489844],[4.021383482309844,6.551425864489844],[3.9528652244223985,6.483905861622333],[3.747310450760063,6.483905861622333],[3.6787921928726184,6.41638585875482],[3.4047191613228387,6.41638585875482],[3.336200903435393,6.483905861622333],[2.7195365824483875,6.483905861622333],[2.651018324560942,6.41638585875482],[2.4454635508986073,6.41638585875482],[2.376945293011162,6.348865855887308],[2.034354003573937,6.348865855887308],[1.9658357456864917,6.281345853019796],[1.6917627141367115,6.281345853019796],[1.623244456249267,6.2138258501522845],[1.4862079404743764,6.2138258501522845],[1.3491714246994866,6.146305847284771],[1.2121349089245963,6.011265841549748],[1.0750983931497062,6.011265841549748],[0.8695436194873712,5.808705832947211],[0.5954705879375909,5.808705832947211],[0.5269523300501457,5.741185830079699],[0.25287929850036556,5.741185830079699],[0.18436104061292055,5.673665827212187],[-0.02119373304941462,5.673665827212187],[-0.08971199093685968,5.606145824344675],[-0.2267485067117498,5.606145824344675],[-0.3637850224866399,5.538625821477162],[-0.50082153826153,5.403585815742139],[-0.7063763119238652,5.336065812874626],[-0.8434128276987553,5.201025807139603],[-0.9804493434736454,5.201025807139603],[-1.0489676013610905,5.13350580427209],[-1.4600771486857607,5.13350580427209],[-1.665631922348096,4.863425792802042],[-1.802668438122986,4.79590578993453],[-1.871186696010431,4.863425792802042],[-2.1452597275602114,4.863425792802042],[-2.3508145012225463,4.998465798537066],[-2.5563692748848816,4.998465798537066],[-2.624887532772327,5.065985801404578],[-2.7619240485472165,5.065985801404578],[-2.8304423064346618,5.13350580427209],[-3.104515337984442,5.13350580427209],[-3.3100701116467772,5.268545810007114],[-3.4471066274216673,5.268545810007114],[-3.515624885309112,5.336065812874626],[-3.7211796589714474,5.336065812874626],[-3.7896979168588922,5.403585815742139],[-4.406362237845898,5.403585815742139],[-4.6804352693956774,5.268545810007114],[-5.297099590382683,5.268545810007114],[-5.365617848270128,5.201025807139603],[-5.571172621932464,5.201025807139603],[-5.8452456534822455,5.065985801404578],[-5.982282169257134,5.065985801404578],[-6.050800427144579,4.998465798537066],[-6.1878369429194695,4.998465798537066],[-6.598946490244141,4.79590578993453],[-6.73598300601903,4.660865784199506],[-7.078574295456255,4.593345781331994],[-7.1470925533436995,4.525825778464481],[-7.4211655848934805,4.525825778464481],[-7.489683842780925,4.458305775596969],[-7.55820210066837,4.525825778464481],[-7.695238616443261,4.525825778464481],[-7.83227513221815,4.660865784199506],[-7.969311647993041,4.660865784199506],[-8.517457711092602,4.930945795669554],[-8.654494226867492,5.065985801404578],[-8.791530742642381,5.065985801404578],[-9.134122032079606,5.336065812874626],[-9.202640289967052,5.336065812874626],[-10.093377642503839,6.2138258501522845],[-10.230414158278728,6.2138258501522845],[-10.504487189828508,6.348865855887308],[-10.778560221378289,6.618945867357357],[-11.052633252928068,6.753985873092381],[-11.463742800252739,7.159105890297453],[-11.600779316027628,7.159105890297453],[-12.148925379127189,7.429185901767502],[-12.354480152789524,7.834305918972574],[-12.491516668564413,7.834305918972574],[-12.628553184339307,7.901825921840086],[-12.834107958001638,8.171905933310136],[-12.971144473776532,8.239425936177646],[-13.10818098955142,8.509505947647696],[-13.039662731663974,8.577025950515209],[-13.039662731663974,8.712065956250232],[-13.176699247438863,8.847105961985255],[-13.176699247438863,9.04966597058779],[-13.3822540211012,9.454785987792864],[-13.51929053687609,9.589825993527889],[-13.51929053687609,9.657345996395401],[-14.06743659997565,10.1975060193355],[-14.135954857863096,10.1975060193355],[-14.135954857863096,10.26502602220301],[-14.547064405187767,10.670146039408081],[-14.547064405187767,10.737666042275595],[-14.684100920962656,10.872706048010619],[-14.684100920962656,11.007746053745644],[-14.7526191788501,11.142786059480667],[-14.88965569462499,11.277826065215692],[-15.02669221039988,11.345346068083204],[-15.30076524194966,11.345346068083204],[-15.369283499837106,11.412866070950717],[-15.369283499837106,11.480386073818227],[-15.232246984062217,11.480386073818227],[-15.095210468287327,11.615426079553252],[-15.095210468287327,11.8855060910233],[-15.369283499837106,12.088066099625836],[-15.506320015611998,12.088066099625836],[-15.57483827349944,12.020546096758325],[-16.260020852373895,12.020546096758325],[-16.260020852373895,12.425666113963398],[-16.328539110261335,12.493186116830909],[-16.465575626036227,12.493186116830909],[-16.671130399698562,12.763266128300957],[-16.671130399698562,13.16838614550603],[-16.602612141811118,13.235906148373543],[-15.917429562936666,13.235906148373543],[-15.848911305049223,13.303426151241053],[-15.71187478927433,13.303426151241053],[-15.57483827349944,13.43846615697608],[-15.57483827349944,13.573506162711103],[-15.643356531386887,13.641026165578616],[-15.848911305049223,13.641026165578616],[-15.917429562936666,13.708546168446127],[-16.465575626036227,13.708546168446127],[-16.465575626036227,13.776066171313639],[-16.671130399698562,14.046146182783689],[-16.671130399698562,14.316226194253735],[-16.876685173360897,14.518786202856273],[-16.945203431248345,14.518786202856273],[-17.082239947023233,14.78886621432632],[-17.082239947023233,14.923906220061344],[-17.150758204910677,14.991426222928858],[-17.082239947023233,15.126466228663881],[-16.808166915473453,15.39654624013393],[-16.808166915473453,15.464066243001444],[-16.602612141811118,15.666626251603978],[-16.465575626036227,16.00422626594154],[-16.328539110261335,16.13926627167656],[-16.328539110261335,16.40934628314661],[-16.260020852373895,16.476866286014122],[-16.260020852373895,16.611906291749147],[-16.328539110261335,16.67942629461666],[-16.328539110261335,16.881986303219193],[-16.054466078711556,17.422146326159293],[-15.985947820824114,17.759746340496854],[-15.848911305049223,17.96230634909939],[-15.848911305049223,18.569986374907],[-15.71187478927433,18.705026380642025],[-15.30076524194966,18.705026380642025]],[[33.895343921235884,-9.450814815110524],[33.895343921235884,-9.788414829448085],[34.237935210673115,-10.328574852388181],[34.237935210673115,-10.801214872460767],[34.16941695278567,-10.868734875328279],[34.16941695278567,-11.003774881063302],[34.237935210673115,-11.071294883930815],[34.237935210673115,-11.27385489253335],[34.306453468560555,-11.341374895400863],[34.10089869489822,-11.746494912605936],[34.10089869489822,-12.219134932678521],[34.237935210673115,-12.48921494414857],[34.237935210673115,-12.961854964221153],[34.306453468560555,-13.029374967088666],[34.306453468560555,-13.231934975691203],[34.5120082422229,-13.434494984293739],[34.5120082422229,-13.974655007233835],[34.58052650011033,-14.042175010101348],[34.78608127377267,-14.042175010101348],[35.060154305322456,-13.907135004366323],[35.060154305322456,-13.704574995763787],[34.85459953166012,-13.434494984293739],[34.85459953166012,-12.82681495848613],[34.78608127377267,-12.759294955618618],[34.78608127377267,-12.016574924075984],[34.92311778954756,-11.881534918340959],[34.92311778954756,-11.746494912605936],[34.99163604743501,-11.678974909738423],[34.99163604743501,-11.408894898268375],[34.64904475799778,-10.868734875328279],[34.64904475799778,-10.126014843785645],[34.5120082422229,-9.855934832315597],[34.5120082422229,-9.720894826580572],[34.16941695278567,-9.383294812243012],[33.96386217912333,-9.383294812243012],[33.895343921235884,-9.450814815110524]],[[29.099065869114735,-4.656894611517164],[29.099065869114735,-4.994494625854726],[29.304620642777067,-5.332094640192286],[29.304620642777067,-5.6021746516623345],[29.167584127002176,-5.737214657397359],[29.167584127002176,-5.939774665999895],[29.373138900664514,-6.209854677469943],[29.373138900664514,-6.344894683204968],[29.441657158551955,-6.41241468607248],[29.441657158551955,-6.547454691807504],[29.510175416439402,-6.682494697542528],[30.12683973742641,-7.222654720482624],[30.195357995313856,-7.35769472621765],[30.195357995313856,-7.492734731952673],[30.332394511088744,-7.762814743422721],[30.537949284751083,-8.03289475489277],[30.537949284751083,-8.370494769230332],[30.743504058413414,-8.505534774965355],[31.08609534785064,-8.573054777832867],[31.15461360573808,-8.505534774965355],[31.15461360573808,-8.370494769230332],[31.08609534785064,-8.302974766362818],[31.08609534785064,-8.167934760627794],[30.606467542638523,-7.2901747233501375],[30.537949284751083,-6.952574709012577],[30.400912768976188,-6.682494697542528],[29.78424844798918,-6.142334674602432],[29.78424844798918,-5.939774665999895],[29.921284963764077,-5.737214657397359],[29.921284963764077,-5.46713464592731],[29.78424844798918,-5.1970546344572615],[29.78424844798918,-5.062014628722237],[29.715730190101734,-4.994494625854726],[29.647211932214294,-4.521854605782141],[29.57869367432685,-4.454334602914629],[29.373138900664514,-4.454334602914629],[29.099065869114735,-4.656894611517164]],[[33.55275263179866,0.3395856006787307],[33.347197858136326,0.4746256064137549],[33.21016134236143,0.4746256064137549],[33.07312482658655,0.3395856006787307],[33.07312482658655,0.27206559781121864],[32.936088310811655,0.2045455949437065],[32.86757005292421,0.27206559781121864],[32.593497021374425,0.27206559781121864],[32.31942398982465,0.1370255920761944],[32.113869216162314,0.1370255920761944],[31.908314442499982,0.0019855863411701972],[31.908314442499982,-0.33561442799639035],[31.771277926725087,-0.47065443373141447],[31.771277926725087,-0.8757744509364871],[31.839796184612535,-0.9432944538039992],[31.839796184612535,-1.1458544624065354],[31.702759668837647,-1.415934473876584],[31.702759668837647,-1.6184944824791203],[31.634241410950203,-1.6860144853466323],[31.634241410950203,-2.091134502551705],[31.839796184612535,-2.4962545197567776],[31.976832700387426,-2.4962545197567776],[32.18238747404976,-2.226174508286729],[32.3879422477121,-2.226174508286729],[32.593497021374425,-2.3612145140217535],[33.0046065686991,-2.3612145140217535],[33.141643084474,-2.2936945111542415],[33.21016134236143,-2.3612145140217535],[33.484234373911214,-2.3612145140217535],[33.689789147573556,-2.226174508286729],[33.689789147573556,-2.091134502551705],[33.62127088968611,-2.023614499684193],[33.21016134236143,-2.023614499684193],[33.27867960024888,-1.9560944968166807],[33.27867960024888,-1.8210544910816566],[33.62127088968611,-1.550974479611608],[33.62127088968611,-1.415934473876584],[34.10089869489822,-0.9432944538039992],[34.10089869489822,-0.47065443373141447],[34.237935210673115,-0.33561442799639035],[34.237935210673115,-0.20057442226136613],[34.03238043701077,0.0019855863411701972],[34.03238043701077,0.1370255920761944],[33.826825663348444,0.3395856006787307],[33.55275263179866,0.3395856006787307]]]]}}
