{"type":"Feature","properties":{"id":"sekretaer","sourceUrl":"https://commons.wikimedia.org/wiki/File:Secretarybird_distribution_map.svg","license":"CC0","author":"Aa77zz","sourceImageSha256":"3138dbb0e2b3dc0f7719ba20e69ce65aef0e1f4ca578c16fbda6099be5907986","registration":{"proj_string":"+proj=laea +R=1 +lon_0=15 +lat_0=0","parameters_1000px":[839.1861689515117,-843.5006092960384,473.1485299131532,302.30593118727853],"coast_rmse_capped15_px":0.9352241158485413,"coast_median_px":0.2671140730381012,"coast_p90_px":1.53623628616333,"sample_count":660,"image_width":1289,"image_height":1059,"pixel_transform_native":[1081.7109717784986,-1087.2722853825935,609.8884550580544,389.672345300402],"transform_definition":"pixel_x=sx*projected_x+tx; pixel_y=sy*projected_y+ty","validation":"Odd coastline samples withheld from affine fit. Normalized to 1000px width.","controls":[[49.3,-11.9,1233,632],[20,-34.8,709,1034],[-17.5,14.7,25,102],[51.3,12,1274,160],[8.7,-0.6,510,390]],"all_fits":[],"status":"reviewed","coastlineReference":"Natural Earth 1:110m (world-registration-110m.geojson)"},"includedColors":["#b5d900"],"adaptation":"Inverse global map projection; current seasonal/subspecies colors combined; explicitly reviewed legends/arrows omitted; 3px border closing; contours simplified by 0.45 source pixels; components below 4 source pixels omitted; split at the antimeridian.","licenseUrl":"https://creativecommons.org/publicdomain/zero/1.0/deed.en","originalFileSha256":"80961a0d1b8cc72d193abd7de60f8a221cb6cddf14849353f5ddcc1cf7c5dd67","sourceImagePath":"data/ranges/reference-originals/sekretaer-authoring.png"},"geometry":{"type":"MultiPolygon","coordinates":[[[[18.368395884720957,-34.016701244484324],[18.370082928703937,-34.071788025592404],[18.368389287667465,-34.01670741869476],[18.368395884720957,-34.016701244484324]]],[[[31.356401634959337,-15.61231518039906],[31.35480045138525,-15.585989955600748],[31.356408070276185,-15.612320875931037],[31.356401634959337,-15.61231518039906]]],[[[18.24297124956063,-31.765593664168613],[18.240021347218885,-31.656086112178315],[18.05484336129356,-31.43843492680751],[18.053471600949948,-31.38371846851853],[17.93135033122881,-31.275111553334458],[17.930043339984074,-31.220415007068716],[17.808211833065158,-31.11181009824173],[17.806968623396592,-31.05713342576161],[17.685423524574247,-30.948530942330052],[17.55963489307492,-30.62138470478965],[17.438767968712163,-30.51281351631337],[17.25498412569018,-30.186208412811137],[17.191171439289683,-29.913745789785494],[17.13122927534404,-29.85949226485862],[17.12944594853159,-29.75045318852589],[17.069610436742806,-29.696210139415168],[17.06789119488362,-29.58721093501718],[17.008161225618526,-29.532978374458732],[17.006505122201915,-29.424018825115517],[16.886533114758485,-29.26111563281473],[16.88499611959331,-29.152221303408872],[16.764729476867533,-28.9349623054766],[16.586992445046697,-28.77236278089052],[16.527236507020596,-28.66377280973915],[16.52602527837796,-28.555018490000702],[15.704515430812721,-27.904881020484805],[15.587055224441013,-27.63362357459528],[15.238079586488077,-27.254198877540745],[15.237902591810961,-27.14576515453497],[15.17997378131456,-27.091581515835532],[15.179643249460065,-26.82063574592872],[15.12186433809883,-26.766482005629904],[15.121731696194837,-26.60400603355471],[15.064058015494242,-26.549869900498017],[15.063966128127662,-26.33334385089721],[14.948926560310325,-26.171013559969705],[14.949016376500634,-25.90057925598449],[14.834477710060199,-25.684314115920078],[14.834874670518658,-25.30611469658486],[14.777782718100813,-25.25208862971482],[14.834986588161868,-25.19810935760351],[14.835318386013528,-24.874229385722163],[14.438793432831101,-24.1190326781506],[14.443952473631777,-22.504849418153285],[14.387900583421393,-22.451068356388603],[14.388259881913799,-22.343630765128275],[14.276736598140413,-22.128692244905405],[14.164983041050998,-22.021171957595772],[14.165222994507728,-21.96749094079275],[13.886460937717791,-21.698719664892817],[13.831129895079975,-21.591320752925775],[13.832111560571084,-21.430412701977236],[13.66548583926393,-21.269215979961434],[13.500353045039505,-20.94724869702732],[13.389674023209242,-20.839819932728],[13.280029363528865,-20.625273622593042],[13.280944199785829,-20.518171820376846],[13.171078772869214,-20.357253899802608],[13.172037080445138,-20.250198937373533],[13.007352957874224,-20.03566733403667],[13.007866444560834,-19.982165700694186],[12.897917364404544,-19.87483897894905],[12.680662848287856,-19.44635032779716],[12.68181644373932,-19.339453028496788],[12.517609014929135,-19.178568519098857],[12.464161017574957,-19.0181005117719],[12.246409181864642,-18.75025010980174],[12.247067552773057,-18.696858624779182],[11.865902657745888,-18.321676353702504],[11.75870214678212,-18.107808117040747],[11.70889877136786,-17.73429470917264],[11.6546835907564,-17.68074444396753],[11.66564331890464,-16.881579342740853],[11.5568246562647,-16.82786262730058],[11.559729389538136,-16.614913437447495],[11.66916532072116,-16.615375619883764],[11.72456746154011,-16.56237038945472],[11.733894280785854,-15.817510755436254],[11.899377752091162,-15.658598965138093],[11.955084826233065,-15.552457381129294],[12.013604142294634,-15.180563687515717],[12.068579137937329,-15.127604998390826],[12.070780508411156,-14.915066782019936],[12.125682662632267,-14.862116782961914],[12.127274016943915,-14.702754398034447],[12.182116877303956,-14.649810466417938],[12.184160814668664,-14.43738140094992],[12.238933574921795,-14.384445928566635],[12.240409375810243,-14.225164066245691],[12.350746768115066,-14.013140611383028],[12.351666609236196,-13.906989681137645],[12.406293719376713,-13.854067024713542],[12.40762532304887,-13.6948700802072],[12.517584322177365,-13.482927829040166],[12.51841147487401,-13.376832161855534],[12.573299777509888,-13.270880859033698],[12.8997480637407,-12.953409947398477],[12.901083315665339,-12.741327906427893],[13.225502923075982,-12.635901679835795],[13.442301312834985,-12.424211568643488],[13.713849913442347,-11.894656907283746],[13.715510393550188,-11.417951935238623],[13.769455145018505,-11.365055220548598],[13.770803908796356,-10.9415008478588],[13.824667038056406,-10.888620410473997],[13.825442572412788,-10.62398554592855],[13.771939264207662,-10.571013841059562],[13.77225601206338,-10.465180917124645],[13.504800772052455,-10.253258406023177],[13.505174365809507,-10.147455071082604],[13.292012964303316,-9.82984116925139],[13.292421440700428,-9.72407477891009],[13.239077823320303,-9.671126632322055],[13.187003162121002,-9.300958440787637],[13.133711130790703,-9.248026298439191],[13.13474920398553,-8.983741982699499],[13.188611595090102,-8.878107890307485],[13.349508682064592,-8.71975395462713],[13.350372188513816,-8.455556081704568],[13.243732760478055,-8.402605974558545],[13.243911935830921,-8.349774375815583],[13.297483662502396,-8.29700268980533],[13.297825428572699,-8.191347565441985],[13.35153472724826,-8.085754279810356],[13.725987636606593,-7.716356196795248],[13.779321360265374,-7.716395172261075],[13.886195607520659,-7.61084342471382],[14.419681151632167,-7.347061623246042],[14.686193540308853,-7.294323771135262],[14.73950844869123,-7.241529408675545],[14.899369794743318,-7.241545284242699],[14.952661000489156,-7.18874601785866],[15.112508153305543,-7.188743173934145],[15.16577615283109,-7.135939270723403],[15.32560975772337,-7.135917985566028],[15.37885504726613,-7.083109712266599],[15.645223434538758,-7.08303632979326],[15.698437645094097,-7.0302211793490414],[15.911517144885565,-7.030129579014],[15.964705462278207,-6.977309394900528],[16.284304936597692,-6.9771189020686855],[16.337459574042608,-6.92429162691514],[17.13644434726183,-6.923561589434074],[17.189897896343187,-6.9762851077855315],[17.456271742013282,-6.97595712916275],[17.509761333207592,-7.028669562990438],[17.669606986039934,-7.028448514918002],[17.72312319390958,-7.081153555689387],[17.936279299005335,-7.080829064348078],[18.14999096521081,-7.18603791635874],[18.25659638688996,-7.18585148372466],[18.310190056091542,-7.238535002409621],[18.416808973286635,-7.238337793238818],[19.380099415465743,-7.7112121698458544],[19.48683841352135,-7.710934983139576],[19.75505414046703,-7.868530905696475],[19.86183710724939,-7.868224027509952],[20.022987451764624,-7.973293879861375],[20.183210006184094,-7.972798713445894],[20.237129565537,-8.02539969168428],[20.343962659143166,-8.025055154825347],[20.397909931009202,-8.07764795486651],[20.611615276519224,-8.07692618563483],[20.665603495436013,-8.129504669620085],[20.93279431334474,-8.12854786129995],[20.98683070188212,-8.181108546786348],[21.360996924828385,-8.179672968063622],[21.415095689280548,-8.232208939865613],[22.056759755872832,-8.229505975423498],[22.110956390627376,-8.28199966241124],[23.020471029564245,-8.277669686622845],[23.07480375512552,-8.330100999318278],[23.931379569056784,-8.32548967945024],[23.98584601902816,-8.377858098519535],[25.16460232659078,-8.37066905914017],[25.219252550352238,-8.422946374784843],[26.077302350519542,-8.41709204360867],[26.132096706294075,-8.469297339195577],[26.561407987998944,-8.466157310570503],[26.778571073444667,-8.569660795547113],[26.939666361875357,-8.568414323025582],[26.994628414806307,-8.6205462555892],[27.102054275153392,-8.61969669321045],[27.265810058192013,-8.723488775714037],[27.535855461127717,-8.773804693860752],[27.59096402561926,-8.825881611903148],[27.698493194823744,-8.82496770914937],[27.753641315353853,-8.87702928552156],[27.861198292276434,-8.87609796484617],[27.916386327105478,-8.928144016969435],[28.400607220069805,-8.923811485792186],[28.297374509265282,-9.08228162927597],[28.307934863574964,-9.449828130952485],[28.363356292368792,-9.501822094587375],[28.578892474986326,-9.499721354134357],[28.629629573495745,-9.394200938800454],[28.737396097024,-9.393145784591784],[28.789702118255818,-9.340131947724727],[28.786566752041143,-9.23517106900792],[28.837328876663623,-9.129699778505048],[29.15123534470495,-8.81186226599405],[29.202039955855234,-8.706472537976614],[29.197548731514118,-8.549169642945076],[29.142258194068067,-8.49723268762997],[29.29929410822181,-8.338480126457071],[29.34591198398449,-8.075929371264838],[29.398279452285518,-8.023048757887398],[29.39547982913566,-7.918244681409244],[29.44785830359966,-7.865379477898591],[29.443743690444986,-7.708198493101968],[29.496138207125245,-7.655353302335858],[29.49080401400543,-7.445817393114789],[29.54322005578855,-7.3929967132371806],[29.538057666065193,-7.183501494853892],[29.590496309785916,-7.1307051588559265],[29.585506486722764,-6.921249631981674],[29.636750347855656,-6.816121355264643],[29.802798781840718,-7.024280831074845],[30.073987774159185,-7.126800241044297],[30.18681461003033,-7.335248566521382],[30.19513722734073,-7.649290079090779],[30.250356083605684,-7.701153553372008],[30.253240467282758,-7.8058415325361725],[30.36233136762183,-7.857198929398251],[30.528316274728468,-8.012699076377885],[30.585231759897376,-8.116851375528835],[30.429865200628758,-8.327793057821037],[30.433024923641756,-8.432496722500478],[30.488508944112432,-8.484311234026103],[30.704097425750923,-8.48213354714685],[30.81355618228687,-8.533364846039031],[31.036020680058165,-8.74041304558548],[31.14393233434922,-8.739254297636435],[31.248405056900307,-8.633470265324641],[31.243307021940485,-8.476555944979822],[31.187698274460253,-8.424817036265074],[31.184386109422242,-8.320211144086818],[31.01780710410951,-8.164937249757482],[31.013063194332894,-8.008021279478006],[30.845334807227292,-7.800353854814411],[30.842339893904356,-7.6957410673831275],[30.78556308192345,-7.591627657201887],[30.67504383364403,-7.487987687288135],[30.668018871466437,-7.226455938591982],[30.612869489497516,-7.174614792699967],[30.604867341934984,-6.86080783861046],[30.439819551590055,-6.705203807542655],[30.32745652025497,-6.4968192707654895],[30.217679117805492,-6.393011978435323],[30.002967426829667,-6.394597620574059],[29.894478008847205,-6.343053022476729],[29.893334586720194,-6.290725333406637],[29.78378581319428,-6.186826217359709],[29.780495236312444,-6.029837723012907],[29.991792579051967,-5.871426063876887],[29.986569534701392,-5.609881975524976],[29.821782246519284,-5.401655257020749],[29.818911422981444,-5.244724545297192],[29.871551123185537,-5.192100455988773],[29.867882064134825,-4.982889865159593],[29.704575212811687,-4.826868610297608],[29.651029804822794,-4.827158762296012],[29.64933444040164,-4.722539033079177],[29.70203712973462,-4.669949858236956],[29.696444855266396,-4.3038362712542595],[29.532233860241877,-4.043076331489741],[29.51734720594584,-2.735673839209237],[29.463434492967526,-2.6835444677690967],[29.45776555570045,-1.9515118687982795],[29.40401713080752,-1.8993389527697382],[29.40166510416361,-1.4810464942230739],[29.348012594962174,-1.4288452484249203],[29.34688815746278,-1.167407710721467],[29.293298976467536,-1.1151861677074089],[29.29244959539112,-0.8537397698312049],[29.23892209462736,-0.8014977351081403],[29.23844293582488,-0.5923319214153034],[29.184966160551248,-0.5400721322778792],[29.18466789966312,-0.33089630731741726],[29.13124065881013,-0.2786186475071834],[29.131138228777633,-0.12172852255629675],[29.07775038902978,-0.06943587407735602],[29.077744565486295,0.03516342140840556],[28.917841995347814,0.34902164225034765],[28.811258734261596,0.45369083095595913],[28.811338721664306,0.5060057888710947],[28.278993625098696,0.9773861246379112],[28.225663954333573,0.977438963679011],[28.11933934116845,1.082251728630243],[27.268045898099587,1.5023349808591906],[27.161478565704577,1.502484463829802],[27.002097731152453,1.6075316389352465],[26.8955526147517,1.6076880455812748],[26.629944756021178,1.7653664205769526],[26.52342884161275,1.7655327469644042],[25.992255184226035,2.0286491527314],[25.88633235751409,2.133764837954376],[25.726917209970754,2.1865212239761957],[25.568105840358488,2.3442537242257244],[25.514880061170913,2.3443541485825854],[25.197420168789247,2.6599493681284656],[25.197750789355133,2.712451730769563],[25.09198371727357,2.817690328865936],[24.934469264411813,3.1331316496427326],[24.9385444347591,3.658345633864954],[25.046872611950075,3.868137028889511],[25.04782475431024,3.9731858376582867],[25.10158145334942,4.025546605242734],[25.102577438769327,4.130595895130362],[25.156366182024474,4.182949547812143],[25.157406461362694,4.287999479256654],[25.21122779166667,4.340346023137142],[25.212865169587896,4.497923451521799],[25.266729094981926,4.55026158920685],[25.269042374693758,4.76037236213113],[25.322959449146204,4.812700878425988],[25.326048773225278,5.075354664160219],[25.117890366215768,5.496568511103001],[24.907167006404507,5.70770953482487],[24.853804615283988,5.707938904398839],[24.748447395017486,5.813536370749573],[24.430318269648318,5.972656273259378],[24.164191718419836,6.026384069084555],[24.111503829341224,6.07921017478499],[24.004788700240866,6.079657795800756],[23.95209684633215,6.132489012835821],[23.792032443321734,6.13315231339225],[23.579926783794345,6.23926715964033],[23.36653118533972,6.240126217998933],[23.313818631515414,6.292973214834499],[23.047102731026463,6.294018595788236],[22.994377573415314,6.346871088531024],[22.567701390869882,6.348475150502489],[22.514955293976346,6.401333412951412],[20.38289417159454,6.408032901479763],[20.329206715244872,6.3554509320365575],[19.370511949131302,6.3576984022629075],[19.316929203269606,6.305070667767426],[16.86835856418479,6.308701388750302],[16.81528141855675,6.361519145537375],[16.38952946213162,6.361849004175411],[16.33641538775992,6.414659253477335],[16.017090894715487,6.414842440931714],[15.963946229702291,6.467646424000447],[15.591382713223345,6.467788826715961],[15.538202316878923,6.520584560603431],[15.272069002673478,6.520637985330149],[15.218859930456844,6.573427295823494],[14.952707046985347,6.573438700008755],[14.89946843993642,6.626221045024225],[14.526823460477788,6.626167225104011],[14.473545680335986,6.678939002761283],[14.154105334118702,6.678827768292214],[14.10079158727446,6.731589704242902],[13.781317512519955,6.731416673253327],[13.72796672374536,6.784168049124448],[13.248695350608513,6.78379460741593],[13.19529216886653,6.836529194282257],[11.437480991388984,6.834079022594879],[11.3845018809544,6.78121632575284],[11.064845165677774,6.780594371297414],[11.011893022596146,6.727729415525863],[10.798786038569144,6.72728319874465],[10.745852940750233,6.674417729339897],[10.639300995996848,6.674184868506643],[10.533105577496102,6.6212011473828545],[10.374378964554856,6.46261724882224],[10.162064228966651,6.356658086371559],[9.94901414570543,6.356148894731548],[9.89614063914771,6.303293686969348],[9.256919813051216,6.30163188755149],[9.20319903388177,6.354193675961352],[8.990066049876486,6.353585576215939],[8.936310557276425,6.406134140050256],[8.829725634273153,6.4058164406815346],[8.615539905388298,6.510560267156593],[7.537045646656372,7.507877453816872],[7.483621936765901,7.507649015309256],[6.833085584105327,8.13698856217261],[6.779579387452713,8.136717353984436],[6.562148199794882,8.346366889068426],[6.346219716801821,8.450577063961331],[6.237291468591586,8.555348404453056],[6.183722090948903,8.555042187325535],[6.074703481468708,8.659789918906725],[5.858403624702781,8.763872317736617],[5.751191223274319,8.763215560509904],[5.588332385720639,8.867559579580092],[5.4274466954483875,8.866530146161661],[5.372768663578723,8.918849177947001],[5.104545898209869,8.9170739788966],[5.049808215919257,8.969367955573388],[4.191007929087982,8.9632896356381],[4.136120651808085,9.015510531099288],[3.652716778289242,9.011829227315372],[3.5977338121158535,9.064004983173687],[3.382792200469057,9.062298922997185],[3.1651738705916963,9.165714493758097],[3.0576445114520605,9.164822856824763],[2.6218123864245393,9.371396800847373],[2.5113020609044336,9.475553238797088],[2.348329299735289,9.526639139668827],[2.0175403251267183,9.786328691062897],[1.7987669727004927,9.889293195491605],[1.6876838450964664,9.99327950856339],[1.5242114173891073,10.044156222206164],[1.4129400406900239,10.14808383987429],[0.8641923426141676,10.404794928530311],[0.5921495698469008,10.454228716725636],[0.5362311191267306,10.506093980041962],[0.4280976160649746,10.504838418765194],[0.26204854935381383,10.607883028235497],[-0.010419048633812962,10.657092969347042],[-0.06651676059841072,10.708890291199367],[-0.28304681664624987,10.706211055370177],[-0.3392133603382518,10.757977789447686],[-1.0434343001519215,10.748925617847862],[-1.095503992360483,10.695819274836861],[-1.2038890635802462,10.694392535154813],[-1.416400477865163,10.586773821038612],[-1.6246365113092551,10.374492518031095],[-1.6788207918742164,10.373778602391113],[-1.7287618271194876,10.268393811022833],[-2.4057642313648695,9.579446215385047],[-2.4599053694090975,9.578755598010227],[-2.5640930720991646,9.47287562251174],[-2.6723768989903376,9.471494882478318],[-2.722429060279973,9.366339418836718],[-2.9349123109470914,9.259151857590108],[-3.043201047385602,9.257773049884912],[-3.0953030412268943,9.204883257329639],[-3.3119190848770677,9.202108124955066],[-3.3681613086766578,9.25358600574409],[-3.5306949632823756,9.251463986511268],[-3.5869957384813826,9.302914459669136],[-3.695391736966891,9.301476674903745],[-3.8059556543833306,9.352177344698987],[-4.20129152042934,9.711884725825733],[-4.437432599766498,10.125719528113075],[-4.504099708284957,10.385527821203452],[-4.5610052328173385,10.43681041277193],[-4.566061630787078,10.541068498398225],[-4.623038995191363,10.592336329887614],[-4.62818961548926,10.696596275696868],[-4.68523948621193,10.747849296074316],[-4.69048499378284,10.852111200985924],[-4.747608040818578,10.903349358067452],[-4.752949106246554,11.007613319996459],[-4.810146003181714,11.058836560434633],[-4.815583302753901,11.16310267628044],[-4.9959456819371155,11.473087743453942],[-5.228815465301784,11.729834936714811],[-5.234719323062495,11.83408688219123],[-5.29235412479699,11.88520992885251],[-5.401690648239124,11.883189884063508],[-5.514071371701207,11.933266311687008],[-5.687396861554522,12.086476628474909],[-6.363890006287367,12.386014956111236],[-6.64143071642718,12.432463692574801],[-6.6996530256904805,12.483360936605289],[-6.809409999761428,12.481082013620663],[-6.867694868875075,12.531952321557753],[-7.032404707873213,12.528487841389158],[-7.090765614404529,12.579322936422422],[-7.255557561478058,12.57580759285265],[-7.3139950455762115,12.626607125252997],[-7.533837761406193,12.621845726111633],[-7.592365641420766,12.672601129591369],[-7.922355867761827,12.6653197496934],[-7.9810016538389865,12.716013869281586],[-8.311250975512912,12.70857393170156],[-8.370015831591186,12.759205853189009],[-8.700528279616767,12.751605993275042],[-8.7594133722107,12.802174798017594],[-9.145341173411612,12.793109393186388],[-9.204361450411833,12.843605470652772],[-9.535444082219438,12.835663142084925],[-9.59458705990306,12.886094136166069],[-9.925945597506667,12.877987619166163],[-9.985212450871632,12.928352597059368],[-10.206282860149924,12.922850346691888],[-10.26564648079993,12.973166429491474],[-10.431549444552946,12.968979846707704],[-10.490996343043776,13.019255601405748],[-10.823038133632135,13.010742841392444],[-10.88261182694513,13.06095034208195],[-11.54748153399989,13.043471834912346],[-11.60727023429127,13.09355392121957],[-11.82913706802506,13.08758812446746],[-11.889026377165065,13.137618372702326],[-12.000024432982455,13.13459721927672],[-12.235588583551602,13.283001297186686],[-12.625416305598538,13.891294775908717],[-12.659626712031672,14.251691105331828],[-12.720372876204094,14.301485490879319],[-12.73038651056139,14.40446196727985],[-12.679615444322584,14.457670448485965],[-12.720560384567392,14.869715057199468],[-12.629682923257862,15.079364352804964],[-12.64555554093775,15.233973240276566],[-12.594936699231669,15.287325901217098],[-12.60564076855292,15.39042498349666],[-12.4251140322373,15.810376455262887],[-12.127551641534762,16.18295871244428],[-12.071484209420683,16.184841043658295],[-11.819019360148765,16.45265315019268],[-11.605865772015795,16.563643679815566],[-11.504896871208803,16.670900820590408],[-11.34221118945034,16.728331196903387],[-11.24123674536815,16.83566384760085],[-10.388335485793396,17.280580011254983],[-10.276114072085798,17.28432439110629],[-10.225582192962978,17.338114694872054],[-10.057269772288471,17.343705144243426],[-10.006718759484881,17.397511865143635],[-9.83843320937043,17.403069530422844],[-9.787862462189496,17.45689241132799],[-9.50745566888886,17.466078639455045],[-9.456850651509448,17.519920987298427],[-9.120488674605735,17.53081325785326],[-9.069841189094493,17.584676200021796],[-8.677596448332812,17.59719973587437],[-8.626897855173294,17.651084101678773],[-8.234842090660129,17.663407440871243],[-8.184090730275807,17.717312282108324],[-7.6802963775702295,17.732859021213667],[-7.6294753348308975,17.78678602886559],[-7.014154547766956,17.805327175094607],[-6.963245779540489,17.85927720595756],[-6.236648321059463,17.88053077611719],[-6.1856325004356005,17.934503693033033],[-4.957480357418761,17.968830500478703],[-4.9062777577328935,18.02282982590556],[-3.2344000649946376,18.066298433967468],[-3.1745434933603645,18.015045683049436],[-1.9509748364163917,18.044278249033535],[-1.891515005686477,17.992826152423675],[-1.1694856894650365,18.00902272562491],[-1.110273622414201,17.95745325360574],[-0.6108707636162778,17.96817391961378],[-0.551840789542951,17.916522532562276],[-0.10826434056038828,17.925701753352502],[-0.049399035750687346,17.873978154704975],[0.33846353959207964,17.88173501004434],[0.39718119035107907,17.82994844998532],[0.7294285541910787,17.836388145037944],[0.7880151891305179,17.78454746784896],[1.0093954409731138,17.78872704208417],[1.0678824932234041,17.736848290199067],[1.2338429398287907,17.73991691703991],[1.2922462094173508,17.688008098241347],[1.458136796613203,17.691017245840282],[1.7987154152024887,17.53808588172115],[1.9091902686587383,17.540002888793467],[2.0806226400700845,17.436940642338502],[2.359398393582158,17.38860590404515],[2.5304069174456085,17.285389689677068],[2.8087761785537393,17.236834823981923],[2.866544042480662,17.18472698215032],[3.0318562636515654,17.187303540610447],[3.089545526613021,17.13516864570261],[3.2547934676256385,17.13768914582825],[3.3124046894083667,17.08552754537852],[3.810313652470428,17.039800610180524],[3.8677424627714383,16.98757339221357],[4.1428076261284685,16.99143914444538],[4.20013244228065,16.939173354154747],[4.475074053419477,16.94290953473183],[4.532295810509766,16.89060585515069],[4.862073958140271,16.894923293552406],[4.919179917601873,16.842576100850618],[5.358662116677103,16.848066856074496],[5.415626348621478,16.795664695483104],[6.733034821167524,16.810519972750026],[6.786157952447625,16.86421626097474],[7.060543589439423,16.86702499777413],[7.113732313015755,16.920715534345256],[7.223495649417015,16.921808375266153],[7.7094937946227,17.19239231574881],[7.819342288625742,17.19341826554073],[7.872710687384013,17.24711273345242],[8.037504403806365,17.24861582206827],[8.090921469806737,17.3023068515949],[8.42053586548134,17.30519370145228],[8.474034323017262,17.35887405166989],[8.858600857742944,17.36204672801224],[8.912192781242627,17.41571315801027],[10.175623230848903,17.424719812788133],[10.231593836037096,17.37180336019685],[10.561018295168607,17.373779188430696],[10.616882359630804,17.320829992898773],[10.836429438962059,17.32204872032856],[10.892213751409422,17.269077441326594],[11.167401799320087,17.217221066976943],[11.49880471126557,17.058984502401525],[11.88649375847506,16.741084227368997],[11.94123517296746,16.741296510922556],[12.879161803261436,15.839515141734562],[12.933703538247562,15.83965109636439],[13.09845499775563,15.680463450397967],[13.644839022501486,15.41560160142185],[13.75374176919257,15.415765848320978],[13.917510660674214,15.309643518068194],[14.189810530625204,15.256772563211829],[14.244372596932394,15.203656990309543],[14.407594690349292,15.203782840119265],[14.625364570102724,15.097582266822323],[14.78852276166065,15.09763659091956],[14.842938328363294,15.044492152216383],[15.006065328971134,15.044506096648306],[15.060429637289086,14.991351433966319],[15.33225727374555,14.991291212890058],[15.386550655199693,14.938120107518799],[15.603973613638292,14.93799902745202],[15.658206986271535,14.884815240686446],[15.98428550118642,14.884515176196091],[16.038439803090988,14.831312983852557],[16.527483234645086,14.830612402420122],[16.581530375645205,14.777383755513535],[17.287847069449473,14.77586329437024],[17.341750782894216,14.722598651476565],[17.939359202199594,14.720849074370518],[17.99424186203987,14.773787558868058],[18.428995632648896,14.772234098916616],[18.483986724494304,14.825138638392442],[18.865224913775823,14.876688356425987],[19.029850688009212,14.982192412411871],[19.138643442515615,14.981691145862694],[19.35870135288322,15.139992860925174],[19.41313314475692,15.13972075332338],[19.523719357941474,15.245405861715978],[19.578174531638368,15.245121465912188],[19.855138561125113,15.509271084486768],[19.909651842220164,15.508960475258561],[20.52140040328657,16.089815501983885],[20.576045150755295,16.089448704826964],[20.85525967802057,16.353338218668295],[21.187363531053734,16.510392028142466],[21.299492743692593,16.615877135663666],[21.409041591613807,16.615008126669068],[21.741978808346783,16.77179946115191],[22.127250531273432,16.82160510221239],[22.18361938527769,16.874269263705983],[22.40304055568826,16.87224074037962],[22.459492315998283,16.92487876258397],[22.89851161935069,16.920592681300324],[22.95510010924425,16.973181123831196],[23.613979648628455,16.966220951740574],[23.66704077622617,16.91250056486203],[24.10635026198071,16.907538207507173],[24.159317434712918,16.853808244142098],[24.378976127477664,16.851228311020286],[24.43188996335812,16.797496120318304],[24.596624439882962,16.795516283722403],[24.812146709730747,16.686710680490602],[24.92194868598573,16.68535060014099],[24.974754361705997,16.631621043646017],[25.084545326558388,16.630243002095547],[25.137318985042835,16.5765151755272],[25.247099233370314,16.57511932000147],[25.29984127021417,16.52139339070264],[25.4096110971245,16.519979868153293],[25.839798554290113,16.302221216784957],[25.94952083292385,16.300753353782863],[26.109571289709212,16.19259295880072],[26.381520652684518,16.13588255128381],[26.541400216089496,16.027720709333522],[26.651070630309665,16.026184002580337],[27.937222096624208,15.372573449239527],[28.20855659149702,15.315615187875323],[28.26078613126682,15.261982029480471],[28.37031974766794,15.260299883029667],[28.422525945965056,15.20667187245676],[28.532055296994418,15.204975189494734],[28.584238540269276,15.1513524873891],[28.96497940910789,15.092559699461466],[29.01710316664607,15.038947796466818],[29.236174507308917,15.035427600110689],[29.28826209805302,14.981821427688157],[29.562131076285233,14.977343518580364],[29.61417610991632,14.923743490793589],[31.149073690846535,14.897083878849086],[31.20696964712183,14.948670405178879],[31.53628909904045,14.942563446546453],[31.594301977552487,14.99409753193712],[31.868896916928133,14.98887624881444],[31.927014177760995,15.040364484208412],[32.14680778109951,15.036094883016203],[32.205016568718385,15.087544155038229],[32.42492223365293,15.08318831300759],[32.483223273210484,15.134598112360083],[32.64823208581924,15.131271374650353],[32.70661214498428,15.18264892857924],[32.92673111545423,15.178132920496607],[32.98520478423071,15.229470063870917],[33.1503752376224,15.226022378155989],[33.2089291066545,15.27732649439898],[33.37417592662311,15.273823070537274],[33.432810545261816,15.325093803131207],[33.59813441355153,15.321534274737441],[33.65685033167928,15.372771265809789],[33.82225193109248,15.36915526519028],[34.050231472392284,15.469089822475432],[34.270968996816,15.464123689145357],[34.32993211804687,15.515257294709377],[34.4955710184913,15.511469658007032],[34.554617644090996,15.562568076797236],[34.72033701780383,15.558722483797117],[34.77946770033848,15.609785351006057],[35.00054337417539,15.604572745517663],[35.059773474203986,15.655591202912282],[35.28097517012897,15.650285472875224],[35.340305420769745,15.701258988058528],[35.561634500542546,15.695859491832831],[35.621065635671606,15.74678753014484],[35.78715251106445,15.742672710280237],[36.017036203581824,15.84164602696254],[36.1832792742381,15.837422153675645],[36.35812944092284,15.937625481476953],[36.52451748197877,15.933302643080554],[36.69970885611545,16.0333546154807],[36.866243626381724,16.028931673587653],[37.04177999575396,16.128829994849564],[37.152897541563185,16.125817739417936],[37.50019386769374,16.273111271335875],[37.894405243701094,16.31427548373308],[37.95482824524467,16.36479534998509],[38.344741738373344,16.353553383716957],[38.40532193725139,16.403993389365958],[38.456189471610124,16.35030575072152],[38.84641230090167,16.33881410881667],[38.89723701487003,16.285148944034784],[39.008761958846286,16.281833598247257],[39.22191141071485,16.1712174592578],[39.253043034362996,15.9097753395967],[39.34501951074544,15.698756098535261],[39.44673077954934,15.591671236685233],[39.488012622463124,15.434340991024099],[39.58976937645121,15.32735001810463],[39.58029665942149,15.223588074569262],[39.68209630734269,15.116670514914789],[39.793316806687365,15.113491496381629],[39.85367701138831,15.163742405675762],[39.872829426828226,15.371147633658529],[39.98904019526731,15.419731494418189],[39.9745303382109,15.264203788189361],[40.117575268821376,15.000240526974475],[40.22408275587989,14.945229114186692],[40.390990922538464,14.940399187506836],[40.44185838499189,14.887010580286812],[40.55314855087744,14.883777293477504],[40.65965981703875,14.828784591519929],[40.654877784687486,14.7770417442609],[40.75662467983179,14.670348805650736],[40.86790140519531,14.667121175864697],[40.91877317044155,14.613795883046272],[41.08571741493566,14.608935348606755],[41.192236620702495,14.554004009229581],[41.3957290166051,14.34089662542713],[41.39098072971956,14.289258121572573],[41.543687542787346,14.129566586651269],[41.538987316095266,14.077954383096225],[41.79366943554207,13.812061981696761],[41.955817867645656,13.7557552124549],[42.720932485547635,12.960006091221794],[42.71645043890933,12.908578607654375],[42.818623108383036,12.802687005193468],[42.9252684460489,12.748236241173586],[43.09194367931073,12.74365113771624],[43.08748044077395,12.692275579742395],[43.18971053991408,12.586495997035744],[43.24526867518583,12.58497480045337],[43.23643000390459,12.482273750721314],[43.28320153108499,12.378080719858623],[43.38555297335573,12.272425987917803],[43.36407315147183,12.015827385859986],[43.30858580016254,12.017285375901828],[43.01049085159577,11.767772320132053],[42.78078331702743,11.670641349639022],[42.66205317303277,11.570640635447425],[42.65413283608634,11.467881653308352],[42.70552682242809,11.41515562749263],[42.87154099082115,11.41109282686828],[42.930860884448215,11.461078328587782],[43.15235569514212,11.455585009435032],[43.36591146195166,11.347460945961409],[43.57158345276949,11.136879501894201],[43.66666978388076,10.929173061881444],[44.130539002132544,10.456404953472727],[44.34451254514987,10.34887618652602],[44.51069718719789,10.34495734223447],[44.56232436269025,10.292531515371806],[44.950324031037376,10.283327250489565],[45.41776340761854,10.57874097332346],[45.47331530356235,10.577353534146019],[45.5328932822329,10.626967760235527],[45.54099334730236,10.728979716472661],[45.707774731685404,10.72473033137164],[45.767491763078084,10.774287978227271],[46.15283488569727,10.71328007311325],[46.20435475220639,10.660915173658857],[46.761325371237895,10.646404462614035],[46.864413605524206,10.54180399303119],[46.959312475190714,10.33562657217053],[46.91934891589618,9.827540144099117],[46.79651677593592,9.677800458917668],[46.7889316528038,9.576170898886026],[46.67025240303812,9.477145417279196],[46.48172397853688,9.175956467313446],[46.00686480891452,8.727808500037408],[45.95145527996258,8.728973572257102],[45.77540258236582,8.579702791396816],[45.606099583511806,8.532166377991802],[45.48905026122364,8.432510664821143],[45.20942584582311,8.38702916641516],[45.151045637735294,8.337128455319235],[44.93004977315953,8.341428580219205],[44.87175629968643,8.291477941611609],[44.31986887756789,8.30199667221332],[44.26173420695957,8.251944720149329],[43.93099779568798,8.258106355184964],[43.87297169379574,8.207988966721233],[43.707728891643825,8.211016984598261],[43.649774601722946,8.160860263193232],[43.5396692837033,8.162852060393307],[43.20108806977964,8.015146615954045],[42.91534254770199,7.8149816114593955],[42.86040672127676,7.815908991360714],[42.68773747038959,7.664898704029611],[42.63284200103013,7.665799998516124],[42.00245370157587,7.1109979222316095],[42.00010876449175,7.059676825403377],[41.771957385946294,6.857524518260053],[41.710580824401,6.7042648402648455],[41.59684916607675,6.6030677710446914],[41.47906439464156,6.399094240994299],[41.47495258398108,6.296371015671209],[41.35965368765179,6.143664286321118],[41.353789752220734,5.9895580730773545],[41.29726409431003,5.9388515041320415],[41.287931407209676,5.681998563616807],[41.231538826236495,5.631254797234294],[41.197335043608625,4.55256261199922],[41.250394236940416,4.500705374024939],[41.21463886914559,2.9603524687956435],[41.15927155330049,2.90933578369961],[41.154847002243116,2.6526233230372935],[41.09959657312064,2.6015684589758536],[41.09642408256293,2.3961836067011495],[41.04127098171831,2.3450958562547752],[41.03911664322722,2.1910445872818545],[40.98404197059646,2.1399292903226237],[40.98208717940918,1.9858646086838159],[40.92709008199009,1.9347217821820517],[40.924244184472094,1.6779257095733144],[40.869358374552064,1.62674461387302],[40.86700343970975,1.369927218273875],[40.812227241191984,1.3187077882527674],[40.80727830378086,0.3427326587580883],[40.861522340352316,0.29133474348981486],[40.86128533370388,0.08589250823881593],[40.915615240020166,0.03452823183230069],[40.91576298067641,-0.22224640564567794],[40.97019624217423,-0.2735715032835239],[40.971197361301414,-0.6330185791705529],[41.080138358971915,-0.6842183926941873],[41.08173215566877,-0.9922522125974644],[41.136434155503075,-1.0434767899858808],[41.1426734553585,-1.7621670462300512],[41.036256728519135,-1.9679475436666725],[40.87505035101358,-2.122691269965625],[40.877126269437696,-2.276791965156717],[40.76984093983191,-2.380044907559377],[40.499575995928765,-2.4841436684879117],[40.28626657082851,-2.742357575820441],[40.28886707534683,-2.8966537017864593],[40.2354329568214,-2.9483996679431277],[40.23917856476412,-3.1541571183120793],[39.97792869051657,-3.6705193046280398],[39.87153089454166,-3.7742552228504747],[39.873846539340605,-3.8772246090077402],[39.76877529478922,-4.032523577460413],[39.771237713764954,-4.135520162824249],[39.6676783766435,-4.3424219667118376],[39.50866877691357,-4.498353777105492],[39.4000350395425,-4.499277050384966],[39.29411581607897,-4.603299966268574],[39.29968597202917,-4.809515753485174],[39.246798509333715,-4.861566392435704],[39.25117531900451,-5.016253534884168],[39.097334855317385,-5.32726823024113],[39.051006978916234,-5.585761171322066],[38.99831079466964,-5.637922608149526],[39.001641394699284,-5.741122538596993],[38.89804772187329,-5.897113182072011],[38.91229378126997,-6.310052362637824],[39.30458275060933,-6.6151068661953145],[39.30655544142057,-6.666696900812253],[39.53250017928729,-6.870245670917103],[39.591151295197065,-6.972673249129581],[39.59537824980765,-7.075814138570544],[39.545153886292276,-7.179700946792089],[39.44046673458825,-7.284361174847395],[39.44931095938733,-7.490736947740623],[39.397029815977156,-7.543108171211554],[39.4015696191232,-7.646315494439542],[39.45841025962438,-7.697129954209128],[39.47494990697367,-8.058360592957463],[39.4203673192464,-8.059189435779116],[39.31605694208162,-8.164093026510757],[39.32592571892616,-8.370610491012757],[39.38304210381745,-8.42137988536352],[39.388115742774644,-8.524637420414896],[39.44789053867068,-8.627013107508729],[39.5624168293286,-8.728468058623571],[39.51039476927849,-8.780994533810835],[39.51571727265012,-8.884247641656664],[39.69067263539177,-9.08794189739164],[39.707531125278145,-9.39766400200419],[39.82281703404462,-9.498930674754419],[39.83456832413131,-9.705404959271482],[39.892354759756635,-9.75600322474765],[39.90141237966416,-9.910860663292148],[40.13005984913444,-10.06147691625509],[40.25248564347357,-10.265712560555572],[40.36231434938004,-10.263515760130602],[40.47540340047096,-10.312883901501078],[40.65344860398181,-10.515781801027302],[40.66015571157293,-10.61891225470131],[40.608534988255094,-10.671638179174622],[40.63263221740198,-11.032692136695514],[40.5295617249879,-11.138278288360231],[40.48514259509456,-11.29430320590746],[40.382162651197284,-11.399982018666245],[40.389375966126664,-11.503233899570287],[40.337917891556316,-11.556103846081617],[40.36378544754471,-11.917588085617208],[40.31240350801493,-11.97052071074834],[40.33145653234375,-12.228810704322544],[40.39051591353947,-12.279153130681575],[40.422129946361125,-12.692472277697709],[40.31965943958508,-12.798575462013893],[40.33186575776543,-12.953644954348302],[40.391278241556485,-13.003938258935715],[40.40791124351326,-13.210706263829534],[40.356762928233984,-13.26383257061127],[40.43084901282244,-14.143061091532353],[40.546411547578636,-14.191719147692512],[40.56014804866891,-14.346904287923063],[40.620330660170815,-14.397067887938201],[40.63902003157213,-14.60399253851543],[40.50063724677214,-14.919317777858126],[40.398926895124866,-15.026111366194131],[40.478925527169665,-15.28338892288997],[40.43305593294521,-15.388635628019255],[40.32653086645333,-15.443774329283217],[39.971054734766625,-15.818375622481835],[39.976061117176144,-15.87024537426177],[39.82377846232728,-16.03097053978686],[39.76798410732432,-16.032663536625233],[39.66646186451813,-16.139869799926426],[39.68167818844402,-16.295635085235226],[39.52947676081454,-16.45659684045492],[39.47362489895675,-16.4583139935497],[39.3721520228483,-16.565677255087046],[39.26043903799224,-16.56910716644304],[39.153836639138774,-16.62451870837578],[38.95082930008291,-16.839430886890547],[38.95596603941114,-16.891464472621994],[38.74268209000662,-17.002440297810626],[38.35154971213581,-17.01435789614616],[38.138203708239686,-17.12533521991517],[38.026487142762136,-17.128692617908673],[37.86895257161644,-17.238022833759707],[37.75723625145599,-17.241361117561286],[37.33030241296172,-17.463452406138508],[37.07082029083246,-17.68072616176208],[37.0149326989692,-17.682378284338167],[36.71438206756358,-18.058428150896688],[36.60250037225852,-18.06174353032493],[36.55155174387655,-18.115740439622243],[36.57673832928618,-18.377513078550624],[36.53090244537844,-18.48393254788344],[36.47487510636237,-18.485617904014475],[36.32204882853584,-18.647844608181646],[36.1589867749506,-18.70530271181582],[36.092837239012546,-18.602127929411644],[35.98080398732117,-18.6054436710836],[35.88884738473146,-18.818538155659958],[35.725714984290796,-18.87598644823204],[35.16402105092873,-19.471970079295783],[34.94945978614546,-19.583764071363937],[34.90337654474637,-19.690619388302558],[34.79603312788065,-19.746546046870655],[34.68363712357973,-19.749846871368977],[34.58127478150481,-19.85841272433572],[34.59642508286519,-20.016364432737376],[34.54523897039627,-20.070685624264094],[34.58638547963335,-20.492109713376983],[34.89497583018613,-20.74691454366237],[34.91115747965084,-20.90498220390041],[34.973123396513024,-20.955902747017543],[35.00059943770552,-21.219411691288716],[35.062779499795056,-21.270311877529217],[35.07957275732248,-21.428455322663993],[35.14190393370016,-21.47933830469809],[35.19936659066672,-22.00670317262043],[35.324861717562634,-22.10839822112247],[35.43866462022466,-22.104554236817414],[35.513511751978,-22.26084616783043],[35.40558838819872,-22.317492969013287],[35.429709654355605,-22.528566809237304],[35.378739926926045,-22.583313154459034],[35.40931846615396,-22.84728699125695],[35.35834762121997,-22.902089140050727],[35.37692434131545,-23.06054750628744],[35.24272096078395,-23.383672026218747],[35.216999189482515,-23.6500986287851],[35.16598608053082,-23.70504148422788],[35.17874526993671,-23.8108501151851],[35.24258827429896,-23.861693617137167],[35.35746913874598,-23.85754201839882],[35.421413612614344,-23.908349194675658],[35.31297179491567,-23.96543121030959],[35.22400515055925,-24.18130766049528],[34.91771999166987,-24.511679667184993],[34.86009382824029,-24.51377108038938],[34.75785903490106,-24.623967601547044],[34.649052948942696,-24.681162964222054],[34.533728926423585,-24.685311148599343],[34.48253050113711,-24.74043018905056],[34.25186415965264,-24.748649311831628],[34.20059014149464,-24.803774329587757],[34.027581068596604,-24.809871100229348],[33.70041135586905,-24.981324538194663],[33.41814347084524,-25.04443148451456],[33.315110579027,-25.154759339541226],[33.09648401132664,-25.2690510039595],[32.980970334420036,-25.272955102104252],[32.871562395335665,-25.3300856490983],[32.61301607988987,-25.606151754850536],[32.619118580851705,-25.659456686064733],[32.46376600130737,-25.825225974368603],[32.47601239561062,-25.931908607807895],[32.674845661939955,-26.139413738900227],[32.848999696516834,-26.133437023588698],[32.900712861911295,-26.07810461973131],[32.91341990322597,-26.184763367850433],[32.80360830889213,-26.242124815308035],[32.79027353397754,-26.617726459379508],[32.73848869981659,-26.673154453824775],[32.75794139772854,-26.83337146500381],[32.5701653246187,-27.215673437656356],[32.59655047389114,-27.429588188633815],[32.415415784067065,-27.866090912626454],[32.39033930861314,-28.13602473756813],[32.338293224902195,-28.191723222385235],[32.351868961070494,-28.298918396924627],[31.927835259238407,-28.691296195494747],[31.587108210761016,-28.811194093473727],[31.219817724602574,-29.20191690286958],[31.127911630633164,-29.421275741389593],[31.022611120439734,-29.533059647207406],[31.029262089724018,-29.586914668295677],[30.923842334663377,-29.698752444426148],[30.93050098663651,-29.75263470541808],[30.8249598122714,-29.864526325573646],[30.831625751188973,-29.918435953727194],[30.573904692165044,-30.25232935068584],[30.580577718296887,-30.30630499002641],[30.36850557055175,-30.530474645469578],[30.37517119152675,-30.584499970169325],[30.10937298102121,-30.864944754325908],[30.11602235546417,-30.919031111931513],[30.009473533759866,-31.031286001042414],[29.949524959548896,-31.033305671282605],[29.789393910085046,-31.20173649305658],[29.729375269326944,-31.203738038186053],[29.568883032104885,-31.372227987482844],[29.508793415317257,-31.37421103345166],[28.53902124569841,-32.38650443057166],[28.30937230518665,-32.50291705500464],[28.200661131951975,-32.61555283047618],[28.14001536859315,-32.617426015919555],[27.812816657516777,-32.95547645035945],[27.35026157693695,-33.18821115959119],[27.24035094712589,-33.30096786668388],[26.89204122515547,-33.4754106777039],[26.769955242999508,-33.47887126415384],[26.714675749846844,-33.53525507727633],[25.737738227447625,-33.561569290810546],[25.62614200009563,-33.67419231948608],[25.647313269965935,-33.8932715889051],[25.591388204784703,-33.94963631768254],[25.51961020070229,-33.841619354240244],[25.336037793460847,-33.84624440257205],[25.269730421411577,-33.79297252424106],[24.963958262031948,-33.80043655622415],[24.79518240970035,-33.96929934637494],[24.42777005564548,-33.97785542173156],[24.17366296408764,-33.87364152776741],[23.99016755701975,-33.87766835840142],[23.92455112863109,-33.82412335949644],[23.680031001211937,-33.82931714860224],[23.61461377627438,-33.77571617588586],[23.31328181868953,-33.836836846075904],[23.07687155741586,-33.95149850813333],[22.824338275021383,-33.846357431700476],[22.3928773394899,-33.799281368812274],[22.33545450433378,-33.85530031686228],[22.152137723083005,-33.85850500632246],[22.0369658295967,-33.970515268277886],[21.85691972306627,-34.02857767885297],[21.7413258108693,-34.140583161495975],[21.74473407241773,-34.19559003097932],[20.70304219740132,-34.21136580222085],[20.644633154335047,-34.267265592789485],[20.33813937542582,-34.2713666355734],[20.103355677712695,-34.494847626012344],[19.673431747330653,-34.499996253177876],[19.609656027801478,-34.4455776222562],[19.425506653603655,-34.44761294913361],[19.300545846544242,-34.393806776032896],[19.29617027472077,-34.28359721241934],[19.169368788229043,-34.17467889973713],[18.863250668386517,-34.177666726485995],[18.8554827335988,-33.957368726047825],[18.792485646117633,-33.90287780310575],[18.487148320513576,-33.90556033455286],[18.368395884720957,-34.016701244484324],[18.363336985212793,-33.8515137966966],[18.4802167826255,-33.685391682342114],[18.47678026771573,-33.57535507752201],[18.225331916057215,-33.30233455941772],[18.223762964852284,-33.2473628563647],[18.037233435936855,-33.08383929684563],[18.032854483413978,-32.91903149326376],[17.847188490065644,-32.75554180225596],[17.90486974116193,-32.64534322179667],[18.14640802594855,-32.64363537467055],[18.32129738660786,-32.42280415730517],[18.30441917062744,-31.819909657278547],[18.24297124956063,-31.765593664168613]],[[25.8112099052574,-27.462127248515415],[25.748965476406607,-27.409426524321297],[25.632618305073912,-27.41192354852455],[25.5784286710376,-27.46713398490156],[25.58642574253385,-27.575095816381626],[25.64869976158996,-27.627834622775406],[25.76522142268927,-27.62531216276916],[25.819381465890956,-27.57006364426521],[25.8112099052574,-27.462127248515415]],[[26.25060322253275,-20.21057904575562],[26.19187667010059,-20.158279840193444],[25.912936631709016,-20.162925921858626],[25.809853006933306,-20.324559223918016],[25.821286120313296,-20.53769493082478],[25.7682732816499,-20.591917183779106],[25.785669415374258,-20.911790074934718],[26.021645566713943,-21.121271781746138],[26.133753626264774,-21.11931547572783],[26.29266834912299,-20.956413688561906],[26.28045509704705,-20.743233667469994],[26.106635586061625,-20.63956258669161],[26.159577559561964,-20.58532125927659],[26.150695958810296,-20.42550141600129],[26.256496301019077,-20.31707657472262],[26.25060322253275,-20.21057904575562]],[[25.214905115213426,-20.70759106866178],[25.32949045751856,-20.759148339571322],[25.391020822195195,-20.864922271749787],[25.61485211283644,-20.86126305075516],[25.66793161221035,-20.807011897868442],[25.656490695213783,-20.59375829057261],[25.765406524898367,-20.538619943806804],[25.759700801583023,-20.432038137958784],[25.70102829119559,-20.379665475743455],[25.533539992146565,-20.38237265079021],[25.58658136695089,-20.32818641955918],[25.581036472412226,-20.221621770847623],[25.689822363736607,-20.166557954811005],[25.740020826894845,-20.059133676838357],[25.734480310438414,-19.95262683674296],[25.67601973124255,-19.900266856631987],[25.564617962582513,-19.90202750424502],[25.461307627830283,-20.063564200765267],[25.46674090222047,-20.170114617905746],[25.357913368175485,-20.2251514699715],[25.360623321629625,-20.278442425505826],[25.254432946159728,-20.38678928835959],[24.975374867296075,-20.391086830193718],[24.86898310695579,-20.499430652839912],[24.87687393190217,-20.659449905620544],[24.935413817354863,-20.711942505531816],[25.159003016429626,-20.708471053588912],[25.21216849623279,-20.65425827081426],[25.214905115213426,-20.70759106866178]],[[27.6519495841695,-17.37014698735803],[27.64639282737433,-17.264232817344034],[27.751133914451557,-17.156524020597125],[27.748366652612418,-17.10358506832468],[27.858611180990994,-17.101767173128277],[27.963267206941786,-16.994090761976906],[28.073485328340325,-16.992253996229692],[28.12577897846374,-16.93842290161364],[28.117382389012388,-16.779722321528997],[27.946713600128547,-16.676642545893344],[27.836645254534005,-16.678426107625473],[27.787023305765032,-16.785133648257414],[27.679620212263384,-16.839828426775835],[27.6823259929557,-16.892753654826965],[27.627257091462063,-16.89364044167349],[27.52249793141781,-17.001281216219258],[27.423096083457455,-17.214862278877426],[27.31823767036533,-17.322573053120102],[27.323669822665618,-17.428530720623254],[27.381585264901467,-17.48061820301037],[27.491962191273537,-17.478812994285704],[27.6519495841695,-17.37014698735803]],[[28.318119153493324,-16.405940455835367],[28.16135282577603,-16.56726495302439],[28.16688168652014,-16.673029389257774],[28.224721566407798,-16.72500043283195],[28.500062434677055,-16.72036225927442],[28.55227848146623,-16.666558582717467],[28.662416295169237,-16.664675212281715],[28.72038406905522,-16.716582338403573],[28.88565432758633,-16.713706900641053],[28.93780930136862,-16.65989952249895],[28.92615438038271,-16.44856695052067],[28.700343757713785,-16.34666796700812],[28.59033661744444,-16.348519462310183],[28.53813459483236,-16.402284709729525],[28.318119153493324,-16.405940455835367]],[[32.17528740301884,-15.490844779405723],[32.116914800056215,-15.439398010499735],[31.73178261342981,-15.447024305920399],[31.680022557363316,-15.500686364988768],[31.6865501122676,-15.605868751124163],[31.744880127346615,-15.657373136402695],[32.13030878503305,-15.649633625134708],[32.18200554590639,-15.595954384014924],[32.17528740301884,-15.490844779405723]],[[35.923147060758424,-15.354770211146917],[35.90311787316698,-15.093601950464253],[35.84391854549361,-15.042695576034225],[35.67822425118204,-15.046633736566326],[35.62690962720082,-15.100190281467741],[35.64668059883487,-15.361482513499466],[35.70597607389171,-15.41240839616684],[35.871887270689356,-15.40836609933775],[35.923147060758424,-15.354770211146917]],[[34.00130370199568,-12.04707845655892],[34.01275436529007,-12.25604576066608],[34.18247851458951,-12.357591006380845],[34.197351749413635,-12.618802986158371],[34.31894524899484,-12.82574982264135],[34.337673913919716,-13.139274898620554],[34.28605568006783,-13.192600460010633],[34.29562141081536,-13.349413394790968],[34.527996814715664,-13.554130025569997],[34.582863889400485,-13.55302230391383],[34.5928583024248,-13.709815384223486],[34.49313983456406,-13.868896469279424],[34.49992140531125,-13.973469205330003],[34.56171533067574,-14.076901208242957],[34.73357824517161,-14.177985659213467],[34.84356490137444,-14.17563692484034],[34.89504319143078,-14.122192886906861],[34.88804404742792,-14.01767063466879],[34.94301941032095,-14.016501998733451],[34.94652118194378,-14.068757264749127],[35.06003868288852,-14.118648968521168],[35.12217905727198,-14.221955138919089],[35.232243856308855,-14.219550344204942],[35.28367995886476,-14.166108960186785],[35.27296051947358,-14.009421144248785],[35.214425424688606,-13.958380158332469],[35.2039106333521,-13.801706025864142],[35.14548500615742,-13.750647348854095],[35.13859584734883,-13.646204582129325],[35.080254871470466,-13.595130712549741],[34.91552577341851,-13.598543888863682],[34.87280488644766,-12.919671825940195],[34.814840684844214,-12.868533045698635],[34.80852658425195,-12.764119378003631],[34.860142497090656,-12.710862831738478],[34.84770534450886,-12.502088023565523],[34.78992110480862,-12.450929667482972],[34.76884971827435,-12.085636928250315],[34.97562466944849,-11.87300644276912],[35.02439975869759,-11.767726042631573],[35.00150366483629,-11.350646758071953],[34.77228628370588,-11.145846535193108],[34.65254053358547,-10.93910586796567],[34.75094633911042,-10.728803586704496],[34.7431674485612,-10.572442507024189],[34.68617224102195,-10.521189044924833],[34.678575726452536,-10.364835919913945],[34.62167274827794,-10.313564883757085],[34.67357842246272,-10.260609251958167],[34.6686346340888,-10.15638950130997],[34.611811923903495,-10.105107676009805],[34.604556064817864,-9.94878271115918],[34.432116645932325,-9.742743322529297],[34.429796609892264,-9.690631884009637],[34.09062578279029,-9.382496848438688],[33.98215058495682,-9.3839794394067],[33.88248861887528,-9.594041150088724],[33.89148897961525,-9.802655269486179],[33.94805487660849,-9.854038985095206],[33.95267017166489,-9.95835103337276],[34.070713743936665,-10.165389705571702],[34.24100751333162,-10.319400494394966],[34.189087761172566,-10.372378266822041],[34.24073609733293,-11.415834354228737],[34.29797945329972,-11.467106986737672],[34.303477858455985,-11.571489437444905],[34.19992926396711,-11.677752339656246],[34.153744040454285,-11.835324581724263],[34.00130370199568,-12.04707845655892]],[[29.771816460685354,-0.01712309480153697],[29.665001105319046,-0.017125156357876637],[29.451458734852036,-0.17396422516580734],[29.344874093457676,-0.3831231415051485],[29.345211907628862,-0.5922627351856115],[29.398708569289987,-0.6445100271178675],[29.665594322376684,-0.592052041628563],[29.718901965676974,-0.5397531704143712],[29.718728705253778,-0.4352268670522097],[29.772139144306692,-0.4352006198381378],[29.93219691264434,-0.2783704633155871],[29.932088740349993,-0.12162009207698128],[29.771816460685354,-0.01712309480153697]],[[33.62671922145856,0.29497455830867575],[33.57298506013759,0.24299090126811465],[33.46586531681116,0.3990708493558358],[33.1975964559409,0.39922162260326277],[33.14380245501824,0.2951757996667548],[33.03647333714151,0.24317426213121518],[32.982761169393676,0.13909364006209904],[32.929172123907996,0.19115708466295642],[32.768320990729194,0.19119922483386093],[32.71475832670043,0.24328165672799432],[32.60755138769297,0.24331701852222004],[32.50025512774379,0.08710157113955895],[32.23234547827043,0.08713267660847743],[32.178762301201026,0.03503306700738532],[32.07163272443175,0.03503799872932971],[31.9645251795136,-0.0691978831784039],[31.96461581971919,-0.22555917285717567],[32.0182232687678,-0.27766028636639023],[31.804332424460085,-0.4862634219964434],[31.80455108256854,-0.590526892902507],[31.69772879391694,-0.6948863855042943],[31.752103831641133,-0.9555187159390554],[31.859831584427223,-1.111775234685407],[31.807541458179198,-1.3725216180958004],[31.75427263770011,-1.424754418989211],[31.755185800149853,-1.5811705933067906],[31.701958156827775,-1.6334220936575965],[31.70299495172419,-1.7898524946015424],[31.596632264311825,-1.894400062351706],[31.597413435281688,-1.9987042378263264],[31.70493393115933,-2.050576398025273],[31.652221808925592,-2.155016093520406],[31.653570967286583,-2.3114678820070984],[31.76118016923329,-2.3632949056322596],[31.76370812728394,-2.6240226933253625],[31.817829936986417,-2.6759850104019645],[31.97860528296432,-2.675427568362781],[32.08419715929287,-2.5186789815594945],[32.190886082738984,-2.4662076781112146],[32.189882046106405,-2.361976221267645],[32.296128612492424,-2.25742630294102],[32.296606372132786,-2.309533580116474],[32.4589626233588,-2.4653291209638803],[32.619854557781636,-2.4647953585697078],[32.67297146638889,-2.4125340890616145],[32.72766947435874,-2.516515627435941],[32.88862457279438,-2.5159620906729048],[32.941214263351995,-2.4116497941490693],[33.048018009832845,-2.3592373293032116],[33.2643250621045,-2.5146507204027655],[33.47909946858843,-2.5138889170460614],[33.585403477167894,-2.409472195392874],[33.58486727108437,-2.357456612542901],[33.74547263991864,-2.30490890155654],[33.85188511870399,-2.200562348972103],[33.85090458576205,-2.0965749281647987],[33.79671672377639,-2.0447405997063908],[33.68929831814753,-2.0450568927053476],[33.63606245932788,-2.097223626301945],[33.4212862705862,-2.097864758372646],[33.367141908428515,-2.0459947053178493],[33.259789035454865,-2.0463036235401617],[33.42082442511559,-2.0458395553473063],[33.47405950110524,-1.9936630588155457],[33.47319144253974,-1.8896223124716445],[33.36541570553083,-1.8378815438756968],[33.41868951693656,-1.7857186740442033],[33.633435954914894,-1.7851730577226574],[33.73967267449758,-1.6289009017528506],[33.738617768360044,-1.472906486860141],[33.84601977900534,-1.472678085259292],[33.89939624039983,-1.4205778871698975],[33.89877034784333,-1.3166076098911377],[33.95189920845218,-1.2125435186187132],[34.2192399295461,-0.9522686057979889],[34.2186300090605,-0.7963922783779497],[34.11084366183357,-0.6925850308526741],[34.110547449190946,-0.5886521884752185],[34.27135450223676,-0.4326507768099515],[34.32519067563858,-0.4845658848298217],[34.48640419725843,-0.48444933735724904],[34.54004228525568,-0.43247735725425723],[34.53986234255244,-0.328611743736936],[34.80865621444893,-0.32847811434402796],[34.86235544185962,-0.2765438236471001],[34.862247452094216,-0.172729270806677],[34.75465116605182,-0.0689261263199599],[34.53962736279034,-0.06894852487749395],[34.37846182745602,-0.172855410643611],[34.37856723698601,-0.2767457783569844],[34.32483467400968,-0.2767679044309712],[34.32477603973922,-0.2248185484252579],[34.217243698446424,-0.12093919327105083],[34.16352434528374,-0.1209487780017958],[34.16350232956622,-0.06898712121077315],[34.056068633644195,0.03494167944492374],[34.056196688812854,0.24282119735823718],[34.00255156980129,0.2948143160514222],[33.62671922145856,0.29497455830867575]],[[32.665289261410116,1.4409917755981816],[32.71860388557474,1.3888150822972125],[33.04038760384468,1.388201793847127],[33.09373402248385,1.336053843314982],[33.201033254609655,1.3358540828219345],[33.254989569946694,1.387786699091436],[33.25562542455233,1.4918533258414657],[33.14934680640223,1.6482024662924102],[32.988398801551504,1.648570536728644],[32.934405439046245,1.5966349418973549],[32.71988351394369,1.5971037391500418],[32.66592716840212,1.5451436845134667],[32.665289261410116,1.4409917755981816]],[[31.059091375177108,1.5483581877022108],[31.219935409149482,1.6002251346460334],[31.489671019575656,1.91263609141144],[31.490861727530824,2.0691145466828456],[31.385498152776993,2.278065212124854],[31.278415387827195,2.2783706254140816],[31.116123282824766,2.07008380614343],[31.062603446810616,2.070220428944048],[30.631755674901207,1.6535871692379855],[30.52449559923069,1.6015793612121827],[30.524200102254504,1.549360744599312],[30.416705257959755,1.4451074965988862],[30.46851910588967,1.0794734023919983],[30.52178431480378,1.027188694685407],[30.62871855768689,1.0270576160550788],[30.843735749457444,1.2877750830184351],[30.843987254976092,1.339972224016725],[31.059091375177108,1.5483581877022108]],[[36.38894164622338,2.7795363988465835],[36.49473850538607,2.6236855656286284],[36.49274788572048,2.4683338420147933],[36.54606172721737,2.4163346049796],[36.70794159118036,2.4156828964473758],[36.76255550453969,2.467224333917618],[36.768203255632486,2.881317318568872],[36.60780108696653,2.9856527960681136],[36.499857690329996,2.986187928214235],[36.39597730252006,3.2457110125550965],[36.28975604693472,3.3499050592562156],[36.30751808767686,4.2825743697629095],[36.254627007949644,4.334778854998667],[36.26158615838025,4.645747648746386],[36.20877155423822,4.697993056730874],[36.10074194380587,4.698819249667931],[35.936367479378674,4.596334830938775],[35.92744015103143,4.18150147072899],[35.872421553202194,4.130008806590751],[35.86735389171388,3.87074088804337],[35.812437414361,3.8192195706700454],[35.80960267998595,3.663654737245002],[35.91474857839942,3.507487841547448],[35.91299497407497,3.403802425793826],[36.12537494112412,3.1953226798075143],[36.1229785792532,3.039859400053219],[36.229320526624875,2.935703281399535],[36.39041058046814,2.8831274367684903],[36.38894164622338,2.7795363988465835]],[[4.698813629339743,10.231109009076786],[4.69092976539924,10.547278921058085],[4.635720770079005,10.599533137757266],[4.4740969543917055,10.598174621564766],[4.421591469776426,10.545026437716485],[4.428350114758936,10.281604743699857],[4.538649452001291,10.177125625555703],[4.646287258389899,10.177991657726897],[4.698813629339743,10.231109009076786]],[[37.02099721632329,12.16428524059061],[37.001320831193475,11.85240801773448],[37.15927844715144,11.74519980240747],[37.43010711732389,11.687775707723919],[37.54632072694071,11.7894066846255],[37.669396933459396,11.994824538175699],[37.676178118004046,12.098664026790981],[37.62810494770374,12.203673528584774],[37.525143467246494,12.309875720397459],[37.36040002445941,12.313359846704218],[37.2438173008148,12.211730731691736],[37.079195015149615,12.21514057232862],[37.02099721632329,12.16428524059061]],[[14.466540764558454,12.602525741958816],[14.574303442460607,12.708613888255243],[14.574169018085664,12.814663714094573],[14.898058484980593,12.814746417247516],[14.952032303550551,12.867779752181663],[15.167992389985471,12.867767160458282],[15.222053489481778,12.973823887107624],[15.330121482341982,13.026832213072781],[15.330282327275292,13.185961670259994],[15.384387805591828,13.238991185006967],[15.384514525229125,13.345097208042707],[15.27646806554657,13.451251011912552],[15.006033124482027,13.451289776104979],[14.897824990972154,13.557414194424005],[14.735509572944503,13.557383762854274],[14.681457843238283,13.5043015245874],[14.627299042997942,13.557348506800237],[14.410876982911152,13.557242070269023],[14.302782380629843,13.504105603400058],[14.194453000808334,13.557087733589187],[14.194043652152523,13.716300119151452],[14.248048978408452,13.769420605243099],[14.247398810793023,14.034849714713596],[14.19292610932811,14.140997403969665],[14.029783500259816,14.300153058568965],[13.921306706273196,14.300033315853028],[13.866865750296418,14.353077320796793],[13.270115767325153,14.352153526608166],[13.054487195052163,14.139327567122226],[13.055845441083822,13.926981750103147],[13.273736500467086,13.715094832921123],[13.383913074243573,13.34385673531041],[13.546850409488403,13.184965256507652],[13.601351771938837,13.07896069315122],[13.709616673574576,13.026067111872791],[13.817654421450941,13.02619846113835],[13.818968783984355,12.65501305585451],[13.981475552054787,12.443134363270028],[14.251095361893405,12.443358349022098],[14.304911737945188,12.496404306128454],[14.304696090735543,12.602431092218083],[14.466540764558454,12.602525741958816]],[[31.524711269686,-15.661715645157582],[31.576487004972005,-15.608032052993725],[31.5700018254784,-15.502833785328738],[31.511783257813246,-15.451303288414145],[31.40180404433387,-15.453421278877846],[31.3500012304762,-15.507085468112912],[31.35480045138525,-15.585989955600748],[31.353195265876543,-15.559698891230177],[31.295009526258724,-15.508139401476729],[31.185036167625285,-15.510236488042459],[31.133206202533323,-15.563908568623832],[31.139546159298956,-15.669175071887489],[31.197758687078228,-15.720754069335234],[31.30781717808234,-15.718625933642633],[31.359620354784553,-15.664934345419846],[31.356408070276185,-15.612320875931037],[31.41464728096945,-15.66386508029585],[31.524711269686,-15.661715645157582]],[[3.3517325078621587,14.96775264998329],[3.2490407578646385,14.807754490954835],[3.2533764986281635,14.702067525920578],[3.310102757229097,14.649936340533118],[3.2576773471737526,14.596392295261566],[3.2724568517913077,14.226620145093186],[3.2200473568202845,14.173120577051712],[3.2241941287001494,14.067508205002873],[3.2807123541744914,14.015384407548439],[3.4440712845579116,14.017399967915399],[3.496506339570761,14.07088104351527],[3.47590935931613,14.599193024305027],[3.419238542607005,14.651342171011914],[3.5744928712188018,14.86486542558417],[3.5550224803208312,15.340779471134065],[3.4981137385309298,15.392944865629069],[3.3339923967241445,15.390736299967942],[3.2815391832125513,15.33711226729877],[3.3517325078621587,14.96775264998329]]]]}}
