{"type":"Feature","properties":{"id":"virginiauhu","sourceUrl":"https://commons.wikimedia.org/wiki/File:Bubo_virginianus_dis.png","license":"CC BY-SA 3.0","author":"Manedwolf; Achim Raschka (Vorlage)","sourceImageSha256":"24518b04d3eb94ce98814b785934ca2f7a53e0ec33a165cf91a53f751498fcdb","registration":{"proj_string":"+proj=robin +R=1 +lon_0=10","parameters_1000px":[636.8357137651822,-629.6580260182304,1375.9657332683066,835.7559801791352],"coast_rmse_capped15_px":3.6085941791534424,"coast_median_px":1.0,"coast_p90_px":5.327976226806641,"sample_count":2431,"image_width":819,"image_height":1196,"pixel_transform_native":[521.5684495736841,-515.6899233089307,1126.915935546743,684.4841477667117],"transform_definition":"pixel_x=sx*projected_x+tx; pixel_y=sy*projected_y+ty","validation":"Odd coastline samples withheld from affine fit. Normalized to 1000px width.","controls":[[-92.6353923438584,24.869676341334205,355.98256111189914,468.2948696597061],[-92.6353923438584,24.869676341334205,355.98256111189914,468.2948696597061],[-92.6353923438584,24.869676341334205,355.98256111189914,468.2948696597061],[-89.97936685460733,16.203227931574023,363.5440824629662,542.8019344693807],[-89.79840932986939,20.708544637534654,371.261292772549,504.2306185041996],[-89.79840932986939,20.708544637534654,371.261292772549,504.2306185041996],[-88.27264336118192,11.427427026233147,371.8067498850584,583.9171247600575],[-88.77795483896801,20.22657375117551,378.5057142964427,508.4691125673003],[-87.53137969606053,16.850605163528066,383.5587950941624,537.5223485875515],[-87.53137969606053,16.850605163528066,383.5587950941624,537.5223485875515],[-87.33415038691273,17.030509685085537,385.33846509644616,536.0026037014408],[-85.59779032653975,13.389875607429161,394.70831077147267,567.3876620549389],[-85.9923660013572,28.17832309245175,413.7430796022368,440.69442775764315],[-81.97817842645132,11.170735267985899,421.21028567757276,586.8073492910808],[-81.00397654369912,8.245464791758941,426.83676973795036,611.9991157177939],[-84.00731762769172,28.844911467682294,430.396842368474,435.20295400268657],[-79.61246811851484,4.690204728259755,435.9742199548352,642.6481644725101],[-79.35735294230219,30.41604008790905,469.4242376393265,422.25457594034367],[-73.6248841485037,-20.873732701485793,492.28420024221816,862.8983510344526],[-58.6096672261331,-37.34642174792272,632.8618566191873,1006.2351021122906]],"review_bounds":[-170,-57,-30,62],"all_fits":[],"status":"reviewed","coastlineReference":"Natural Earth 1:110m (world-registration-110m.geojson)"},"includedColors":["#fed55b"],"adaptation":"Inverse global map projection; current seasonal/subspecies colors combined; explicitly reviewed legends/arrows omitted; 3px border closing; contours simplified by 0.45 source pixels; components below 4 source pixels omitted; split at the antimeridian.","licenseUrl":"https://creativecommons.org/licenses/by-sa/3.0/","originalFileSha256":"24518b04d3eb94ce98814b785934ca2f7a53e0ec33a165cf91a53f751498fcdb","sourceImagePath":"data/ranges/reference-originals/virginiauhu.png"},"geometry":{"type":"MultiPolygon","coordinates":[[[[-35.497054896761256,-9.889245981613605],[-35.90050708458414,-10.236174535902029],[-35.90971451363357,-10.467459021386636],[-36.03980134137205,-10.467459021386636],[-36.71468609376706,-11.045670149705328],[-36.71975835914,-11.161312370344767],[-37.12598544707102,-11.50823904384701],[-37.136783307436346,-11.739523514519863],[-37.012021521712306,-11.855165759963128],[-37.28375506078441,-12.086450277072375],[-37.57370840856704,-12.664661778895976],[-37.98341858734604,-13.011588871411691],[-38.244257621219575,-13.011588871411691],[-38.655021802832664,-13.358516147153695],[-38.68206329133765,-13.821086189247087],[-38.4278857669543,-13.936728768694117],[-38.44193607674491,-14.168014018709501],[-38.71757294281111,-14.399299398232321],[-38.732321356518405,-14.630584916877428],[-38.50125258400822,-15.09315030095812],[-38.57386220580571,-16.133940429266342],[-38.71325493232777,-16.24958382166915],[-38.76514736519942,-16.943443861292476],[-38.90513600889783,-17.05908710684691],[-38.9593941413097,-17.75294560518777],[-39.38120404025803,-18.099874025485853],[-39.40002577705805,-18.33115924969414],[-39.54092658625436,-18.446801731528566],[-39.579190729997514,-18.909370685616736],[-39.33530492738249,-19.140654515841423],[-39.34493572635071,-19.256296253531797],[-39.900719677042865,-19.60322070302911],[-39.94002441786304,-20.065766898545625],[-40.08170392393371,-20.181407156740423],[-40.101514278308784,-20.4126873093381],[-40.6592002266419,-20.75960688017038],[-40.679460124603274,-20.9908863508917],[-40.821672572013846,-21.106526063584223],[-40.894297563428495,-21.916005193618663],[-41.72004054385477,-22.262926353974084],[-41.76419269411351,-22.7254904271809],[-41.90786367616348,-22.84113200831474],[-42.57009578984048,-22.84113200831474],[-42.71404963670636,-22.9567738481075],[-43.50890168852394,-22.9567738481075],[-43.6531732252615,-23.072415963322843],[-43.77385237246313,-22.9567738481075],[-44.03880305640232,-22.9567738481075],[-44.604980617377045,-23.303701087077958],[-44.617262753268875,-23.41934412914715],[-44.89489166408254,-23.534987513697807],[-45.160138236875504,-23.534987513697807],[-45.30539872893334,-23.650631257495842],[-45.33099946208886,-23.881919889900278],[-45.99457447499318,-23.881919889900278],[-46.84484770301105,-24.34450220343815],[-46.872607062393456,-24.575796152877025],[-47.13841911722954,-24.575796152877025],[-47.56577424126626,-24.807092142984047],[-47.742900463808326,-25.154037916263945],[-48.32112702123111,-25.50099114499467],[-48.36843774314804,-25.84794707952866],[-48.70054735642629,-26.310556281002675],[-48.734248138114644,-26.541860307648925],[-48.617781297729685,-26.657511958426714],[-48.911898054728105,-28.507851610052143],[-49.065896752133106,-28.62348922581884],[-49.10593420794077,-28.854760229758057],[-49.2402915463138,-28.854760229758057],[-49.86066725027426,-29.3172835777665],[-50.059290032246125,-29.66415779388272],[-50.68658603017173,-30.12661391078647],[-50.73186495273314,-30.357836557606795],[-50.642722260457745,-30.589053566078405],[-50.95960510876761,-30.82026680206093],[-51.03090017146568,-31.167083663473605],[-51.350156760944635,-31.398295629742186],[-51.399365215215575,-31.629510352621132],[-51.69545043660109,-31.745119330800197],[-52.17864283762513,-32.09195553128393],[-52.230336710545714,-32.32318971968781],[-52.39237931300601,-32.438810530463314],[-52.66429133209366,-32.438810530463314],[-52.82672221412144,-32.554434130243514],[-53.07212067591996,-33.59521058922567],[-53.373379015183254,-33.71087493515892],[-53.43018128614239,-33.94221994760569],[-53.761301382024286,-34.17358828451655],[-53.790363795636516,-34.289281786472614],[-54.45680085206476,-34.75212350138425],[-54.89856878664585,-34.867852033345834],[-55.23428132659434,-35.099353095085824],[-55.31026078457958,-34.867852033345834],[-56.13364478044704,-34.867852033345834],[-56.3019386678545,-34.98358827769642],[-56.71382363863802,-34.98358827769642],[-56.78863412605277,-34.75212350138425],[-57.06296745240431,-34.75212350138425],[-57.38097035141348,-34.40498182398616],[-57.79190013930411,-34.40498182398616],[-57.96013480035217,-34.52068863213934],[-58.02313409463466,-34.75212350138425],[-57.49598616039988,-35.33086829552758],[-57.625869434058544,-35.794008404978236],[-57.79658816142092,-35.9098182127498],[-58.21005263733427,-35.9098182127498],[-58.38128345236579,-36.025638593610104],[-58.452396314169825,-35.794008404978236],[-58.7279052742069,-35.794008404978236],[-58.97002329647518,-35.67820883961734],[-59.52529930512673,-35.215106398708265],[-59.662723913485806,-35.215106398708265],[-60.845444437437095,-34.05790108316826],[-60.781686545190425,-33.82654464312964],[-61.02327623345349,-33.71087493515892],[-61.170774617687975,-33.248247380570646],[-61.38146853482758,-33.01696109107306],[-61.75928083317885,-32.90132399928112],[-61.72853541571988,-32.78569063102259],[-62.57454113573261,-31.860729697785654],[-62.5450066936185,-31.745119330800197],[-62.757527834176884,-31.51390253000764],[-62.893037926199185,-31.51390253000764],[-62.86391221842314,-31.398295629742186],[-63.718190166508194,-30.473445650011058],[-63.63547669752888,-30.12661391078647],[-63.74314561356413,-30.0109998897941],[-63.68932835316369,-29.779778714849154],[-63.93209963645211,-29.66415779388272],[-63.9360972540412,-29.086025180331525],[-64.04497166803229,-28.9703934929545],[-63.99442800595721,-28.739125453218126],[-64.10372535003803,-28.62348922581884],[-64.02989173728581,-28.276572463421576],[-64.13977114635574,-28.160931057577802],[-63.799876736573836,-26.426208394315314],[-63.645360155146065,-26.310556281002675],[-63.26469438891486,-23.99756481204118],[-63.1148098079245,-23.881919889900278],[-62.966844891092,-22.84113200831474],[-62.81860846473872,-22.7254904271809],[-62.563545576741824,-20.75960688017038],[-62.79849026406071,-20.528327237263195],[-62.769657761007,-20.29704728808418],[-62.99013106910036,-19.950143912867702],[-62.9613977462135,-19.71886191670225],[-63.299047703743945,-19.256296253531797],[-63.27046912306417,-19.025012658372887],[-63.37354782171331,-18.793728602063567],[-63.60815150471203,-18.56244412052878],[-63.579912510932466,-18.33115924969414],[-63.68324043613672,-18.099874025485853],[-64.03540562169876,-17.75294560518777],[-64.00777363764846,-17.521659654726015],[-64.21564261376828,-17.05908710684691],[-64.46441962017336,-16.943443861292476],[-64.43765196263203,-16.712157271319608],[-64.68649383948583,-16.59651393588339],[-64.67328225301313,-16.480870579468817],[-65.14511908741649,-16.018297033849752],[-65.23786036849255,-15.671366874428749],[-65.71162242071354,-15.208793558803878],[-65.6874865261995,-14.977513476732007],[-65.80632509828241,-14.861870584259728],[-66.067764111945,-14.861870584259728],[-66.56697109794074,-14.630584916877428],[-66.8050778850382,-14.399299398232321],[-67.06635700077985,-14.399299398232321],[-68.13109422596645,-13.24287369954484],[-68.76242458442377,-13.011588871411691],[-69.00272268648295,-12.780304124712446],[-69.39387953540388,-12.780304124712446],[-69.63440661657356,-12.549019449832512],[-70.15581653229498,-12.549019449832512],[-70.39654273776848,-12.317734837157337],[-70.78750301990084,-12.317734837157337],[-71.0284638520737,-12.086450277072375],[-71.28904075393694,-12.086450277072375],[-71.40961380694894,-11.97080801374669],[-71.39052234528161,-11.739523514519863],[-71.8835125355263,-11.392596816213796],[-71.8565229311411,-11.045670149705328],[-71.71760146843742,-10.930027928993539],[-71.32717849853486,-10.930027928993539],[-71.20574817489344,-11.045670149705328],[-70.16450856489718,-11.045670149705328],[-70.04304371764762,-11.161312370344767],[-69.13186013362592,-11.161312370344767],[-69.01037261338251,-11.27695459211365],[-68.48963906208957,-11.27695459211365],[-68.36817016065513,-11.392596816213796],[-66.8057957718235,-11.392596816213796],[-66.68422714296197,-11.50823904384701],[-65.64252699508916,-11.50823904384701],[-65.52091399217751,-11.623881276215092],[-65.26045929740877,-11.623881276215092],[-65.01739238974119,-11.855165759963128],[-64.10558961729376,-11.855165759963128],[-63.98405826732868,-11.97080801374669],[-63.46296665051322,-11.97080801374669],[-63.21999545432279,-12.202092551141984],[-62.43817037171771,-12.202092551141984],[-61.94361035968275,-12.549019449832512],[-61.422200443961344,-12.549019449832512],[-61.1795857080641,-12.780304124712446],[-61.049200091757115,-12.780304124712446],[-60.937253568217564,-13.011588871411691],[-60.415575500470496,-13.011588871411691],[-60.29444684635419,-13.127231274698117],[-59.90313657581057,-13.127231274698117],[-59.79145707075087,-13.358516147153695],[-59.2886063887779,-13.589801115465127],[-59.02759103116793,-13.589801115465127],[-58.785891077281875,-13.821086189247087],[-57.741536387102954,-13.821086189247087],[-57.620642199078944,-13.936728768694117],[-56.83726438552284,-13.936728768694117],[-56.716325592914444,-14.052371378114307],[-54.757598502472845,-14.052371378114307],[-54.636441348302284,-14.168014018709501],[-51.632621822126325,-14.168014018709501],[-51.35361969063008,-13.936728768694117],[-49.91742703244388,-13.936728768694117],[-49.77833187448868,-13.821086189247087],[-49.38669886567159,-13.821086189247087],[-49.10900744198973,-13.589801115465127],[-48.58697672676982,-13.589801115465127],[-48.448394216487614,-13.474158618726511],[-48.18741491399799,-13.474158618726511],[-47.910694523344674,-13.24287369954484],[-47.511644675262694,-13.127231274698117],[-47.2357223549881,-12.895946488483743],[-46.83716791429621,-12.780304124712446],[-46.42461497010002,-12.433377136320239],[-45.8895394565771,-12.202092551141984],[-45.478761551581506,-11.855165759963128],[-45.34850401266045,-11.855165759963128],[-44.523983168739065,-11.045670149705328],[-44.393828217489535,-11.045670149705328],[-44.12197541218519,-10.81438570700758],[-44.1107124862139,-10.583101254405936],[-43.43357521972756,-10.004890016477347],[-43.42338238169815,-9.77360387312416],[-42.88390792834664,-9.31103533912664],[-42.87455834907213,-9.079751016531702],[-42.19853899231289,-8.38589785672337],[-42.06866472166148,-8.38589785672337],[-41.80064800161359,-8.154613414546445],[-41.54094091354945,-8.154613414546445],[-41.40706323827525,-8.038971184461019],[-40.887689718568,-8.038971184461019],[-40.620228755720674,-7.807686707877556],[-38.283406803764976,-7.807686707877556],[-38.15725714411175,-7.923328948799301],[-37.8975904513172,-7.923328948799301],[-37.64533459258733,-8.154613414546445],[-37.38562750452319,-8.154613414546445],[-37.259520966675474,-8.270255638739316],[-36.999793285909455,-8.270255638739316],[-36.74381962495361,-8.38589785672337],[-36.49168359256243,-8.61718227279996],[-36.10584499718031,-8.73282447025997],[-35.59793187935771,-9.079751016531702],[-35.3380523625822,-9.079751016531702],[-35.21208394686427,-9.195393182198636],[-35.22848789579849,-9.657961754314481],[-35.492742454221094,-9.77360387312416],[-35.497054896761256,-9.889245981613605]]],[[[-78.74563975744287,-4.22277656608772],[-78.73250060925221,-3.8758496388997115],[-78.59874019361745,-3.7602073341613504],[-78.53619348253808,-1.4473615871808634],[-78.40488984148026,-1.3317193123506785],[-78.4001927714871,-0.9847924919775943],[-78.13891127595004,-0.7535079478608986],[-78.13547029012449,-0.05965432337826449],[-77.87757757486436,0.4029147581141987],[-77.87999492977437,0.7498415713261835],[-77.6234792495127,0.9811261154127981],[-77.62643199162034,1.2124106616460086],[-77.37104034982413,1.44369521053184],[-77.37509102200191,1.6749797625763174],[-76.8668421747602,2.137548878165312],[-76.87236968257696,2.3688334427218796],[-76.36677933778103,2.8314025878892846],[-76.24762553179015,3.1783294628048],[-75.99595652562944,3.4096140546686855],[-76.02449836167303,4.219110188259517],[-75.89931573872829,4.334752501783138],[-75.99494850490481,6.531955424267965],[-75.8709139463099,6.647597702227804],[-75.90047254701156,7.225809059135458],[-75.77683117126881,7.341451321724821],[-75.79571593812788,7.6883780862158035],[-75.93199844653509,7.804020332232875],[-75.98687523012408,8.729158096188797],[-76.12405889610008,8.844800286416742],[-76.00150269269423,8.960442468864576],[-76.0241612263603,9.307368966364786],[-75.76423649390827,9.307368966364786],[-75.52771563045914,9.654295382458539],[-75.57728890594686,10.348150406668744],[-75.33446286738095,10.579434879175567],[-75.34328568480241,10.695077107451537],[-75.09196447675878,10.810719332011622],[-75.1009795797657,10.926361554057634],[-74.45933302543517,11.042003774791374],[-74.09657803932276,11.388930441137072],[-73.95704715958101,11.273288217129286],[-73.30613250131313,11.273288217129286],[-73.07379849584422,11.620214900839345],[-72.82288394672835,11.73585713893745],[-72.5624001962291,11.73585713893745],[-72.45148695848174,11.967141637636637],[-71.9701860122407,12.429710758697663],[-71.5791789727658,12.429710758697663],[-71.29854173839709,12.198426174351875],[-71.5204651942321,11.73585713893745],[-71.91119081998096,11.73585713893745],[-72.03198349964546,11.620214900839345],[-72.01341957460676,11.388930441137072],[-71.59593389347513,11.042003774791374],[-71.20547037548059,11.042003774791374],[-70.96283973154884,11.273288217129286],[-70.44210800493455,11.273288217129286],[-70.320853322025,11.388930441137072],[-70.3767157926724,12.082783900641342],[-69.98585192697517,12.082783900641342],[-69.96688161352972,11.851499384135943],[-69.68789975819827,11.620214900839345],[-69.29721913462373,11.620214900839345],[-69.14907668562223,11.388930441137072],[-68.88868187753273,11.388930441137072],[-68.480742988446,11.157645995414654],[-68.447288963021,10.695077107451537],[-68.30907936149389,10.579434879175567],[-67.00808241595925,10.579434879175567],[-66.88593121469313,10.695077107451537],[-66.49559177761118,10.695077107451537],[-66.07435949262089,10.23250816003427],[-65.55411817335157,10.23250816003427],[-65.41663704525948,10.116865904876677],[-65.15654197829375,10.116865904876677],[-65.03387685408225,10.23250816003427],[-64.64369586463026,10.23250816003427],[-64.41378144650734,10.695077107451537],[-62.592197406791506,10.695077107451537],[-62.469668390115075,10.810719332011622],[-62.209414862555406,10.810719332011622],[-62.071744824015546,10.695077107451537],[-62.462084261097516,10.695077107451537],[-62.837453429892605,10.463792645981904],[-62.82285124718767,10.23250816003427],[-62.28153619962175,9.88557961041174],[-61.89146893453139,9.88557961041174],[-61.61793616166722,9.654295382458539],[-61.221362204417865,9.538653253332887],[-61.183602283176874,8.844800286416742],[-60.91185863545131,8.613515898497004],[-60.52217304092238,8.613515898497004],[-60.39815093223894,8.729158096188797],[-59.8556524948893,8.266589263801174],[-59.460556533512296,8.150947039416629],[-59.054991566768436,7.804020332232875],[-58.90980096188491,7.457093580645509],[-58.64033083533682,7.225809059135458],[-58.630700593157215,6.994524524215766],[-58.36648087142385,6.878882252517972],[-57.82939680944887,6.4163131448533095],[-57.69968304056452,6.4163131448533095],[-57.29766530270652,6.0693863010430995],[-56.77890948356368,6.0693863010430995],[-56.640983446503306,5.838101737027083],[-56.38163759307844,5.838101737027083],[-56.13046470963512,6.0693863010430995],[-54.96326411656373,6.0693863010430995],[-54.695889545816826,5.838101737027083],[-54.306870765679534,5.838101737027083],[-54.173305540022284,5.722459455525109],[-53.913975415729034,5.722459455525109],[-53.64706634030162,5.491174895114559],[-53.3877670927862,5.491174895114559],[-52.85473767131559,5.028605793522488],[-52.72511780720358,5.028605793522488],[-52.325978973605665,4.6816794568329705],[-52.196380483793206,4.6816794568329705],[-51.927387233859484,4.334752501783138],[-51.79780924194127,4.334752501783138],[-51.52640386721575,3.872183261282077],[-51.507292162917324,3.0626871695121727],[-51.243440250383884,2.8314025878892846],[-51.23675871007823,2.484475726912067],[-50.97374035488658,2.253191159827379],[-50.71478228720473,2.253191159827379],[-50.711085145314065,2.0219065976724258],[-50.45042926010094,1.9062643182854664],[-50.447264939700574,1.6749797625763174],[-50.31500792954864,1.44369521053184],[-50.57041546470286,1.0967683882294523],[-50.56857488838517,0.865483843132793],[-50.30771172422329,0.5185570288801395],[-50.048833642908235,0.5185570288801395],[-50.048054474127056,0.28727248756864104],[-49.659409661203675,-0.05965432337826449],[-49.400536382758936,-0.05965432337826449],[-49.271214017206056,-0.17529659367482042],[-48.88290335088406,-0.17529659367482042],[-48.88345903879323,-0.40658113461883255],[-48.75445873419313,-0.5222234053927951],[-47.71894613579231,-0.5222234053927951],[-47.46123010870381,-0.7535079478608986],[-47.33178841601501,-0.7535079478608986],[-47.33426573224282,-1.1004347648122972],[-48.24953318225105,-1.9099306950508028],[-48.25118701032033,-2.0255729744718542],[-48.510129547839185,-2.0255729744718542],[-49.29450925283445,-2.4881421038679177],[-51.495801191047185,-2.4881421038679177],[-51.62320253717784,-2.3724998196356166],[-52.14113604546756,-2.3724998196356166],[-52.26665193312725,-2.1412152550008376],[-52.65507731476284,-2.1412152550008376],[-52.91803630790214,-2.3724998196356166],[-53.82658089033125,-2.4881421038679177],[-54.090143102795324,-2.7194266764786104],[-54.737628246226734,-2.7194266764786104],[-55.24661433860278,-2.2568575367010077],[-55.239024753005694,-1.7942884166744313],[-54.71515879421938,-1.3317193123506785],[-54.32555904160436,-1.2160770382489077],[-53.80387305045514,-0.7535079478608986],[-53.542872680955874,-0.2909388640672588],[-53.542625629072816,0.1716302171802135],[-53.28398850188136,0.28727248756864104],[-53.284809659346344,0.5185570288801395],[-53.15595031701611,0.6341992999297168],[-53.158347453225815,0.9811261154127981],[-53.029912580321806,1.0967683882294523],[-53.03224155345047,1.3280529357257203],[-52.77605451596108,1.5593374861276215],[-52.779154638454514,1.7906220399411814],[-52.14107067735876,2.3688334427218796],[-52.14535398916617,2.6001180124611953],[-52.018117851281716,2.715760299432516],[-52.03051539209227,3.2939717578358865],[-52.572080111401064,4.219110188259517],[-52.83769616431527,4.450394817677752],[-53.09686560610095,4.450394817677752],[-53.35937623519838,4.566037136006611],[-53.4958107256059,4.7973217802200825],[-54.40659054165785,4.9129641062311995],[-54.54343286117391,5.144248065726214],[-55.06194153505518,5.144248065726214],[-55.195287081682324,5.25989034027031],[-57.528709199624366,5.25989034027031],[-57.654484904461555,5.144248065726214],[-57.913739241402205,5.144248065726214],[-58.41710799479143,4.6816794568329705],[-58.4098391627074,4.450394817677752],[-58.53236320263041,4.219110188259517],[-58.784657084234354,3.9878255680722394],[-58.778062492001,3.7565409566098937],[-58.90440549578004,3.6408986539924357],[-58.89522185049747,3.2939717578358865],[-59.01898566156198,3.0626871695121727],[-59.148497618435165,3.0626871695121727],[-59.27254861852111,2.8314025878892846],[-59.653453976549464,2.484475726912067],[-59.91006512925977,2.3688334427218796],[-61.46386401963997,2.3688334427218796],[-61.7303836031741,2.715760299432516],[-61.98937735655788,2.715760299432516],[-62.251088819604284,2.8314025878892846],[-62.51580849713792,3.0626871695121727],[-62.907344941447036,3.1783294628048],[-63.172646765748084,3.4096140546686855],[-63.82356928448622,3.5252563533664514],[-63.95990450404555,3.7565409566098937],[-64.61117598258977,3.872183261282077],[-65.14050315160208,4.219110188259517],[-65.52921726624746,4.219110188259517],[-65.66658353270647,4.450394817677752],[-66.83689793039919,4.566037136006611],[-67.10439057053016,4.7973217802200825],[-68.91886788318672,4.7973217802200825],[-69.16954591610703,4.566037136006611],[-69.55412515949168,4.450394817677752],[-69.80507252734677,4.219110188259517],[-70.19378664199215,4.219110188259517],[-70.31932356650917,4.103467877043636],[-70.57845329349601,4.103467877043636],[-70.82968154237149,3.872183261282077],[-71.08878594069573,3.872183261282077],[-71.21448332090786,3.7565409566098937],[-71.6031214718112,3.7565409566098937],[-71.85468582318624,3.5252563533664514],[-72.11375409862818,3.5252563533664514],[-72.2396334646541,3.4096140546686855],[-72.62821860889292,3.4096140546686855],[-73.13578896073895,3.0626871695121727],[-73.52432483135851,3.0626871695121727],[-73.64724263244422,2.8314025878892846],[-74.03574787606377,2.8314025878892846],[-74.16208376559634,2.715760299432516],[-74.42107751898014,2.715760299432516],[-74.6740178367135,2.484475726912067],[-75.06248069516602,2.484475726912067],[-75.44527775082099,2.253191159827379],[-75.44261715148113,2.137548878165312],[-75.70156715571369,2.137548878165312],[-75.95552269901978,1.9062643182854664],[-75.95320988498524,1.7906220399411814],[-76.7187532202306,1.0967683882294523],[-76.71611806439994,0.865483843132793],[-76.9729524104386,0.6341992999297168],[-76.97151099015728,0.4029147581141987],[-77.22941117927027,0.055987946885663005],[-77.23040519269574,-0.40658113461883255],[-77.62225866569224,-0.8691502196815459],[-77.6363146303826,-1.7942884166744313],[-77.76814436328011,-1.9099306950508028],[-77.78181668852864,-2.4881421038679177],[-77.91439472050318,-2.6037843894611647],[-77.92432381367162,-2.950711255039111],[-78.19050154992583,-3.1819958400554453],[-78.21010146367125,-3.7602073341613504],[-78.34384342081164,-3.8758496388997115],[-78.3614419407023,-4.338418879685541],[-78.49561777833166,-4.454061195656361],[-78.56132011979142,-5.957410395838344],[-77.9467933784575,-6.651264078936938],[-77.98337329164242,-7.345117697915606],[-78.25581665801485,-7.576402211519047],[-78.38562067060509,-7.576402211519047],[-78.37272852882542,-7.345117697915606],[-78.61969809756802,-7.113833169597362],[-78.71930098034021,-6.535621801028395],[-78.84321045949618,-6.419979521655009],[-78.82620805581364,-6.073052677908446],[-78.95036355329495,-5.957410395838344],[-78.93950240553119,-5.726125832363859],[-79.19348780162707,-5.61048355159201],[-79.16276287638183,-4.916630484534686],[-79.02825284823817,-4.80098815843934],[-79.0139575221977,-4.454061195656361],[-78.74563975744287,-4.22277656608772]],[[-71.33828212805267,9.191726809154861],[-71.09289507154169,9.423011114529547],[-71.12306087500318,9.88557961041174],[-71.41494369277831,10.348150406668744],[-71.67509026860132,10.348150406668744],[-71.91901371940249,10.116865904876677],[-71.88777333956033,9.654295382458539],[-71.59818374585379,9.191726809154861],[-71.33828212805267,9.191726809154861]]],[[[-87.40559418720892,20.177740846075167],[-87.36718255581714,19.946477581332267],[-87.47975057485608,19.83083665188915],[-87.40321911162523,19.368271513238604],[-87.60933362327026,19.021346293058695],[-87.57145624272287,18.79006222972837],[-87.75920660454165,18.327492865025427],[-87.89061823579364,18.327492865025427],[-87.9281834765329,18.55877774174207],[-88.07854740575242,18.674420036571878],[-88.34152220688428,18.674420036571878],[-88.360533157515,18.79006222972837],[-88.81265139169638,19.136988154251295],[-89.47059888431252,19.136988154251295],[-90.2017126253633,18.79006222972837],[-90.59625108275937,18.79006222972837],[-91.06385169662458,18.44313534972967],[-91.9839093117309,18.44313534972967],[-92.13496939922766,18.55877774174207],[-92.5293555794803,18.55877774174207],[-92.43743055060764,18.79006222972837],[-91.64835363581552,18.79006222972837],[-91.42468592863462,19.021346293058695],[-91.04967286659125,19.136988154251295],[-90.71397158969236,19.48391300205234],[-90.64161518866227,19.83083665188915],[-90.41768877559532,20.062100583584492],[-90.47723418790092,20.40902100567037],[-90.29324665718346,20.871580332624536],[-90.33347281837112,21.10285976815564],[-89.97773111051377,21.33413923050263],[-89.71355981641018,21.33413923050263],[-89.60169309625626,21.449779013633584],[-88.94113076828246,21.449779013633584],[-88.45290281693357,21.681058767613855],[-87.92423697361436,21.681058767613855],[-87.7720485762126,21.5654188537504],[-87.37563037295834,21.5654188537504],[-87.26340466946537,21.681058767613855],[-86.99907174780576,21.681058767613855],[-86.84707276861931,21.5654188537504],[-86.67203733520677,20.524660936297128],[-86.89744835109806,20.293380981183393],[-87.29299338011835,20.293380981183393],[-87.40559418720892,20.177740846075167]]],[[[-118.13909491443977,32.897657849101115],[-118.24984419503983,33.12893573933058],[-118.03322570862726,33.24444665990047],[-117.92182071848548,33.01329481925194],[-118.13909491443977,32.897657849101115]]],[[[-118.03297407364728,33.24458084322279],[-118.03322570862726,33.24444665990047],[-118.07051590048164,33.3218192845406],[-118.03297407364728,33.24458084322279]]],[[[-157.08769714476819,56.5290363828675],[-157.4017965798122,56.5290363828675],[-157.5138840367648,56.28222476060569],[-157.33567921844715,56.15895272180521],[-157.64877339854817,56.15895272180521],[-157.76298181794772,55.912672738717404],[-158.5440624233516,55.912672738717404],[-158.637913844184,55.543902776465224],[-158.94936537667814,55.543902776465224],[-158.92934641994208,55.421150094877966],[-158.58045833772303,55.175896692747735],[-158.5448816009462,54.93099433004197],[-159.3195043272704,54.93099433004197],[-159.30172750472343,54.80865585084095],[-159.61126084636925,54.80865585084095],[-159.95813913180984,55.053394653487615],[-160.61930474463878,55.298481620743416],[-160.93011051622946,55.298481620743416],[-160.7335550812413,55.053394653487615],[-161.35388784078648,55.053394653487615],[-161.31369422542153,54.80865585084095],[-162.0875275795362,54.80865585084095],[-162.0674721058592,54.6863982987269],[-161.72047023403982,54.442123377533875],[-162.33766139735863,54.442123377533875],[-162.66579674349722,54.56422102320814],[-163.4380632049242,54.56422102320814],[-163.39801038533398,54.32010471865013],[-163.05262753003632,54.07630180726245],[-163.360299636123,54.07630180726245],[-164.76571801828493,55.053394653487615],[-164.45555163851233,55.053394653487615],[-164.47967871670028,55.175896692747735],[-163.7034655089401,55.175896692747735],[-163.72736246054532,55.298481620743416],[-163.105750917364,55.298481620743416],[-163.12957242642577,55.421150094877966],[-162.66288064792755,55.421150094877966],[-162.2932493292903,55.912672738717404],[-161.6934076582354,56.035768943099626],[-161.71899773986107,56.15895272180521],[-161.24935646970957,56.15895272180521],[-161.2750153691609,56.28222476060569],[-160.3347325360619,56.28222476060569],[-160.09765687853874,56.65257735931455],[-159.49468289665745,56.77620938193144],[-159.5211497786807,56.89993315824271],[-159.20603008544455,56.89993315824271],[-159.23272046588312,57.023749400281076],[-158.60179416547487,57.023749400281076],[-158.68319376753902,57.39576010985203],[-158.36669002058827,57.39576010985203],[-158.1345960753126,57.76862908845399],[-157.34069643497668,57.76862908845399],[-156.99566937903612,57.64424283998722],[-156.67846329687663,57.64424283998722],[-156.28408690030085,58.01769507798934],[-156.3123578846223,58.142376324304024],[-156.68995664950754,58.39203912118442],[-156.7827045898641,58.76729563613656],[-157.23642066160312,59.26909357849642],[-157.82716465324623,59.646561993978445],[-159.11548360271928,60.15138031131373],[-159.6439245650112,60.2778662788353],[-160.29395362880226,60.2778662788353],[-160.2516677657898,60.15138031131373],[-160.73860383567717,60.15138031131373],[-160.69635661380775,60.02500721578689],[-161.02059210279802,60.02500721578689],[-160.97860250455355,59.8987531819414],[-161.62630028710865,59.8987531819414],[-161.9932985697687,60.02500721578689],[-162.31753405875898,60.02500721578689],[-162.94011927828615,60.404466075376384],[-162.5448516965572,60.65801102001392],[-162.7383024937762,61.16650978472719],[-163.60114445190803,61.67694050285533],[-164.5903555491456,62.06107097434894],[-164.0943207332905,62.06107097434894],[-164.15026533549837,62.18936911697851],[-162.82582288187223,62.18936911697851],[-162.88076457687643,62.31779637342982],[-162.38346438608136,62.31779637342982],[-162.4941231235759,62.5750425806736],[-162.38407378204607,62.70386373064298],[-162.05125898913326,62.70386373064298],[-162.10766027428892,62.832818393045464],[-161.71844419622042,62.70386373064298],[-160.3871850245691,62.70386373064298],[-159.9391466773269,63.220494731939034],[-160.2265920939333,63.8693989334679],[-160.11756376653798,63.99960691626659],[-159.7803353458681,63.99960691626659],[-159.62270490175158,64.39110690998854],[-156.23673809787618,64.39110690998854],[-156.29341813140135,64.52190304344008],[-155.89814141748863,64.39110690998854],[-155.39024639690734,64.39110690998854],[-155.27624584106408,64.52190304344008],[-155.38890508550386,64.78394704883901],[-155.9645097807138,65.3098944135091],[-156.66387482689498,65.70601105591977],[-157.71946209865834,66.10361330995991],[-158.47743436449213,66.23648677468496],[-160.14901577918985,66.76973193901578],[-160.91952207614867,66.90349151141936],[-161.42317851353292,67.17156356047147],[-161.5026232540632,67.30588041084661],[-162.53374667569085,67.84507220394352],[-162.97156410363024,67.98036270469785],[-163.23768500926437,68.38745398310786],[-162.88410838350492,68.38745398310786],[-162.44173449614786,68.25155119118673],[-160.14702062478972,68.25155119118673],[-159.7104199420411,68.11585490428693],[-159.18168088909667,68.11585490428693],[-158.74809250412062,67.98036270469785],[-158.3961365374948,67.98036270469785],[-157.9652523156618,67.84507220394352],[-157.0866957079639,67.84507220394352],[-155.88358347010956,67.57508688773959],[-155.53321745081908,67.57508688773959],[-154.93608845286505,67.44038743635627],[-152.03783215486925,66.50275494842604],[-151.86469926333427,66.50275494842604],[-150.6515359862336,66.10361330995991],[-149.5078551089637,65.83837745245786],[-149.1640570363183,65.83837745245786],[-148.76768323980357,65.70601105591977],[-148.08105788440434,65.70601105591977],[-146.9529501358105,65.44177147592788],[-146.6106004305625,65.44177147592788],[-146.22115640566227,65.3098944135091],[-144.68273218854887,65.3098944135091],[-144.29704556048574,65.17817661681285],[-140.54167974731698,65.17817661681285],[-140.16277968713953,65.04661619577092],[-139.65139338921563,65.04661619577092],[-139.27471499075426,64.91519747291542],[-138.42358029847796,64.91519747291542],[-138.04961840885872,64.78394704883901],[-131.9298701700428,64.78394704883901],[-131.954956637178,64.91519747291542],[-130.42291419108062,64.91519747291542],[-130.4464400265854,65.04661619577092],[-129.93505372866153,65.04661619577092],[-129.95837609202323,65.17817661681285],[-129.44628075386387,65.17817661681285],[-129.46942604153855,65.3098944135091],[-129.12755399329112,65.3098944135091],[-128.8317003740861,65.57380971360641],[-129.01115758071754,66.50275494842604],[-129.71428343568616,67.30588041084661],[-127.96767135775335,67.30588041084661],[-127.82328576662098,67.44038743635627],[-127.4436877343735,67.30588041084661],[-126.22105927982055,67.30588041084661],[-126.24899399774232,67.44038743635627],[-125.54930876712957,67.44038743635627],[-125.5769228014843,67.57508688773959],[-124.52582474361292,67.57508688773959],[-124.14993830590404,67.44038743635627],[-122.22580392171898,67.44038743635627],[-121.85452908498851,67.30588041084661],[-121.15588425381539,67.30588041084661],[-121.17627607579985,67.44038743635627],[-120.4765908451871,67.44038743635627],[-120.16643476526212,67.70998104220212],[-120.20891415859504,67.98036270469785],[-119.85695819196926,67.98036270469785],[-118.20261384569565,67.44038743635627],[-117.8527712303893,67.44038743635627],[-116.77609109495938,67.17156356047147],[-116.05583119385828,66.90349151141936],[-115.35084026371781,66.76973193901578],[-113.93755497243455,66.23648677468496],[-113.76040944821166,66.10361330995991],[-112.71985208134284,65.70601105591977],[-112.54728003281352,65.57380971360641],[-111.52294391828572,65.17817661681285],[-110.85073734745455,64.78394704883901],[-107.0796841262894,63.220494731939034],[-105.67356027667847,62.446353829660744],[-100.75875742455543,60.53118066522155],[-99.47902085713909,59.77260247731492],[-98.3206529195914,59.26909357849642],[-97.42630636130774,59.017983973485116],[-93.48342189568069,57.39576010985203],[-92.62442533330167,57.147658824641674],[-92.30861702727215,57.147658824641674],[-90.76411235917831,56.65257735931455],[-90.4496745155531,56.65257735931455],[-88.50700769580108,56.035768943099626],[-88.19424530279922,56.035768943099626],[-86.53688407178855,55.543902776465224],[-85.77165944981981,55.175896692747735],[-85.61641680826777,55.175896692747735],[-84.70419216806975,54.80865585084095],[-84.39465882642389,54.80865585084095],[-84.14424073551397,54.6863982987269],[-82.44383770779844,54.6863982987269],[-82.62703490994964,54.32010471865013],[-82.14276706312184,53.46813247656796],[-81.90055940803391,53.34672299158665],[-81.4417570000511,53.34672299158665],[-81.20077094359844,53.22538686526836],[-80.93950170193905,52.861812570575985],[-81.8535952580306,52.861812570575985],[-81.91880870534764,52.74076382727526],[-81.57516095134558,52.257266431949326],[-80.86892842677278,51.89535942076257],[-80.62201675911645,51.53404880345773],[-80.3900251890382,51.413741800860464],[-80.08868288478135,51.413741800860464],[-79.72857621631242,51.774857045768805],[-79.97552170156266,52.13656353770927],[-79.60389802832016,52.257266431949326],[-79.36954017241757,52.13656353770927],[-79.06654940784503,52.13656353770927],[-78.77658121986461,52.3780373230681],[-79.28152066758022,53.10412348922207],[-79.5201180733401,53.22538686526836],[-79.36733144877115,53.22538686526836],[-79.23420048295799,53.46813247656796],[-79.49637317906067,53.832807216912144],[-79.27732978433166,53.95451628674637],[-79.45476273173729,54.19816440715637],[-79.69831633355211,54.32010471865013],[-80.06119204338177,54.80865585084095],[-79.84321260641028,54.93099433004197],[-79.22351442535093,54.93099433004197],[-78.78574057997834,55.175896692747735],[-79.1554923647332,55.666257365702975],[-78.96948837058697,55.421150094877966],[-78.72198393050209,55.298481620743416],[-78.25577527311611,55.298481620743416],[-77.59618155187786,55.66674033077593],[-77.18356911259272,56.15895272180521],[-74.20917440163328,56.15895272180521],[-74.14213950198437,56.28222476060569],[-73.67199808543486,56.28222476060569],[-73.60456965771898,56.40558574952049],[-72.66328157739225,56.40558574952049],[-72.21227958529052,56.65257735931455],[-70.01121467991398,56.65257735931455],[-69.76805420253731,56.5290363828675],[-67.72640787475133,56.5290363828675],[-67.65293085272485,56.65257735931455],[-65.45186594734832,56.65257735931455],[-64.81921424133621,56.40558574952049],[-64.50545154789398,56.40558574952049],[-64.26916975444459,56.28222476060569],[-63.64231453237857,56.28222476060569],[-62.86049146964891,56.035768943099626],[-61.24332208459866,55.175896692747735],[-60.09629150722344,54.80865585084095],[-59.4772248239317,54.80865585084095],[-59.252097381098174,54.6863982987269],[-58.16983027873227,54.6863982987269],[-58.08432478652532,54.80865585084095],[-57.70600152057544,54.6863982987269],[-58.032354796476234,54.442123377533875],[-57.89627893725113,54.19816440715637],[-57.38773460547804,53.832807216912144],[-56.554673107589736,53.711173972548636],[-56.33638859092494,53.58961593188852],[-56.207624560995356,53.34672299158665],[-56.38553290889689,53.10412348922207],[-56.07177780870431,52.49887679452529],[-56.10037856147885,52.257266431949326],[-56.43254691273944,52.01592805984238],[-56.311239719481165,51.774857045768805],[-55.94923862323081,51.654420363011255],[-55.88975410914544,51.53404880345773],[-56.040560588718435,51.53404880345773],[-56.22346879756873,51.29349879172332],[-56.04812043446131,50.933148130706805],[-56.49853458246693,50.933148130706805],[-56.68241403910868,50.693224114129535],[-56.7171038398119,50.45354277398233],[-56.60339187775688,50.214099759219586],[-56.39785299419624,50.09446627499633],[-55.950142442453924,50.09446627499633],[-55.83964924774271,49.85537435155161],[-55.63607973608599,49.735913570236754],[-54.74290158880906,49.735913570236754],[-54.49876788193144,49.85537435155161],[-54.39192865380703,49.61650905715448],[-53.989453887520725,49.37786654217398],[-54.034017454468554,49.13944224429294],[-53.931342622816885,48.90123164001523],[-53.584661884688245,48.782205069752266],[-53.09355862934282,47.59469445354788],[-53.19680618519249,47.1210166869869],[-53.49442914542428,46.76622399164886],[-54.078398818235684,46.76622399164886],[-54.27182517635224,46.88444493110808],[-54.56402566277688,46.88444493110808],[-54.75684194423942,47.35776511705865],[-54.95227330787269,47.47620690629161],[-55.245567218048635,47.47620690629161],[-55.63535182640278,47.002708988105354],[-56.658811735940745,47.002708988105354],[-56.755529310961606,46.88444493110808],[-56.90469548023722,47.23936855394786],[-56.46541536145445,47.23936855394786],[-56.368744127638465,47.35776511705865],[-56.46899026257455,47.59469445354788],[-56.66636120030364,47.71322829268449],[-59.75061860475031,47.71322829268449],[-59.85735040685608,47.95043699197072],[-59.42984972496007,48.306610691949544],[-59.59342027810967,48.66323024365987],[-59.111973406828405,48.90123164001523],[-58.92645693652321,49.13944224429294],[-58.62994545276232,49.13944224429294],[-58.53709426846607,49.25862739971252],[-58.648937732699416,49.49716023830378],[-58.3156141779168,49.735913570236754],[-58.337932051746364,50.09446627499633],[-57.6996389771486,50.933148130706805],[-57.54950092781339,50.933148130706805],[-57.367881447018895,51.17331921526936],[-57.48801006551545,51.413741800860464],[-57.69943186402137,51.53404880345773],[-58.15185130274036,51.53404880345773],[-58.24136582615766,51.413741800860464],[-58.99472158679984,51.413741800860464],[-59.022313980241115,51.17331921526936],[-59.17271693780679,51.17331921526936],[-59.351157519835894,50.933148130706805],[-59.74056560658761,50.81315551435302],[-59.919197159298406,50.57335338238063],[-60.3973183883833,50.333791746312166],[-61.5932400053768,50.333791746312166],[-61.681737689882176,50.214099759219586],[-62.129827026246176,50.214099759219586],[-62.340691015997734,50.333791746312166],[-63.68610283511542,50.333791746312166],[-63.77282125958083,50.214099759219586],[-63.64850881613398,49.974891977622896],[-62.156754452416806,49.37786654217398],[-62.18808325789299,49.13944224429294],[-62.63285048353433,49.13944224429294],[-62.83998919118169,49.25862739971252],[-63.285116252152285,49.25862739971252],[-63.64171819148884,49.37786654217398],[-64.48088471630426,49.85537435155161],[-64.84140021348658,49.974891977622896],[-64.96772615655148,50.214099759219586],[-65.39495478488865,50.45354277398233],[-66.67590687759916,50.333791746312166],[-66.76008350200746,50.214099759219586],[-67.05880972625013,50.214099759219586],[-67.29214308659303,50.09446627499633],[-67.48105117450757,49.61650905715448],[-67.35412753916887,49.37786654217398],[-67.14288411389731,49.25862739971252],[-66.54938136593654,49.25862739971252],[-66.46314929572566,49.37786654217398],[-65.42367467837525,49.37786654217398],[-65.2140001830248,49.25862739971252],[-64.9172488090444,49.25862739971252],[-64.50021899597115,49.02031051168336],[-64.55925400341786,48.54430660677475],[-64.70692067177659,48.54430660677475],[-64.88497291343525,48.306610691949544],[-64.76898345455079,48.06911292986135],[-65.30747441739689,47.35776511705865],[-65.1948309874632,47.1210166869869],[-64.99269957074988,47.002708988105354],[-64.5540738952336,47.002708988105354],[-64.31692673363852,47.1210166869869],[-64.1518756742324,46.76622399164886],[-63.95146776405726,46.64804564720416],[-63.65969762002225,46.64804564720416],[-63.45995465455391,46.529909377047325],[-62.439507301516834,46.529909377047325],[-62.147950914934796,46.529909377047325],[-62.0549618278297,46.64804564720416],[-62.376743174853154,47.35776511705865],[-62.3393061464558,47.59469445354788],[-62.10052900813824,47.71322829268449],[-61.953659607926504,47.71322829268449],[-62.32248361189133,47.23936855394786],[-62.1079818193925,46.76622399164886],[-61.909076755812194,46.64804564720416],[-61.471421539759675,46.64804564720416],[-61.09794446961468,47.1210166869869],[-60.951627093977216,47.1210166869869],[-60.75265137409259,47.002708988105354],[-60.64805763736398,46.76622399164886],[-60.74199617967216,46.64804564720416],[-60.63856299643198,46.411814662222696],[-60.29604121458548,46.2937609855202],[-60.1943080529965,46.05777468621771],[-60.623356320352755,45.70409019050897],[-61.34856729790118,45.70409019050897],[-61.44257427933379,45.58627197572007],[-61.341044606262024,45.350747435292725],[-61.57980027632179,45.23304010290239],[-62.15832115338546,45.23304010290239],[-62.48985662983467,44.99771867689931],[-63.160548831447635,44.88011808271313],[-63.253497436545295,44.76255214300283],[-63.83039209418341,44.76255214300283],[-63.87136265629509,44.52752300157945],[-64.44745208956685,44.52752300157945],[-65.28703158905613,43.82323557438469],[-65.57388526024688,43.82323557438469],[-65.75730750033175,43.58873171056996],[-66.04377006426272,43.58873171056996],[-66.29101943822378,43.82323557438469],[-66.43444627381915,43.82323557438469],[-66.59226564463417,44.17523156121229],[-66.5171142202713,44.64502055119816],[-66.04704513985581,44.88011808271313],[-66.15415690325067,45.11536872707827],[-66.35259751209705,45.23304010290239],[-66.93111838916072,45.23304010290239],[-67.16585357507294,45.11536872707827],[-67.43598370442163,44.76255214300283],[-68.1024654973171,44.64502055119816],[-68.28158634724564,44.41005918926863],[-68.56943077772205,44.41005918926863],[-68.65877342133449,44.29262881022017],[-69.23406310158636,44.29262881022017],[-69.64440990249425,43.940535244496694],[-69.93146026382158,43.940535244496694],[-70.02011716370357,43.82323557438469],[-70.4503976704897,43.82323557438469],[-70.57245721635375,43.47152691916959],[-70.7155913010872,43.47152691916959],[-71.06959661548511,43.00301508600737],[-70.90816753666745,42.651945637074995],[-71.13958686092948,42.53498081095006],[-71.033316206014,42.30113689155246],[-70.64406667832048,42.067405344649416],[-70.36006666483017,42.067405344649416],[-70.27010172675132,42.18425721654913],[-70.11477622810631,41.83378385407191],[-70.29581714658764,41.60027011416864],[-70.19430950273546,41.366861829557386],[-70.47722379204856,41.366861829557386],[-70.66956545918482,41.483552933018515],[-71.09420474593398,41.483552933018515],[-71.28727052579815,41.60027011416864],[-71.71217911688838,41.60027011416864],[-72.1231268703473,41.25019651842667],[-72.16201735116512,41.01694213477066],[-72.39342658777227,40.90035249455414],[-73.09895131806263,40.90035249455414],[-73.18885728756318,40.78378751127072],[-73.75292991062575,40.78378751127072],[-73.84262065964357,40.667246902542914],[-74.12448441769736,40.667246902542914],[-74.21414002946074,40.550730386567224],[-74.11252896631541,40.31776850848396],[-74.15270070451062,40.084899633793924],[-74.42515913407509,39.73578236332522],[-74.37611460808594,39.61944747639162],[-74.51629384180477,39.61944747639162],[-74.79061964851356,39.27056957212265],[-74.74250373811903,39.15431804094903],[-74.97425192134101,39.038086488769366],[-75.2538111398205,39.038086488769366],[-75.3456890866382,38.921874572782826],[-75.15705270132892,38.457216434491606],[-75.90371479116168,37.52873917165118],[-75.95295474427716,37.296778873663584],[-76.18572697554676,37.180820727558206],[-75.5466839861239,35.442968522513354],[-75.64336107842684,35.32719799112061],[-76.05582457241302,35.32719799112061],[-76.57973065506658,34.864182804834236],[-77.12864518251493,34.864182804834236],[-77.3623445461569,34.74845451353484],[-77.98275144340568,34.16992038803585],[-77.9428664524283,34.054233382603826],[-78.21644146150828,34.054233382603826],[-78.31337109229926,33.93855243551467],[-78.72354848334419,33.93855243551467],[-78.95704934493206,33.822877312072954],[-79.40343484567818,33.12893573933058],[-79.87097306566402,32.897657849101115],[-80.0663406080685,32.66639482343425],[-80.33847891376942,32.66639482343425],[-80.53406699546196,32.43514479275491],[-80.67002119352621,32.43514479275491],[-81.1607905970167,31.857064309102814],[-81.12369948388867,31.74145398972916],[-81.35797243657565,31.625845051766714],[-81.48322395994262,31.16341844954783],[-81.41174733269459,30.932207373544053],[-81.51156606789684,30.816601575707114],[-81.07380590046057,29.31361766939587],[-80.67892728188038,28.85109411374961],[-80.58718335166947,28.504185359113787],[-80.69127060957405,28.388546376465467],[-80.63174352617706,28.157264689544157],[-80.46830447270345,28.041622110305013],[-80.29731633889213,27.347746273473184],[-80.13591875300158,27.232097490852958],[-80.05454433970124,26.885147577299804],[-80.16148977951664,26.769496626105607],[-80.05715514962553,26.306889589864124],[-80.30744873614398,25.612976224587108],[-80.2593504942014,25.381673022425186],[-80.58809554653531,25.034721114638536],[-80.67512413671353,24.803425568379808],[-80.80809525442763,24.803425568379808],[-80.69801093665555,24.919074353119306],[-80.74449161346992,25.150371281077675],[-80.90119425640458,25.266021937863222],[-81.16740914325922,25.266021937863222],[-81.26459961976177,25.72862821703684],[-81.89922538656543,26.191237335817576],[-81.95149813269863,26.422541708493547],[-82.27184726210918,26.65384528919042],[-82.6003469967142,27.463394357542086],[-82.76306191173961,27.57904168050358],[-82.91122764382655,28.157264689544157],[-82.66275204006942,28.73545929025181],[-82.75805238815995,29.082359164181277],[-83.42722899811953,29.54486912976002],[-83.49446312695503,29.776113045792595],[-84.00189915790907,30.12294845995211],[-84.40654724111367,30.12294845995211],[-84.70707423017117,29.776113045792595],[-85.38074706529126,29.776113045792595],[-85.79095660629176,30.238560660689302],[-86.40304749742339,30.469780344692495],[-87.3482867040047,30.469780344692495],[-87.44660216269354,30.354171211178574],[-87.98653540070354,30.354171211178574],[-88.15849173821728,30.469780344692495],[-89.1037309447986,30.469780344692495],[-89.36054559926033,30.00733437566114],[-89.3241610358859,29.89173201864098],[-89.55751864303572,29.776113045792595],[-89.48592442439306,29.54486912976002],[-89.01179977230987,29.31361766939587],[-88.97710216773214,29.197989266171234],[-89.31172666774309,28.96672742588483],[-89.38058752816613,29.197989266171234],[-89.54996884836744,29.31361766939587],[-89.95359565541062,29.31361766939587],[-90.05306312888946,29.197989266171234],[-90.86003384975744,29.197989266171234],[-91.16447607654018,29.31361766939587],[-91.23621421420543,29.54486912976002],[-91.40718733186246,29.66049206202908],[-92.61936075375186,29.66049206202908],[-93.23288458371312,29.89173201864098],[-93.63723529555732,29.89173201864098],[-94.10090604717226,29.66049206202908],[-94.37027791870324,29.66049206202908],[-95.22541151762718,28.96672742588483],[-95.59243042821647,28.85109411374961],[-95.78945100012716,28.619823017875806],[-96.19224568758345,28.619823017875806],[-96.2556135070394,28.388546376465467],[-96.48886028287897,28.272906132437697],[-96.75712259004514,28.272906132437697],[-97.05528220540528,27.92597845724656],[-96.98723909665195,27.694688179805695],[-97.35700011843,27.11644807224127],[-97.2702218479108,26.306889589864124],[-96.97307102266669,26.191237335817576],[-97.07643215160248,26.075585008932542],[-97.01720977918202,25.844280386963224],[-97.16843451435894,25.381673022425186],[-97.35875677023489,25.612976224587108],[-97.62518345826756,25.612976224587108],[-97.72955884591363,25.49732447219125],[-97.6170349862417,25.034721114638536],[-97.7747737045308,24.572129611668572],[-97.7221847574514,24.340835693498523],[-97.82907121476781,24.22518945693827],[-97.75262835740362,23.878253436118094],[-98.20867208030991,23.531321096451688],[-98.18415174721542,23.415677723016568],[-98.48541511950343,22.95310748112378],[-98.43822944408659,22.721824076581616],[-98.54727123825131,22.60618274473842],[-98.34320066299298,21.5654188537504],[-98.18900335991529,21.449779013633584],[-98.1016697555045,20.987220055418398],[-97.94805166128097,20.871580332624536],[-97.9050189444535,20.640300789824572],[-97.03397410454363,19.48391300205234],[-96.57643180456682,19.136988154251295],[-96.23076624084068,18.674420036571878],[-94.73658605245562,17.633636261758287],[-94.17283025026227,17.402350189387654],[-93.38554666831587,17.402350189387654],[-93.14222819639971,17.51799325395527],[-92.99190487734266,17.402350189387654],[-92.72947701669386,17.402350189387654],[-92.57935019139,17.286707072546445],[-92.54183586752866,17.05542070000746],[-92.3736653759647,16.82413417226686],[-91.3313725425266,16.014630621685406],[-91.0522742844039,15.898987227866465],[-90.79045231744882,15.898987227866465],[-90.36390529504622,15.667700463052446],[-90.10217151004281,15.667700463052446],[-89.26788127637559,15.320770440258173],[-88.97440882459478,15.089483893742997],[-88.32060828891771,15.089483893742997],[-88.04354114664767,14.97384707989302],[-87.31502651450367,14.39563300738012],[-87.30053631988054,14.279990301912395],[-86.85248756709004,13.817419803429063],[-86.7727007545367,13.123564893663676],[-88.33793524191655,13.123564893663676],[-88.48152856410874,13.239207317808395],[-89.00334310756666,13.239207317808395],[-89.42171171581882,13.470492235471747],[-89.81317896467407,13.470492235471747],[-90.10195226884221,13.701777253645869],[-90.65261551405999,13.933062381945465],[-91.43598976440032,13.933062381945465],[-91.71178196913404,14.048704990396924],[-92.00283780165076,14.279990301912395],[-92.0333826987353,14.511275747590307],[-92.4725971974161,14.858204188694309],[-92.65213299873217,15.205127150471744],[-93.07797633457896,15.436413758611183],[-93.09496569689273,15.55205710103965],[-93.83694802570784,16.130274017124094],[-94.09885964425564,16.130274017124094],[-94.24786492264519,16.245917409691394],[-94.90275735705183,16.245917409691394],[-95.25937174327723,16.014630621685406],[-95.89598067307261,15.898987227866465],[-96.00896051631732,15.783343840158434],[-96.6634047361656,15.783343840158434],[-97.22337134365257,16.014630621685406],[-97.61617126372762,16.014630621685406],[-97.91526255532224,16.245917409691394],[-98.3270916268438,16.361560794896146],[-98.9088667038411,16.70849086142369],[-99.30207928544425,16.70849086142369],[-100.29931543859664,17.171063907922697],[-100.56164681032139,17.171063907922697],[-100.84430396489094,17.286707072546445],[-101.75647835961901,17.980564899669815],[-102.0403749431552,18.096207635504655],[-102.56582121645685,18.096207635504655],[-103.1343674610235,18.327492865025427],[-103.92325382551796,19.021346293058695],[-104.77982137825165,19.368271513238604],[-105.31066883054015,20.062100583584492],[-105.40191976211695,20.524660936297128],[-105.18392325301465,20.755940583013473],[-105.2299840468852,20.987220055418398],[-105.01223367521257,21.218499487596855],[-105.10587688148856,21.681058767613855],[-105.26175188810902,21.79669877198481],[-105.40677120352527,22.49054163749647],[-105.77150832220691,22.95310748112378],[-106.08767339525116,23.18439198523072],[-106.11357774835092,23.300034691531376],[-106.43125651173612,23.531321096451688],[-106.64446775095425,23.878253436118094],[-107.60974290976424,24.572129611668572],[-108.02442424306335,25.150371281077675],[-108.35239559855762,25.381673022425186],[-108.48553799241712,25.381673022425186],[-108.68189101162338,25.612976224587108],[-109.11371267230582,25.72862821703684],[-109.21214262191555,26.075585008932542],[-109.04646452525834,26.422541708493547],[-109.11540426446348,26.65384528919042],[-109.28393857162014,26.769496626105607],[-109.55111700090549,26.769496626105607],[-109.65821818327007,27.11644807224127],[-109.82830753281614,27.232097490852958],[-110.09580653083249,27.232097490852958],[-110.26638032835989,27.347746273473184],[-110.41690828844813,27.810333792900927],[-110.7622058817256,28.041622110305013],[-110.89624969326995,28.041622110305013],[-111.32355197915999,28.504185359113787],[-111.45777192949836,28.504185359113787],[-111.53944652144386,28.73545929025181],[-111.7151365323636,28.85109411374961],[-112.1182041849673,28.85109411374961],[-112.29445642524713,28.96672742588483],[-112.06162300188386,29.429244311405522],[-112.1488214397479,29.66049206202908],[-112.32766047009434,29.776113045792595],[-112.88373819924469,31.16341844954783],[-113.25196765602011,31.394630387138555],[-113.38742189178087,31.394630387138555],[-113.62193340414784,31.625845051766714],[-114.43531057139755,31.625845051766714],[-114.60651001362773,31.394630387138555],[-114.26721556975801,30.585388294475027],[-114.3551211777567,30.469780344692495],[-114.21562270385222,30.12294845995211],[-113.6303667331683,29.66049206202908],[-113.22630892587183,29.66049206202908],[-113.0475177487902,29.54486912976002],[-112.87448058528791,29.082359164181277],[-112.96646606727941,28.96672742588483],[-112.882548590345,28.73545929025181],[-112.53153153220546,28.504185359113787],[-112.49083325353342,28.388546376465467],[-112.58459871284921,28.272906132437697],[-112.46536092062863,27.92597845724656],[-112.11969231233115,27.694688179805695],[-111.66385156340702,27.11644807224127],[-111.323671932587,26.885147577299804],[-111.14742290699351,26.306889589864124],[-110.84634488244129,26.191237335817576],[-110.91220919844368,25.959932671788053],[-110.84595415404299,25.72862821703684],[-110.45104669727,25.266021937863222],[-110.3580546232102,24.919074353119306],[-110.4606545046742,24.803425568379808],[-110.40074768422235,24.572129611668572],[-109.81063731242406,24.340835693498523],[-109.5449570364906,24.340835693498523],[-109.403720531579,23.76260893623577],[-109.05671846247043,23.415677723016568],[-109.26846283909995,23.18439198523072],[-109.50706095824206,23.06874958734968],[-109.77206805313456,23.06874958734968],[-109.85227212456226,23.415677723016568],[-110.33250288858132,23.76260893623577],[-110.3604603333336,23.878253436118094],[-111.00619855412467,24.340835693498523],[-111.89286976098899,24.687777326820544],[-111.98520263849399,25.034721114638536],[-111.8835366638351,25.150371281077675],[-111.94724023276433,25.381673022425186],[-111.7786995672861,25.72862821703684],[-111.87933173627006,26.075585008932542],[-112.89084736697238,26.769496626105607],[-113.15802579625776,26.769496626105607],[-113.46173193893817,26.885147577299804],[-114.7035617038052,27.810333792900927],[-115.04016527984241,28.388546376465467],[-114.94749063829641,28.504185359113787],[-114.78352022805599,28.041622110305013],[-114.60937187231188,27.92597845724656],[-114.07336913439104,27.92597845724656],[-113.79177909509698,28.272906132437697],[-113.99918656378446,28.85109411374961],[-114.21896398694537,29.082359164181277],[-115.29182094462269,29.776113045792595],[-115.51813687451893,30.00733437566114],[-115.42956695346601,30.12294845995211],[-115.52313053921377,30.354171211178574],[-115.7054629014443,30.469780344692495],[-116.09650660699607,31.394630387138555],[-116.28240929137685,31.510237261975465],[-116.75128652385062,32.55076830052681],[-116.94108103054458,32.66639482343425],[-116.85905859544876,32.78202459507217],[-117.13407256797741,33.36023036489887],[-117.32650572570111,33.47588453841839],[-118.00891718891127,33.47588453841839],[-118.08902834674484,33.36023036489887],[-118.07051590048164,33.3218192845406],[-118.14539948155328,33.47588453841839],[-118.33862899439156,33.591543597935015],[-118.06554365954243,33.591543597935015],[-117.98588097758652,33.707207777701186],[-118.15839278718366,34.054233382603826],[-118.35336638816096,34.16992038803585],[-118.7639150147178,34.16992038803585],[-118.95950859443903,34.28561368662879],[-119.23333241188955,34.28561368662879],[-119.25269282350354,34.054233382603826],[-119.93663034620346,34.054233382603826],[-119.85871135220269,34.16992038803585],[-120.03718478227091,34.517020103212126],[-120.23439564450997,34.63273369149535],[-120.35566421907154,34.864182804834236],[-120.27946427086499,34.97991880104878],[-120.52666289415755,35.442968522513354],[-121.32102851379253,36.13779733872729],[-121.58241515869622,36.60123664140111],[-121.51037025169163,36.71712701910748],[-121.71117290008561,37.06487680335678],[-121.9174541693948,37.180820727558206],[-122.40309206873778,37.99284519511089],[-122.61329979328848,38.10891229614053],[-122.97546447098703,38.68950828102684],[-123.18887355836247,38.8056819507589],[-123.48901806752396,39.27056957212265],[-123.43884640967114,39.61944747639162],[-124.07366675903143,40.550730386567224],[-123.8383790274831,41.01694213477066],[-123.89102273174737,41.483552933018515],[-123.77784893748401,41.71701365898517],[-124.03606921450006,42.067405344649416],[-124.13637954117748,42.76893942978079],[-124.31508180945902,43.00301508600737],[-123.8969281933605,43.940535244496694],[-123.9890221882109,44.05786713983809],[-123.72660373085894,44.99771867689931],[-123.81581722130265,45.46849122536086],[-123.66574134206977,46.17574783145006],[-123.97762292720893,47.59469445354788],[-124.38797978806178,48.06911292986135],[-124.34461248003254,48.18783731517032],[-124.97999337497484,48.90123164001523],[-126.121426409141,49.49716023830378],[-126.27004422560894,49.49716023830378],[-126.60838799889336,49.85537435155161],[-127.25214391114699,50.214099759219586],[-127.55087013538966,50.214099759219586],[-128.14367998726595,50.81315551435302],[-128.1143841153614,50.933148130706805],[-127.36369386868535,50.933148130706805],[-127.55009580523968,51.413741800860464],[-127.92296552269417,51.774857045768805],[-127.89753104656148,51.89535942076257],[-128.53690368442594,52.49887679452529],[-128.81906270078406,52.619785432769795],[-129.3474138999011,53.10412348922207],[-130.05757441003158,53.46813247656796],[-130.33117021736717,53.711173972548636],[-130.1620032435209,53.832807216912144],[-130.43938428485407,54.07630180726245],[-130.41139063011977,54.32010471865013],[-130.83633572330018,54.6863982987269],[-131.1341934149496,54.80865585084095],[-131.44372675659548,54.80865585084095],[-131.62068499413365,54.56422102320814],[-130.91506421711648,53.95451628674637],[-131.2367287297367,53.832807216912144],[-131.3147838022111,53.22538686526836],[-131.0441478086347,52.982932258303265],[-130.94791904137037,52.619785432769795],[-130.42348400289123,52.13656353770927],[-130.44561595263076,52.01592805984238],[-130.74832789144423,52.01592805984238],[-131.44307876450407,52.3780373230681],[-131.97639191705036,52.861812570575985],[-132.26409995682866,52.982932258303265],[-132.53707679876263,53.22538686526836],[-132.5217584221397,53.34672299158665],[-133.07911527753527,53.832807216912144],[-133.20843323963368,54.07630180726245],[-133.17537893054387,54.442123377533875],[-132.55818776722504,54.442123377533875],[-132.54740474784603,54.56422102320814],[-135.4144932461162,56.89993315824271],[-135.73071577567683,57.023749400281076],[-136.0503993112695,57.27166215253688],[-135.89232172683555,57.27166215253688],[-135.90146491543027,57.64424283998722],[-136.8899383523317,58.39203912118442],[-137.21740615525604,58.51702220769015],[-137.72577189299625,58.89258754585219],[-139.55805598886238,59.52063089963626],[-140.0737724239596,59.77260247731492],[-140.8824328137369,59.77260247731492],[-141.56646276338353,60.02500721578689],[-143.6739934418201,60.02500721578689],[-143.7936102169352,59.77260247731492],[-144.11707437284613,59.77260247731492],[-144.85576336376397,60.2778662788353],[-145.20544020261977,60.404466075376384],[-145.69355063589498,60.404466075376384],[-145.66829969350283,60.2778662788353],[-146.3183287572939,60.2778662788353],[-146.86651969808892,59.77260247731492],[-147.51344800991077,59.77260247731492],[-147.8627224078129,59.8987531819414],[-148.83426908164552,59.8987531819414],[-148.9424284199235,59.646561993978445],[-149.42705039628657,59.646561993978445],[-149.53549186218132,59.39480836795627],[-150.01897380079888,59.39480836795627],[-149.9926787261099,59.26909357849642],[-150.79753894116467,59.26909357849642],[-150.7708525189441,59.1434857166322],[-151.5747743627891,59.1434857166322],[-151.14971260615772,58.64210745227895],[-151.4697983390718,58.64210745227895],[-151.4449253479161,58.51702220769015],[-151.0778187240145,58.267157416913946],[-151.05493473079517,58.142376324304024],[-151.85151399652656,58.142376324304024],[-151.4445629412451,57.64424283998722],[-151.40360758767133,57.39576010985203],[-151.87836320809748,57.39576010985203],[-151.8581577546653,57.27166215253688],[-152.1743129235332,57.27166215253688],[-152.29253116139265,57.023749400281076],[-152.76572588669882,57.023749400281076],[-152.88434642870888,56.77620938193144],[-153.35651331927664,56.77620938193144],[-153.16145420671825,56.5290363828675],[-154.39846321909613,56.40558574952049],[-155.10947407337483,56.89993315824271],[-155.44716266343377,57.023749400281076],[-155.92035738873992,57.023749400281076],[-155.89727330646514,56.89993315824271],[-156.21239299970128,56.89993315824271],[-156.18951466268317,56.77620938193144],[-155.47660456505025,56.28222476060569],[-155.14401995774023,56.15895272180521],[-154.79487551741295,55.912672738717404],[-154.7776457856793,55.78966342708466],[-155.24580136579286,55.78966342708466],[-155.59454099469917,56.035768943099626],[-155.9267554079927,56.15895272180521],[-156.39639667814416,56.15895272180521],[-156.75168341991292,56.40558574952049],[-157.08769714476819,56.5290363828675]],[[-151.6023991562195,59.26909357849642],[-151.98202009338465,59.52063089963626],[-152.33478225446493,59.646561993978445],[-152.81940423082796,59.646561993978445],[-152.78877100926272,59.52063089963626],[-152.4072593712743,59.26909357849642],[-152.0571274690961,59.1434857166322],[-151.5747743627891,59.1434857166322],[-151.6023991562195,59.26909357849642]],[[-154.7730139909799,56.77620938193144],[-154.14345813688956,56.77620938193144],[-154.16411499366637,56.89993315824271],[-154.70355427447655,57.27166215253688],[-155.04340067760518,57.39576010985203],[-155.6764081715067,57.39576010985203],[-155.6520197810803,57.27166215253688],[-155.10947407337483,56.89993315824271],[-154.7730139909799,56.77620938193144]],[[-76.50378334175728,38.34109757705207],[-76.59611877229167,38.22499631061094],[-76.50300914010404,37.99284519511089],[-76.31785682297506,37.87679466947955],[-76.03982286738986,37.87679466947955],[-75.94664449854484,37.99284519511089],[-76.03915527402617,38.22499631061094],[-76.2251505079403,38.34109757705207],[-76.50378334175728,38.34109757705207]],[[-82.69246015067067,42.30113689155246],[-82.77420810342414,42.18425721654913],[-83.48466869300782,42.18425721654913],[-83.6475841434586,41.95058098666676],[-83.52753885426789,41.71701365898517],[-83.12565120382712,41.483552933018515],[-82.84255834599433,41.483552933018515],[-82.64253823251131,41.366861829557386],[-82.35962394319824,41.366861829557386],[-82.27637263032878,41.483552933018515],[-81.56864048574683,41.483552933018515],[-81.0346979038753,41.83378385407191],[-80.75106357463454,41.83378385407191],[-80.44206714373641,42.067405344649416],[-80.15806713024611,42.067405344649416],[-79.84876650563245,42.30113689155246],[-79.56439714112864,42.30113689155246],[-78.94506041462319,42.76893942978079],[-79.06355685908441,43.00301508600737],[-79.26604090545908,43.120097536835246],[-79.98026529811565,43.120097536835246],[-80.06280188953433,43.00301508600737],[-80.49104975972715,43.00301508600737],[-80.65577281058108,42.76893942978079],[-80.85868072190522,42.88596248165926],[-81.71460542704465,42.88596248165926],[-82.32626325327419,42.41804465951116],[-82.46854094780404,42.41804465951116],[-82.5903009700595,42.651945637074995],[-82.79416330552844,42.76893942978079],[-83.07928203818808,42.76893942978079],[-83.16016113754205,42.651945637074995],[-83.03765172592347,42.41804465951116],[-82.69246015067067,42.30113689155246]],[[-78.09894097796482,43.3543531575862],[-77.89662339553782,43.23721012887446],[-77.03897813073536,43.23721012887446],[-76.95464272694119,43.3543531575862],[-76.66856816418529,43.3543531575862],[-76.44095469042499,43.47152691916959],[-76.18747109430477,43.82323557438469],[-76.16226450449174,44.05786713983809],[-76.34123040058488,44.41005918926863],[-76.54533018827391,44.52752300157945],[-76.8333749049098,44.52752300157945],[-76.85665136492365,44.29262881022017],[-77.3112556800766,44.05786713983809],[-77.51521202457333,44.17523156121229],[-78.95244181140743,44.17523156121229],[-79.03474244345387,44.05786713983809],[-79.46561413429818,44.05786713983809],[-79.91656881978456,43.82323557438469],[-80.08043569687986,43.58873171056996],[-79.9584256358782,43.3543531575862],[-79.75485480260977,43.23721012887446],[-78.89720953780731,43.23721012887446],[-78.81412738485457,43.3543531575862],[-78.09894097796482,43.3543531575862]],[[-64.88183776524666,46.76622399164886],[-64.97266326817977,46.64804564720416],[-64.86304434820859,46.411814662222696],[-64.66301501107029,46.2937609855202],[-64.37188342463796,46.2937609855202],[-64.28035726520491,46.411814662222696],[-64.38912298010976,46.64804564720416],[-64.58985292884095,46.76622399164886],[-64.88183776524666,46.76622399164886]],[[-86.11858758379218,48.54430660677475],[-86.27061072872281,48.782205069752266],[-86.86883425204127,49.02031051168336],[-87.60951687641445,49.02031051168336],[-87.83632660320987,49.13944224429294],[-88.42934957073162,49.13944224429294],[-88.41954184209355,48.90123164001523],[-88.86359590929455,48.90123164001523],[-88.93281470696998,48.782205069752266],[-89.22861514899743,48.782205069752266],[-89.44560797240946,48.66323024365987],[-89.65418090434959,48.306610691949544],[-90.08865597149867,48.06911292986135],[-90.5302781665617,48.06911292986135],[-90.81693702660615,47.83180895954172],[-91.11089997979589,47.83180895954172],[-91.25061187457098,47.59469445354788],[-92.33370001126403,47.002708988105354],[-92.18241996917979,46.76622399164886],[-91.96140159141811,46.64804564720416],[-91.52374637536559,46.64804564720416],[-91.08908646585562,46.88444493110808],[-90.79432101527809,46.64804564720416],[-90.06489565519055,46.64804564720416],[-89.99253369613702,46.76622399164886],[-89.70054885973131,46.76622399164886],[-89.62808403373248,46.88444493110808],[-89.18978330409553,46.88444493110808],[-88.7519284650923,47.1210166869869],[-88.45928208803394,46.88444493110808],[-88.02098135839701,46.88444493110808],[-87.36757835427977,46.529909377047325],[-87.0051535023481,46.411814662222696],[-86.56813819009535,46.411814662222696],[-86.12599871071792,46.64804564720416],[-85.68834349466542,46.64804564720416],[-85.6127611500515,46.76622399164886],[-85.3207763136458,46.76622399164886],[-85.25068827861291,46.64804564720416],[-84.82007694108434,46.411814662222696],[-84.52873339958249,46.411814662222696],[-84.3914739512383,46.17574783145006],[-84.60552868168416,46.2937609855202],[-84.89666026811648,46.2937609855202],[-84.97331494962098,46.17574783145006],[-85.1877918545488,46.2937609855202],[-85.9156208206296,46.2937609855202],[-85.99153669679069,46.17574783145006],[-86.4279174455777,46.17574783145006],[-86.50358638154854,46.05777468621771],[-87.37571715487071,46.05777468621771],[-87.97789939541666,45.11536872707827],[-88.19773630903825,44.99771867689931],[-88.05996771498424,44.76255214300283],[-87.70317219533763,44.64502055119816],[-88.01563302744367,43.940535244496694],[-87.94847161312566,43.82323557438469],[-88.17794963856744,43.47152691916959],[-88.18836657316709,43.23721012887446],[-87.9913865980669,42.88596248165926],[-88.08175365117303,42.53498081095006],[-87.70010464103298,41.83378385407191],[-87.2921607901966,41.60027011416864],[-87.00888839613644,41.60027011416864],[-86.56556732406996,41.83378385407191],[-86.16776100558026,42.41804465951116],[-86.13688307026484,42.88596248165926],[-86.26543995349363,43.120097536835246],[-86.18719428862808,43.23721012887446],[-86.44827894295838,43.7059678294873],[-86.42603670294477,44.17523156121229],[-86.19482819557598,44.52752300157945],[-86.26194376165965,44.64502055119816],[-85.88691566371656,44.99771867689931],[-85.67522003703144,44.88011808271313],[-85.38657040619061,44.88011808271313],[-85.22193688655828,45.350747435292725],[-84.932471525585,45.350747435292725],[-84.85507041782978,45.46849122536086],[-84.99044516598012,45.70409019050897],[-84.5553185794511,45.70409019050897],[-83.77461008169185,45.350747435292725],[-83.70822382400706,45.23304010290239],[-83.78658461215299,45.11536872707827],[-83.58903411828885,44.76255214300283],[-84.2839783301883,43.940535244496694],[-84.15501706347338,43.7059678294873],[-83.94768030994784,43.58873171056996],[-83.66121774601689,43.58873171056996],[-83.05621155800081,44.05786713983809],[-82.801830054224,43.58873171056996],[-82.88198850343,43.47152691916959],[-82.7566132294183,43.23721012887446],[-82.55147311167939,43.120097536835246],[-81.98009359755412,43.120097536835246],[-81.65597979850016,43.58873171056996],[-81.63769084692909,43.82323557438469],[-81.76359648546787,44.05786713983809],[-81.2814554877364,44.76255214300283],[-81.34547557441917,44.88011808271313],[-81.07352140041891,44.64502055119816],[-80.78527571368332,44.64502055119816],[-80.57795622117627,44.52752300157945],[-80.00186678790452,44.52752300157945],[-79.90222742021507,44.88011808271313],[-80.22033473860624,45.46849122536086],[-80.42953849709993,45.58627197572007],[-80.55897265301206,45.82194637541511],[-81.04588821053784,46.17574783145006],[-81.62772920892053,46.17574783145006],[-82.19798506756781,46.411814662222696],[-83.50903100432609,46.411814662222696],[-83.72312352200449,46.529909377047325],[-84.01467990858652,46.529909377047325],[-84.29882938622583,46.76622399164886],[-84.44482180442868,46.76622399164886],[-84.65504194724376,47.1210166869869],[-84.57934296355143,47.23936855394786],[-85.08360442745081,48.06911292986135],[-85.30447630140144,48.18783731517032],[-85.89376137579588,48.18783731517032],[-86.11572261993327,48.306610691949544],[-86.11858758379218,48.54430660677475]],[[-116.16175396939069,61.67694050285533],[-116.1752818148626,61.42147957745742],[-116.49735824519409,61.5491481324695],[-116.82638604237519,61.5491481324695],[-117.0031294057827,61.293933803560535],[-116.68946880480794,61.03920650300066],[-115.72571859456859,60.78495811885546],[-114.58263272047637,60.78495811885546],[-114.57182656433905,60.91202294840877],[-113.59083781674227,60.91202294840877],[-113.39282921865279,61.293933803560535],[-113.06462011073188,61.293933803560535],[-113.05341619974742,61.42147957745742],[-112.23187261682239,61.42147957745742],[-112.2199968818398,61.5491481324695],[-111.8909690846587,61.5491481324695],[-111.36079854752343,61.9329008685021],[-111.34928531402723,62.06107097434894],[-111.65884492498274,62.31779637342982],[-111.98077046705151,62.446353829660744],[-112.47870811365993,62.446353829660744],[-112.48767857630787,62.31779637342982],[-113.15074549736799,62.31779637342982],[-113.15923087089118,62.18936911697851],[-113.49034148429772,62.18936911697851],[-114.29822016782616,62.5750425806736],[-114.63060570545204,62.5750425806736],[-115.45319090424003,62.832818393045464],[-115.7864371140261,62.832818393045464],[-115.79000277424959,62.70386373064298],[-114.98687396363161,62.06107097434894],[-115.15891780386592,61.9329008685021],[-115.81946028322982,61.9329008685021],[-116.16175396939069,61.67694050285533]],[[-111.3381224971552,62.18936911697851],[-111.00701188374866,62.18936911697851],[-110.99577800392261,62.31779637342982],[-110.16694435259748,62.31779637342982],[-110.15499909615404,62.446353829660744],[-109.82304066508178,62.446353829660744],[-109.6329291053622,62.70386373064298],[-110.10050752014338,63.09113275636162],[-110.42521973078543,63.220494731939034],[-110.75977329123504,63.220494731939034],[-110.76873868087736,63.09113275636162],[-111.43696984161137,63.09113275636162],[-111.96263265575199,62.70386373064298],[-111.97152140444517,62.5750425806736],[-111.65884492498274,62.31779637342982],[-111.3381224971552,62.18936911697851]],[[-109.31243710343827,62.5750425806736],[-108.81385879699948,62.5750425806736],[-108.80089212308009,62.70386373064298],[-109.10966373441933,62.96190769079191],[-109.43227635940936,63.09113275636162],[-109.93344972995986,63.09113275636162],[-109.94386323749667,62.96190769079191],[-109.6329291053622,62.70386373064298],[-109.31243710343827,62.5750425806736]],[[-125.37536685848306,66.50275494842604],[-125.3531172775351,66.36953330196997],[-124.9656581630314,66.10361330995991],[-124.60140472715514,65.97091087341029],[-124.2571185996879,65.97091087341029],[-124.27610439596556,66.10361330995991],[-124.66158394103192,66.36953330196997],[-125.02910107541311,66.50275494842604],[-125.37536685848306,66.50275494842604]],[[-121.1180275808517,65.57380971360641],[-120.7751976789302,65.57380971360641],[-120.23888073885814,65.3098944135091],[-119.5551366423633,65.3098944135091],[-119.40387807124407,65.57380971360641],[-119.58610563533537,65.70601105591977],[-119.42552375249082,65.83837745245786],[-118.89948027993613,65.70601105591977],[-117.69788590798744,65.70601105591977],[-117.72534360884019,66.10361330995991],[-117.39025880127623,66.23648677468496],[-117.41125384787419,66.50275494842604],[-117.78174901261941,66.76973193901578],[-118.142514490709,66.90349151141936],[-118.4902950401841,66.90349151141936],[-118.63626780270832,66.63615379332045],[-119.50318723144326,66.63615379332045],[-119.51811240469198,66.76973193901578],[-118.99720338707019,66.76973193901578],[-119.01196586439679,66.90349151141936],[-119.39213137339141,67.17156356047147],[-119.75859459146915,67.30588041084661],[-120.63190063043557,67.30588041084661],[-120.61295016999306,67.17156356047147],[-121.65936628136586,67.17156356047147],[-121.63952148735872,67.0374346604427],[-122.16195863399253,67.0374346604427],[-122.14199080967286,66.90349151141936],[-122.8375519086231,66.90349151141936],[-122.81720284962984,66.76973193901578],[-123.85902088487336,66.76973193901578],[-123.83778437511805,66.63615379332045],[-124.35793603235902,66.63615379332045],[-124.33656950927322,66.50275494842604],[-123.95039607607542,66.23648677468496],[-123.58655062889974,66.10361330995991],[-123.06938530360037,66.10361330995991],[-123.08722011886499,66.23648677468496],[-122.9145849274229,66.23648677468496],[-122.69160544262219,65.83837745245786],[-123.20730255159027,65.83837745245786],[-123.17500699238087,65.57380971360641],[-123.34642194334164,65.57380971360641],[-123.33082047369854,65.44177147592788],[-122.9597398038451,65.17817661681285],[-122.25202114522803,64.91519747291542],[-121.74134032986227,64.91519747291542],[-121.58241086257114,65.04661619577092],[-121.23065951449645,64.91519747291542],[-120.89020563758594,64.91519747291542],[-120.90056246533929,65.04661619577092],[-121.44789709483456,65.44177147592788],[-121.10554738958655,65.44177147592788],[-121.1180275808517,65.57380971360641]],[[-99.45556078021167,53.832807216912144],[-99.34810906107809,53.711173972548636],[-99.44108409251739,53.46813247656796],[-99.1247100584391,53.10412348922207],[-99.17289793706745,52.982932258303265],[-98.96572859773079,52.74076382727526],[-98.71095159820608,52.619785432769795],[-98.20679446899712,52.01592805984238],[-97.95649143653523,51.89535942076257],[-97.65405669299962,51.89535942076257],[-97.60137059137018,52.01592805984238],[-97.40488828166247,51.774857045768805],[-97.15657550283488,51.654420363011255],[-97.00563287690227,51.654420363011255],[-97.2651942274234,51.413741800860464],[-97.16943610050758,51.29349879172332],[-97.24227305213495,50.81315551435302],[-97.05641946292678,50.57335338238063],[-96.81475993085623,50.45354277398233],[-96.51552369137082,50.45354277398233],[-96.30768514228912,50.57335338238063],[-96.34223207344182,50.81315551435302],[-96.11567958903488,51.29349879172332],[-96.30589063470782,51.53404880345773],[-96.55280499910441,51.654420363011255],[-96.70374762503704,51.654420363011255],[-96.6932347749298,52.01592805984238],[-96.98977921801081,52.3780373230681],[-97.08848785955635,52.861812570575985],[-97.4998412794502,53.34672299158665],[-97.45101222187895,53.46813247656796],[-97.76670644472965,53.832807216912144],[-98.28764919880173,54.07630180726245],[-99.21066551706161,54.07630180726245],[-99.45556078021167,53.832807216912144]]],[[[-79.97847794704693,53.22538686526836],[-80.13126457161584,53.22538686526836],[-80.30577764407099,53.46813247656796],[-79.97847794704693,53.22538686526836]]],[[[-82.44383770779844,54.6863982987269],[-82.38269210572577,54.80865585084095],[-82.443535288939,54.6863982987269],[-82.44383770779844,54.6863982987269]]],[[[-79.24854552735829,55.78966342708466],[-79.1554923647332,55.666257365702975],[-79.24949585959914,55.79013072756468],[-79.24854552735829,55.78966342708466]]],[[[-79.96735351971994,55.912672738717404],[-80.37518547775284,56.035768943099626],[-80.29038527651117,56.5290363828675],[-80.07322567592092,56.65257735931455],[-80.26854692979214,56.89993315824271],[-80.20920133975335,57.023749400281076],[-80.0514697646513,57.023749400281076],[-79.85586735422918,56.77620938193144],[-79.60156891048311,56.65257735931455],[-79.03398753633519,56.5290363828675],[-79.00026747299601,56.28222476060569],[-79.31369508402904,56.28222476060569],[-79.34248903539681,55.912672738717404],[-79.24949585959914,55.79013072756468],[-79.4987051564776,55.912672738717404],[-79.96735351971994,55.912672738717404]]]]}}
