{"type":"Feature","properties":{"id":"wuestenbussard","sourceUrl":"https://commons.wikimedia.org/wiki/File:Parabuteo_unicinctus_range_map.png","license":"Public domain","author":"Izvora","sourceImageSha256":"ec2177737eb4bd50b58981fd13ad08c09ba4a3ca1292a5e705b521e82695d836","registration":{"proj_string":"+proj=robin +R=1 +lon_0=10","parameters_1000px":[675.3382387828002,-645.8377943601475,1422.251690312184,856.8248381525851],"coast_rmse_capped15_px":2.8955819606781006,"coast_median_px":0.9395706653594971,"coast_p90_px":3.6925084590911865,"sample_count":1512,"image_width":417,"image_height":612,"pixel_transform_native":[281.61604557242765,-269.3143602481815,593.0789548601807,357.29595750962795],"transform_definition":"pixel_x=sx*projected_x+tx; pixel_y=sy*projected_y+ty","validation":"Odd coastline samples withheld from affine fit. Normalized to 1000px width.","controls":[[-81,25,224,240],[-117.1,32.5,92,201],[-75,0,229,352],[-81.3,-4.7,215,372],[-34.8,-7.1,402,381],[-67,-55.95,319,602],[-73.5,-53,297,585],[-150,60,90,69],[-124.7,48.4,99,137]],"review_bounds":[-126,-57,-30,38],"all_fits":[{"proj_string":"+proj=robin +R=1 +lon_0=20","parameters_1000px":[673.9556113048245,-647.6228600850902,1517.1574971708842,857.0351723023283],"coast_rmse_capped15_px":3.292834997177124,"coast_median_px":1.3362934589385986,"coast_p90_px":4.515992641448975,"sample_count":1512},{"proj_string":"+proj=robin +R=1 +lon_0=0","parameters_1000px":[675.8735619474888,-644.4026073599983,1326.132652112034,856.7622462964758],"coast_rmse_capped15_px":3.934418201446533,"coast_median_px":1.4361498355865479,"coast_p90_px":5.2696404457092285,"sample_count":1512},{"proj_string":"+proj=robin +R=1 +lon_0=-10","parameters_1000px":[674.61054877041,-645.129246160865,1227.4699487222272,857.268623069119],"coast_rmse_capped15_px":5.355129718780518,"coast_median_px":2.133617639541626,"coast_p90_px":9.464582443237305,"sample_count":1512}],"status":"reviewed","coastlineReference":"Natural Earth 1:110m (world-registration-110m.geojson)"},"includedColors":["#008000"],"adaptation":"Inverse global map projection; current seasonal/subspecies colors combined; explicitly reviewed legends/arrows omitted; 3px border closing; contours simplified by 0.45 source pixels; components below 4 source pixels omitted; split at the antimeridian.","licenseUrl":"https://commons.wikimedia.org/wiki/Commons:Public_domain","originalFileSha256":"ec2177737eb4bd50b58981fd13ad08c09ba4a3ca1292a5e705b521e82695d836","sourceImagePath":"data/ranges/reference-originals/wuestenbussard.png"},"geometry":{"type":"MultiPolygon","coordinates":[[[[-71.19600018486562,-33.591841484503],[-71.69617591476212,-35.142718786350805],[-71.51579198523024,-35.36437984604633],[-72.55208663707269,-38.24982945158109],[-72.38000894073895,-38.472165695095796],[-73.29804243580398,-40.699524111721196],[-73.65746233635355,-40.92271328971226],[-73.7911517500626,-40.03048043309288],[-73.1545508622847,-38.472165695095796],[-73.49756610602962,-38.02755672952499],[-72.92085611173007,-36.473227478222924],[-72.58636632163721,-36.25137790398086],[-71.49699702760155,-32.92750337504379],[-71.68227785395172,-32.70608722148529],[-71.48593583044708,-32.04190543627039],[-71.047340328139,-32.26328989169447],[-71.38009910374457,-33.370378864062424],[-71.19600018486562,-33.591841484503]]],[[[-72.26067332381376,11.580141333910023],[-72.10056589311982,9.365793400515246],[-71.8459101012548,9.144358884767497],[-71.36457534688928,9.144358884767497],[-70.91114929391014,9.587227882512558],[-70.95565050052785,10.251533421707325],[-71.21214470284917,10.472968100835196],[-71.24450241801432,10.915837401265021],[-70.77911045721518,11.137272039442315],[-70.10776246162594,11.801576007075772],[-69.6253003164692,11.801576007075772],[-68.62602837075002,11.358706680844762],[-68.60943676219514,11.137272039442315],[-68.09543700797911,10.694402757875205],[-67.61348385528721,10.694402757875205],[-67.35727836809215,10.472968100835196],[-65.65622819140833,10.251533421707325],[-65.40118987399903,10.030098712053906],[-64.67867701866189,10.030098712053906],[-64.45181403024482,10.251533421707325],[-63.97004836577939,10.251533421707325],[-62.94121714549257,9.144358884767497],[-62.91725586517637,8.701489760902376],[-63.134961594775866,8.25862052868058],[-64.29432425021295,7.372881810220742],[-67.17880369141548,7.372881810220742],[-67.40860099351758,7.151447090638264],[-68.12962234395438,7.151447090638264],[-68.5896009149963,6.70857761905536],[-68.82987807054911,6.70857761905536],[-69.29053973805975,6.265708119051462],[-69.27159008434563,5.82283860839011],[-69.73373652943836,5.379969104834844],[-69.72496706872434,5.1585343612731],[-70.18808983108798,4.715665382155085],[-70.62944003206849,3.6084913221000336],[-72.02708809814061,2.0584479295362574],[-72.72666863168354,0.7298394741127933],[-72.72364104686716,0.06553527215615917],[-73.203896909494,-0.3773341944176273],[-73.20923054365245,-1.041638401064118],[-73.45178989248139,-1.263073140198852],[-73.47838663217301,-2.591681643745443],[-73.72412071269126,-2.813116409937735],[-73.74401587787578,-3.4774207441412908],[-73.99123604688343,-3.6988555355650017],[-74.00677961719029,-4.141725141110746],[-74.25495782604845,-4.363159956120961],[-74.31897315967727,-5.913202806257192],[-74.56922713146373,-6.134637561896845],[-74.40672583032736,-7.684680689228265],[-73.72277643763502,-8.348984677667792],[-73.2956644628051,-9.234722988796428],[-72.16646539254229,-10.341897591683734],[-71.92556379418298,-10.341897591683734],[-70.78602054717871,-11.227636189947278],[-69.8560439372688,-11.670505495338977],[-69.37364514528882,-11.670505495338977],[-69.16812560098965,-12.113374894905801],[-67.49702384706546,-12.334809651099103],[-67.27406202500032,-12.556244456149276],[-66.54979639442719,-12.556244456149276],[-66.3269510667921,-12.777679318494059],[-65.60250912062817,-12.777679318494059],[-65.37977424457023,-12.999114246571194],[-64.65515209619427,-12.999114246571194],[-64.43252142412136,-13.220549248818465],[-60.566887877920756,-13.220549248818465],[-60.343539710390104,-13.441984333673679],[-59.376880478785004,-13.441984333673679],[-59.15354181320135,-13.663419509574672],[-58.18662634265234,-13.663419509574672],[-57.740205175732584,-14.106290168265513],[-57.49834407192509,-14.106290168265513],[-57.517380683822644,-14.327725667931233],[-56.850461186513755,-14.992032949465653],[-56.64941611146659,-15.434899898133299],[-56.69201638598726,-15.877773560859515],[-56.2730859869354,-16.54208416682011],[-56.318566258044925,-16.98495761084076],[-55.8790548215141,-17.427830525940145],[-54.9533837647423,-17.87070265987111],[-52.52139192926631,-17.87070265987111],[-52.255831586841346,-17.64926670631697],[-51.76960786243703,-17.64926670631697],[-51.23997821621114,-17.206394150271144],[-50.36894927425476,-15.656336701017326],[-49.58618478916541,-14.992032949465653],[-49.550848333123135,-14.549161292394452],[-49.0332054386628,-14.106290168265513],[-49.000929372436566,-13.663419509574672],[-48.4867830460438,-13.220549248818465],[-48.4573830614147,-12.777679318494059],[-47.94650882079772,-12.334809651099103],[-47.594502359892125,-10.341897591683734],[-47.34272993088689,-10.1204628955064],[-47.29217009240568,-9.013288454117415],[-47.04217668994245,-8.79185388922269],[-46.99068016625153,-7.46324598966824],[-46.74246267020205,-7.241811275435518],[-46.71299910200483,-6.3560723161864505],[-46.465872932657255,-6.134637561896845],[-46.41627660485704,-4.363159956120961],[-45.91562431607413,-3.4774207441412908],[-45.88058599280769,-1.263073140198852],[-45.64083639368009,-1.263073140198852],[-44.92903934243696,-1.9273773745780038],[-45.175280465659675,-2.3702468827507834],[-45.182811573041505,-2.813116409937735],[-44.94709053945529,-3.034551181771747],[-44.46736868483977,-3.034551181771747],[-43.73996149082123,-2.591681643745443],[-40.62222337116337,-2.591681643745443],[-40.389732920607855,-3.034551181771747],[-39.910011065992336,-3.034551181771747],[-39.43420756026208,-3.2559859596915692],[-39.438326280137545,-3.4774207441412908],[-38.96279376950451,-3.6988555355650017],[-38.96723987712176,-3.92029033440679],[-38.49665177469052,-4.363159956120961],[-36.596232006124374,-5.248898553442351],[-36.116053905003696,-5.248898553442351],[-35.64613269912257,-5.691768051487928],[-35.40598968732676,-5.691768051487928],[-35.17649133142731,-6.134637561896845],[-34.965128801172526,-7.241811275435518],[-35.21172100138914,-7.46324598966824],[-35.2313897175554,-8.127550035448476],[-35.478805442803655,-8.348984677667792],[-35.493178244542655,-8.79185388922269],[-37.24490372865462,-10.563332260778813],[-38.291933499184026,-12.334809651099103],[-38.31519581511942,-12.777679318494059],[-38.81029547078476,-12.999114246571194],[-39.077036615077716,-13.441984333673679],[-39.13075266114954,-14.327725667931233],[-38.90289459751739,-14.549161292394452],[-39.042211833774736,-16.54208416682011],[-39.30170699528308,-16.76352093918001],[-39.388636017695895,-17.87070265987111],[-39.64980673669994,-18.092138355072365],[-39.722967853326146,-18.97787792175865],[-39.985254246746756,-19.19931185225713],[-40.04161019455225,-19.863610832498253],[-40.30460073487497,-20.08502493460592],[-40.342719222020165,-20.527885993140693],[-40.8897043924356,-21.19217576781136],[-40.92932206803684,-21.63503578169587],[-41.50120153579064,-22.52076043960129],[-41.74635318160908,-22.52076043960129],[-42.54750874789751,-23.185061691352193],[-44.51117710688094,-23.185061691352193],[-45.565545746203455,-23.849373123885098],[-46.81997698334567,-24.07081307976537],[-47.39183175460239,-24.735143030692605],[-47.63806518991632,-24.735143030692605],[-48.187209740028,-25.178036953000895],[-48.680156769334275,-25.178036953000895],[-48.95617358312788,-25.399488314802035],[-49.01696484704467,-25.842394510167974],[-48.65063378258195,-26.72820848632758],[-48.7177492811573,-27.1711092376304],[-48.99998739437378,-27.39255651652595],[-49.495621184676864,-27.39255651652595],[-50.80984588418732,-26.28530240561563],[-51.30407624954903,-26.28530240561563],[-51.94696096280902,-25.620940980300702],[-52.870206518437605,-25.178036953000895],[-53.363153547743885,-25.178036953000895],[-53.57834504552675,-24.956590101245723],[-54.810106563624416,-24.956590101245723],[-55.9637140342493,-26.063848465057784],[-56.14790047055156,-27.1711092376304],[-55.81038910713113,-28.056880695708248],[-55.93560777185226,-28.721169168187366],[-55.48085874178095,-28.942588675936932],[-55.52424510332199,-29.164002460943244],[-54.547917388914115,-30.492326607475523],[-54.59502576835632,-30.713694434370986],[-53.987618441552854,-31.37778924660641],[-54.13667729952331,-32.04190543627039],[-53.73542088654507,-32.48468327369783],[-53.99983105264947,-33.591841484503],[-54.3629724698436,-34.03482469903997],[-55.54856765178593,-34.699469164357794],[-56.05654062995687,-34.699469164357794],[-57.402797905457284,-34.03482469903997],[-58.16275426436073,-34.03482469903997],[-58.475583796149316,-34.25634858610532],[-58.596405520811636,-34.699469164357794],[-57.70183088748185,-35.142718786350805],[-57.633210781964124,-35.807803475089585],[-57.24899474495035,-36.25137790398086],[-57.377719016993936,-36.69512173280134],[-57.25261921166053,-37.13905363242086],[-57.64366955453012,-37.58319235248999],[-57.69947884030917,-36.91706300384875],[-58.46254592652912,-36.02957067861519],[-58.90892900745733,-35.807803475089585],[-60.18464723295053,-35.807803475089585],[-60.37464098853245,-35.58607397054362],[-61.13936397537699,-35.58607397054362],[-61.782512230892976,-36.02957067861519],[-62.548658301130786,-36.02957067861519],[-63.70967230835665,-36.473227478222924],[-64.47727095863777,-36.473227478222924],[-64.66205767368234,-36.25137790398086],[-66.19579483135102,-36.25137790398086],[-66.63477067573245,-36.02957067861519],[-66.5632383604165,-35.807803475089585],[-67.67111743514346,-34.4778961909969],[-67.90849726253018,-33.591841484503],[-67.71323167543532,-32.92750337504379],[-68.27932108889206,-32.26328989169447],[-68.03545172788226,-31.37778924660641],[-68.22703002845692,-31.156424116843162],[-67.38450891084148,-27.61400114527357],[-66.41998592898037,-26.506755892487302],[-66.1423125301229,-24.956590101245723],[-65.85933940314703,-24.735143030692605],[-65.71945504752073,-23.849373123885098],[-65.44030928544271,-23.62793465233416],[-65.3118995823108,-22.742193255152205],[-65.0357595343607,-22.52076043960129],[-64.88650554078413,-21.4136056798944],[-64.61291719587945,-21.19217576781136],[-64.3035947675654,-18.756443575262765],[-64.5196225457394,-18.535008844297373],[-64.43815192309872,-17.87070265987111],[-65.25255561604729,-16.54208416682011],[-66.41488742856731,-16.099210446128385],[-67.06796991995324,-15.434899898133299],[-67.52841576330044,-15.213463183738833],[-68.25506537196186,-15.213463183738833],[-68.47330342227112,-14.992032949465653],[-68.95758851542767,-14.992032949465653],[-69.37191717212504,-14.327725667931233],[-69.85577580430065,-14.327725667931233],[-70.6539683010083,-12.556244456149276],[-71.99149793355902,-11.227636189947278],[-72.19875137069398,-10.784766911229315],[-72.43974762742403,-10.784766911229315],[-73.11431526991134,-10.1204628955064],[-73.35517120765924,-10.1204628955064],[-73.33974674791223,-9.89902638933498],[-74.92541703495675,-8.348984677667792],[-75.1403288666993,-7.906115371895157],[-75.32185773472753,-6.798941811833739],[-75.55117771516818,-6.577507066905562],[-75.45490098213429,-4.363159956120961],[-75.68653628109826,-4.141725141110746],[-75.6129290359172,-1.484507881866685],[-76.08612858815093,-1.041638401064118],[-76.0818987561322,-0.5987689286175942],[-76.32033668400918,-0.3773341944176273],[-76.33446287778558,1.6155784326191367],[-75.86879512936987,2.2798826839651154],[-75.88018677008752,2.722752206983872],[-76.1263292014548,2.9441869764619475],[-76.8458895769855,2.9441869764619475],[-76.61275334409777,3.1656217518446064],[-76.62724492776722,3.6084913221000336],[-76.40307414780033,4.051360921302869],[-75.93996103705771,4.49423055300583],[-75.9764601932678,5.379969104834844],[-75.74600965571815,5.601403854613995],[-75.85658039890092,7.815751205865548],[-76.35016257922182,8.037185877487005],[-76.3765239508677,8.48005515722585],[-76.6307899712725,8.701489760902376],[-76.39020165362169,8.701489760902376],[-75.71119173458116,9.365793400515246],[-75.08375772201158,10.694402757875205],[-74.84278114566564,10.694402757875205],[-74.39523328224855,11.137272039442315],[-73.67200871724188,11.137272039442315],[-73.46656234381408,11.580141333910023],[-72.57726487122356,12.465880231552815],[-71.853070087844,12.465880231552815],[-71.59240900895998,12.24444544745947],[-71.79637996967455,11.801576007075772],[-72.26067332381376,11.580141333910023]]],[[[-78.24135765703484,-0.820203664018395],[-78.25027914176098,-1.484507881866685],[-78.4940461185471,-1.7059426265117064],[-78.50889843774833,-2.3702468827507834],[-78.7545588346709,-2.591681643745443],[-78.8060843712131,-4.141725141110746],[-78.57475318795747,-4.363159956120961],[-77.6147986630888,-4.363159956120961],[-77.63266296041587,-4.8060296128365225],[-77.88201398460302,-5.0274638146069215],[-77.93202165097904,-6.134637561896845],[-78.4456253795552,-6.798941811833739],[-78.48136691312857,-7.46324598966824],[-78.25346057357932,-7.684680689228265],[-78.30659009835168,-8.570419296332675],[-77.67435138189951,-9.89902638933498],[-76.79533546847324,-11.006201551472916],[-76.81340747908021,-11.227636189947278],[-75.92475379670071,-12.113374894905801],[-75.56842260817058,-13.441984333673679],[-74.67048244225715,-14.106290168265513],[-73.94489913083467,-14.106290168265513],[-73.72664486170552,-14.327725667931233],[-73.24278622952991,-14.327725667931233],[-72.32291916346759,-14.770597050093226],[-71.02288437265727,-16.099210446128385],[-71.04979000471526,-16.320647325292416],[-70.6191825395624,-16.76352093918001],[-70.2749323282411,-17.87070265987111],[-69.84654029498127,-18.31357376039092],[-69.75098165401303,-19.420745335230887],[-69.53702909429252,-19.642178339153258],[-69.59702456476406,-20.08502493460592],[-69.19891498304035,-20.749316042107587],[-69.5143357783244,-22.96362696650466],[-70.10805304885383,-23.62793465233416],[-70.3537237732439,-23.62793465233416],[-70.2169507680296,-22.742193255152205],[-69.93879245072945,-22.52076043960129],[-69.81095504272453,-21.63503578169587],[-70.02444982406504,-21.4136056798944],[-69.87132768688362,-20.306455663198655],[-70.08523162859554,-20.08502493460592],[-69.99480957528087,-19.420745335230887],[-70.17868527859454,-18.97787792175865],[-71.64691053237779,-17.206394150271144],[-71.88985020280835,-17.206394150271144],[-72.53320666667855,-16.54208416682011],[-72.77589503503292,-16.54208416682011],[-73.20561976722622,-16.099210446128385],[-75.49543727304119,-14.992032949465653],[-75.46982941425061,-14.770597050093226],[-75.90400870649574,-14.327725667931233],[-76.2934170318744,-13.441984333673679],[-76.24910647020974,-12.999114246571194],[-76.44809334559345,-12.556244456149276],[-77.98266153221469,-10.784766911229315],[-78.18900535152517,-10.341897591683734],[-78.15597411900922,-9.89902638933498],[-78.59071229061092,-9.234722988796428],[-78.56131828051276,-8.79185388922269],[-79.41853235607955,-7.020376548750537],[-80.3340177363471,-6.134637561896845],[-80.80358935154773,-5.913202806257192],[-81.02281329875862,-5.4703332998095],[-80.99318885519304,-4.8060296128365225],[-81.2146281313463,-4.363159956120961],[-80.21379755258482,-3.2559859596915692],[-79.96003699530381,-2.813116409937735],[-79.94775964517662,-2.3702468827507834],[-80.18206291136336,-2.1488121265096667],[-80.66165402778141,-2.1488121265096667],[-80.89174571515703,-1.7059426265117064],[-80.88402746543692,-1.263073140198852],[-79.91695392772871,0.50840473925567],[-79.20448686380024,1.1727089486622182],[-79.20781082105523,1.3941436892426964],[-78.48854565174803,1.3941436892426964],[-77.7632616838001,0.951274210433613],[-77.99973654842837,-0.5987689286175942],[-78.24135765703484,-0.820203664018395]]],[[[-85.14987458654754,10.030098712053906],[-85.63154982343897,10.030098712053906],[-85.42696431226562,10.472968100835196],[-85.48467661235091,11.137272039442315],[-85.7459557107924,11.358706680844762],[-85.28427473981698,11.580141333910023],[-85.30532003406333,11.801576007075772],[-85.06408896148497,11.801576007075772],[-84.98293542029926,10.915837401265021],[-85.20477392854137,10.694402757875205],[-85.14987458654754,10.030098712053906]]],[[[-114.54423681268038,33.2800083101108],[-113.48064480623269,32.615734214539735],[-112.47280193861589,32.615734214539735],[-112.32061966657672,32.83714518898045],[-112.62670363276744,33.501463740864466],[-112.47794304204443,33.72293727640519],[-112.68929912612978,34.16594524388752],[-111.99794124287737,34.83063415981324],[-111.48970008792648,34.83063415981324],[-110.76723808783979,34.38748297063537],[-110.55724050141852,33.94443056187656],[-110.20083209493295,33.72293727640519],[-109.79895554487032,32.83714518898045],[-109.44927333576548,32.615734214539735],[-108.97852475028189,31.50881960575464],[-107.62171310171314,30.623357948110133],[-106.37062845002202,30.623357948110133],[-105.45338668793391,30.180614441882263],[-104.95367387706648,30.180614441882263],[-104.8724790637236,29.959248025724907],[-103.88837059493584,29.29505773102968],[-103.14087367311996,29.29505773102968],[-102.79639961421998,29.737858412168467],[-103.11780835562519,30.623357948110133],[-102.95059322544753,30.844724076088067],[-103.20626668819695,31.50881960575464],[-104.66201971458565,32.615734214539735],[-105.04278132048448,33.501463740864466],[-104.28438908925621,33.501463740864466],[-103.08367388326265,33.05856934034312],[-102.05190578545766,32.394334776513745],[-101.8001484184515,32.394334776513745],[-99.44498009914592,30.844724076088067],[-98.94417822395997,30.844724076088067],[-98.28507582657362,30.401988615850012],[-97.13240138062757,29.959248025724907],[-96.63304153010525,29.959248025724907],[-96.0597383367096,29.737858412168467],[-95.4167388143558,29.29505773102968],[-94.91840753314523,29.29505773102968],[-97.24397590384686,27.966515623538832],[-97.48365982584818,27.080739268967196],[-97.32151227673079,25.530569344265174],[-97.6540842198139,24.86622063402441],[-97.65125456211393,23.75900723688851],[-97.84959803372287,23.537569337247948],[-97.49381114463317,21.766103721950703],[-97.2068979504896,21.54467345241114],[-97.08263639869267,20.880383729326642],[-96.79741028239644,20.658953791232214],[-96.63585966512444,19.77324762140126],[-96.31196091330845,19.33038171266611],[-95.46274979709715,18.666079431988045],[-95.21923126863125,18.666079431988045],[-95.5521389880859,17.780338002444335],[-95.47696341269062,17.337465688638396],[-93.35554217295979,16.23028226348085],[-92.87039480299933,16.23028226348085],[-92.25327226126943,15.344534888328768],[-90.98014198572533,14.901668267082668],[-89.92433997698457,14.237361151719895],[-89.44053735861682,14.237361151719895],[-88.92906548991226,14.015925700557855],[-88.12453471284381,13.351619990816666],[-88.31609955742185,12.908749969731124],[-88.8494518764035,13.351619990816666],[-89.57436903996323,13.351619990816666],[-90.11080395409915,13.794490362311917],[-90.83610623845145,13.794490362311917],[-91.85955045045559,14.237361151719895],[-92.16034541585438,14.68023242654426],[-92.6749313910959,14.901668267082668],[-92.70605642120222,15.123098219104795],[-93.80641954794412,16.008845378017277],[-94.32583691288072,16.23028226348085],[-96.75157376268304,16.23028226348085],[-97.02997113631352,16.45171912417561],[-98.00059074948678,16.45171912417561],[-98.55998110274949,16.894592645132853],[-100.13282556963344,17.55890195251916],[-100.86205493057533,17.55890195251916],[-102.2399044180469,18.4446445531848],[-102.72676205158206,18.4446445531848],[-103.29731335092579,18.887513939187997],[-103.54092212351578,18.887513939187997],[-104.9743253449913,19.994679797675],[-105.01776717827211,20.216093163402903],[-105.5937769969553,20.658953791232214],[-106.00426767410478,22.651829747362427],[-106.93779295419782,23.537569337247948],[-107.34052575351053,24.201887462760435],[-109.47005792919487,25.752022574458202],[-109.72823478679659,26.63783714484738],[-110.74881285790663,27.523633266435894],[-110.82142356303248,27.745076119607436],[-111.46694671765019,28.187951339162222],[-112.27828754816062,29.07364754003054],[-112.61255674681965,29.959248025724907],[-112.94907885094544,30.180614441882263],[-113.40176895949863,31.287453267835197],[-113.08898982736125,31.730189287934547],[-113.38098730073537,32.394334776513745],[-114.33795096394186,32.83714518898045],[-114.84228378828315,32.83714518898045],[-115.36860119304933,33.94443056187656],[-115.22378854969017,34.16594524388752],[-115.66841626681381,35.052271203629424],[-115.04738817258271,34.83063415981324],[-114.60891266279181,33.94443056187656],[-114.75505398915591,33.72293727640519],[-114.54423681268038,33.2800083101108]]],[[[-111.98833277200934,27.523633266435894],[-111.63950796121023,26.416384133513066],[-111.32624804229037,26.1949304084359],[-111.07373466113121,25.309117157726842],[-109.63968874136606,23.537569337247948],[-110.13094252085118,23.537569337247948],[-111.33185798177429,24.423330024446912],[-111.38892693712967,24.644774375618212],[-111.99922141141843,25.087666454162648],[-112.31449033483035,26.1949304084359],[-113.57851494484491,27.080739268967196],[-113.8261281005218,27.080739268967196],[-113.9715646345737,27.523633266435894],[-114.29416635555985,27.745076119607436],[-114.936294740294,29.516461501195504],[-115.78755481520822,30.401988615850012],[-115.8788718028744,30.623357948110133],[-115.56408225261445,31.066088636972246],[-115.31349483313753,31.066088636972246],[-114.62778715118328,30.623357948110133],[-113.93895654815095,29.516461501195504],[-111.98833277200934,27.523633266435894]]]]}}
