{"type": "Feature", "properties": {"taxon_id": 5181, "parent_taxon_id": 5179, "name": "Buteo regalis", "rank": "species", "iconic_taxon_id": 3, "iconic_taxon_name": "Aves", "geomodel_version": "2.33"}, "geometry": {"type": "MultiPolygon", "coordinates": [[[[-111.7095607887172, 28.83786233479296], [-111.48186982651774, 28.999697788544598], [-111.20847483973895, 28.908343506043497], [-110.97980495360824, 29.069375846298968], [-110.70644421278625, 28.97700443882517], [-110.47682734356125, 29.137215367051358], [-110.52042206740066, 29.390196473206956], [-110.28971782634346, 29.549964705068618], [-110.01558904001307, 29.45635332054653], [-109.97301222799484, 29.203198121814147], [-109.69984819424974, 29.108791905163223], [-109.46843560716836, 29.26730693586543], [-109.1954343593981, 29.1718842126968], [-109.15466021899368, 28.918195961992435], [-109.38585788665823, 28.76007495213165], [-109.34482721950464, 28.506174587014563], [-109.07362230211069, 28.41025651467071], [-109.03335648106548, 28.156025654593716], [-108.76314516196922, 28.0593910774909], [-108.72363859662084, 27.804858005288896], [-108.45442973273839, 27.707533517395436], [-108.41567675833974, 27.452726660005776], [-108.14747883481333, 27.354739063341754], [-108.1094737164548, 27.09968697237771], [-107.84229485131036, 27.00106325603042], [-107.8050317880268, 26.74579458814233], [-108.03393501636745, 26.58925324878944], [-107.99639955362464, 26.333892412912913], [-107.73096743072585, 26.234975250499193], [-107.50235286577723, 26.39110540414788], [-107.23723502710533, 26.291291057927378], [-107.20143842697685, 26.035675527059627], [-107.4297511938336, 25.879958053538672], [-107.39367458972869, 25.624288102679724], [-107.13028766946665, 25.524257863416818], [-107.09493174739258, 25.268476659242072], [-106.8325778225495, 25.16793101364044], [-106.7979366807907, 24.91206745008067], [-106.53662222797553, 24.81103392394382], [-106.30929074003518, 24.965505078162863], [-106.04837676437432, 24.863639205582608], [-106.01544101200936, 24.60767623566254], [-106.24242107944703, 24.4536230585065], [-106.20919160479409, 24.19768141010289], [-105.94997419832531, 24.09575488423235], [-105.9174415252624, 23.839817435974357], [-105.65928104248076, 23.737485829163095], [-105.62743909874045, 23.481581326332776], [-105.37034071513419, 23.378872241098797], [-105.1444838770936, 23.531664771166493], [-104.88786489579495, 23.42819013466706], [-104.85769159208391, 23.172340626720683], [-104.60215818719875, 23.06853297688241], [-104.57265987089819, 22.81278332202643], [-104.31821615853184, 22.708670222976064], [-104.09271612898112, 22.859871500346152], [-103.83882408696851, 22.755032790645032], [-103.8109749351418, 22.499442455958462], [-103.55819366874789, 22.39434293113428], [-103.53100284607089, 22.138918507489556], [-103.2793354453676, 22.03358554220044], [-103.2527964954031, 21.77835496685], [-103.00224576856237, 21.672815792116438], [-102.97635222605687, 21.417806803695548], [-102.72692070529317, 21.3120884874605], [-102.50290014494617, 21.46089315970231], [-102.2541200258103, 21.35452497766052], [-102.22983116705237, 21.099851730608183], [-102.45335604648037, 20.951458035955095], [-102.4287339017544, 20.696974552621374], [-102.1815473156442, 20.59097841010866], [-101.95852643068685, 20.738960683597664], [-101.98218756971356, 20.993348528709152], [-101.75838117898682, 21.141013179251505], [-101.51143647626331, 21.033884915003664], [-101.48873783357196, 20.779610654079754], [-101.24294536461268, 20.6723912735525], [-101.22086279331747, 20.418438105531845], [-100.97622346897434, 20.311153929842714], [-100.95475031625139, 20.05754835050113], [-101.17696389156835, 19.911093971089333], [-101.15514650605526, 19.65772267233559], [-100.91206227750143, 19.55094329953949], [-100.69039443154017, 19.696993648289162], [-100.44806316817073, 19.58965778712641], [-100.42778894776009, 19.33682566860269], [-100.18661213543284, 19.22950234709565], [-100.1669274610399, 18.977095460622287], [-99.92690507987842, 18.869809860947303], [-99.70620801396024, 19.014363953822116], [-99.46699225410906, 18.906563745917378], [-99.24618291206443, 19.05042155994036], [-99.00780236044578, 18.942115240907075], [-98.78690975560536, 19.08526834777329], [-98.80378707656426, 19.337103765725224], [-98.58221288851958, 19.479912837607934], [-98.59872205161255, 19.731980415855254], [-98.37646787972356, 19.87441910622172], [-98.13834306414827, 19.76442907162886], [-97.91605999227797, 19.906121283719678], [-97.93125266757177, 20.158151500950407], [-98.1696720050312, 20.268734384258035], [-98.18543154386458, 20.52118679085466], [-98.42507366075587, 20.631834346475543], [-98.64865026262996, 20.489442651816958], [-98.88919875627262, 20.59955260380087], [-98.90648899698746, 20.8526293906182], [-99.14825144922148, 20.962761303949048], [-99.37238742957857, 20.819245417262835], [-99.61501639979507, 20.928812738571448], [-99.63385801718002, 21.18245485365862], [-99.87769057541455, 21.292000826990755], [-99.89713266005178, 21.545971889516014], [-100.1421693135341, 21.655470332305995], [-100.16221886071557, 21.909743868177415], [-100.40845988672133, 22.01916832434476], [-100.42912391506975, 22.273717587158465], [-100.20256482065666, 22.418667929033226], [-99.95593738870106, 22.308708674606883], [-99.93625558163706, 22.05433580101612], [-99.690845319847, 21.944293736936267], [-99.46474922385924, 22.08808317707091], [-99.48344901567745, 22.342261972696168], [-99.7292269367077, 22.452847308749543], [-99.74853620153118, 22.707292381348594], [-99.52107974921785, 22.850950980453735], [-99.54001163714481, 23.10544110729251], [-99.31181046841192, 23.248593058915123], [-99.33036011274176, 23.50310110800799], [-99.10141562490156, 23.64571994241528], [-99.11957812740387, 23.90021881333364], [-99.36769084391395, 24.012312634752824], [-99.38647288733583, 24.266995880870795], [-99.15613048667669, 24.409366580449667], [-98.9076622647538, 24.29674086467431], [-98.67723579487533, 24.438214719188387], [-98.69460919565059, 24.692614151940454], [-98.46344430028367, 24.833476521381318], [-98.21559340699908, 24.719645761643108], [-98.19923606133474, 24.465493072883408], [-97.95269159342712, 24.35154568418532], [-97.93694053344703, 24.097576778754227], [-97.69170037583488, 23.983540078686676], [-97.46191465231693, 24.12291970842468], [-97.47665878550993, 24.376615790783777], [-97.24617602543431, 24.51536211405595], [-97.26050697540838, 24.768969398158955], [-97.02932961924365, 24.907057237921617], [-97.0432425258869, 25.160549130627356], [-96.81137313950674, 25.297953556381483], [-96.82486312031808, 25.551303588758245], [-97.07124419899993, 25.667548876939712], [-97.08533370462055, 25.921036791080017], [-96.85201410884285, 26.05797508745986], [-96.86567583777595, 26.311276661404747], [-97.113691925157, 26.42793886620756], [-97.12796139799221, 26.68133310840493], [-97.37734926141569, 26.797836366995753], [-97.39223470138867, 27.051296070642433], [-97.15668298762441, 27.187958271298644], [-97.17113588170596, 27.44116933595893], [-96.93486152896807, 27.57704553285013], [-96.94887669819991, 27.829982168570226], [-96.71188249250824, 27.96504862663591], [-96.4616642110531, 27.84696254925405], [-96.2247568188051, 27.98099139967189], [-96.23726476267282, 28.233309058699938], [-95.9996569930052, 28.366491380162653], [-95.75036381127703, 28.247160727796665], [-95.51289401164676, 28.379289933254853], [-95.52388333365542, 28.630931984091045], [-95.2857334346765, 28.762179323245917], [-95.03744763711262, 28.641610134341935], [-94.79948709322368, 28.771790571786905], [-94.80894774348357, 29.022701619768878], [-94.57032815021931, 29.15196635884109], [-94.57931600420835, 29.40248135582987], [-94.34004143370629, 29.530809182898416], [-94.09267619843641, 29.40847839178307], [-93.85366021817937, 29.535716205103196], [-93.60763424743115, 29.41269588068114], [-93.36891069755315, 29.53884445424083], [-93.12425146546988, 29.415151119915304], [-92.88585371333959, 29.540211736528658], [-92.89117625158774, 29.789073497932613], [-93.13595107051559, 29.913302560384633], [-93.37528939031381, 29.788132655967424], [-93.62145273612295, 29.911684943546803], [-93.86110153104069, 29.785415539537563], [-94.10862609319439, 29.908274217189575], [-94.34855142062476, 29.780904099308074], [-94.59740899302618, 29.903052604885445], [-94.60651463818212, 30.153090020092943], [-94.85687055740188, 30.2750279720751], [-94.86658092649937, 30.524981384257867], [-95.1184410150323, 30.64668035207064], [-95.12876526112707, 30.89652322462015], [-95.38213514547994, 31.017954633175705], [-95.39308250771141, 31.26766041187151], [-95.1495503643995, 31.39557893077723], [-95.16001182407797, 31.64477334664487], [-95.41512262157491, 31.766398708435087], [-95.4262160166173, 32.015412916150055], [-95.18107408574248, 32.14244963553895], [-95.19167550632974, 32.3909133995828], [-95.44855111284375, 32.512686073948466], [-95.45979347468653, 32.760927040843896], [-95.7182233364286, 32.88233070408366], [-95.73011633509918, 33.13032270441676], [-95.9901057960558, 33.25132839883662], [-96.00265921407572, 33.499045333804446], [-96.26421338065403, 33.61962406076828], [-96.27743708571964, 33.86703991881024], [-96.54056081641659, 33.98716265764194], [-96.55446475948257, 34.234251530928205], [-96.81916265432343, 34.353889257882265], [-96.8337568675392, 34.60062535863136], [-96.58246250525485, 34.72742778976471], [-96.59655717074281, 34.973498220070546], [-96.34446137756788, 35.09918864575347], [-96.3580502806801, 35.34457306475489], [-96.1051567970631, 35.46913344215337], [-96.11823369602817, 35.71381193931282], [-96.38541550402287, 35.834230248853466], [-96.39919268470271, 36.07848678143618], [-96.14456842296593, 36.20202355755956], [-96.1578270844906, 36.4455407201349], [-96.42693836485626, 36.565815751242845], [-96.44090774869285, 36.80887244524964], [-96.18452911636756, 36.931358473119374], [-96.19797334352664, 37.17364360392031], [-96.46904184547843, 37.29373152652242], [-96.48320746753716, 37.53551868193447], [-96.22505039214646, 37.65692836909735], [-96.23868409448251, 37.89791306365965], [-96.51173816352137, 38.017770801195674], [-96.52610417217177, 38.258221064364], [-96.26614408828843, 38.37853039512507], [-96.27997128555018, 38.61814863063738], [-96.01916598130688, 38.737218933433105], [-96.03244753371652, 38.97598864887645], [-96.30782237725838, 39.09596892677162], [-96.32184720329721, 39.33415714077169], [-96.05920019096513, 39.45208416981631], [-96.07267219676511, 39.68939643603158], [-96.35009777785376, 39.80905579135036], [-96.36432448468615, 40.04575295013505], [-96.09980984728287, 40.16251684471151], [-96.1134764189069, 40.39831202101089], [-95.84809346832756, 40.5137835908502], [-95.86119273204503, 40.74866233026101], [-96.14100740547497, 40.86834062904212], [-96.15487277420793, 41.10256167837416], [-95.88758151567838, 41.216833914737016], [-95.90087195610901, 41.45011469262801], [-95.63270294556983, 41.56306454384189], [-95.64541109224928, 41.79539185876027], [-95.92764726894563, 41.91503679204915], [-95.9411330888617, 42.146666640081826], [-96.22521786556888, 42.26549560873228], [-96.23949401951566, 42.49640791220399], [-96.52543370128804, 42.614393995628475], [-96.54051296694236, 42.84456899390705], [-96.2682575350472, 42.95651387194177], [-96.27978705092266, 43.185065328483795], [-96.5686787521048, 43.30285315194157], [-96.5818236236454, 43.53214172543097], [-96.30320032474137, 43.64397223974924], [-96.31508772736869, 43.874317592755695], [-96.60852004591483, 43.99249569324317], [-96.62207580940242, 44.22355067223971], [-96.3392334597766, 44.33676606087389], [-96.35149566559728, 44.568858451736034], [-96.06540813119398, 44.68210100862722], [-95.76817215325698, 44.56190987564577], [-95.47994774402598, 44.67381141672842], [-95.48779047109149, 44.90723569933553], [-95.78694116671996, 45.02845463734582], [-95.79647541162419, 45.262574135571995], [-96.09852408793901, 45.38313078452309], [-96.10979930030852, 45.61792063408168], [-96.41478135249844, 45.73777817515205], [-96.42784833213679, 45.97321288481191], [-96.13271608984338, 46.08913448348222], [-96.14436165483123, 46.32554621293188], [-96.45441001017535, 46.44568460779968], [-96.46790939806762, 46.68270904755069], [-96.78102368287786, 46.80206391957246], [-96.79643171307336, 47.03967404650092], [-96.49535738497026, 47.15830289294966], [-96.50931099125933, 47.39685912183024], [-96.2045449523244, 47.515398372441126], [-96.21698810805752, 47.7548813814422], [-95.90846146005663, 47.87329563228708], [-95.91933602906201, 48.1136853421783], [-96.24229941864417, 48.23530547717815], [-96.25517243732341, 48.47623249888981], [-95.94146008176453, 48.59589506919834], [-95.95271389722873, 48.83770072702126], [-95.63503727241671, 48.95716643934322], [-95.64460844466419, 49.199828955070046], [-95.97561631540663, 49.32267702054279], [-95.98726955981552, 49.565832730764406], [-96.32181359548959, 49.68772743649915], [-96.33561592089607, 49.93134617686222], [-96.67374337308462, 50.05224469630576], [-96.68976379728254, 50.29629567518753], [-97.03152199314383, 50.41615470343239], [-97.35466366254559, 50.29091900749566], [-97.6974294819289, 50.408670226273344], [-97.71971565336271, 50.65267421427883], [-98.06612241171601, 50.76931028824068], [-98.38750070927426, 50.64094053696593], [-98.73477571383185, 50.75543602289361], [-98.76347967884375, 50.99927529890997], [-99.11439799752713, 51.11258084869607], [-99.433724219364, 50.981089946230206], [-99.4010574072009, 50.73779739532448], [-99.71609470260883, 50.60621695023941], [-100.06480088864218, 50.71643472095351], [-100.3765733333193, 50.58330696356848], [-100.72584354557995, 50.69139061732201], [-100.76631526039733, 50.93348103371137], [-101.11908657289982, 51.040288772264525], [-101.1622501350691, 51.28259197093648], [-101.51855612268868, 51.388080480991306], [-101.82856115828001, 51.25042293190965], [-102.18522427573596, 51.35372979199137], [-102.2350771316752, 51.595506500646046], [-102.59525004145505, 51.69742483661085], [-102.64799075006485, 51.939317982564575], [-103.01170240782034, 52.03980442179104], [-103.3193112506998, 51.89762593292663], [-103.68315413974447, 51.99589090443131], [-103.74280522665448, 52.23707415953602], [-104.1101489020649, 52.333840140114425], [-104.41434690708354, 52.18870703264516], [-104.78164815360005, 52.28324186752839], [-104.84829796683438, 52.52359290883001], [-105.21905261230303, 52.616563900482966], [-105.51953486426015, 52.46852618202422], [-105.89006858213398, 52.55926088300976], [-105.96379130933171, 52.79865758172355], [-106.33772148079979, 52.88776607110282], [-106.41475080082054, 53.12705036289954], [-106.7920913940125, 53.21449066951198], [-107.08856499123372, 53.06207290797277], [-107.00771019754977, 52.82375209455618], [-107.29994035253809, 52.67160507932572], [-107.67295905947603, 52.75626041989446], [-107.75756113860216, 52.99358840438815], [-108.13382795751632, 53.0765415498751], [-108.22185814301126, 53.31366592236929], [-108.60137868057073, 53.394876501197054], [-108.8888971228189, 53.23849123629989], [-109.26763931817682, 53.31747801216603], [-109.36287169801514, 53.553286782215494], [-109.74478192879008, 53.63047744392973], [-110.02738549775313, 53.47145321881303], [-110.40832693917146, 53.54643365547271], [-110.51077120695759, 53.78080946533103], [-110.89478566114504, 53.85394359823882], [-111.17218741483053, 53.69236245800041], [-111.55504176489742, 53.76330463479379], [-111.664690040382, 53.996132339245236], [-112.0505132967829, 54.06518156458895], [-112.32243456236694, 53.90113134741925], [-112.70690645901308, 53.96801152303504], [-112.97405591563903, 53.803025855718445], [-113.35708552774537, 53.86776941130843], [-113.61947301287145, 53.70190168827476], [-114.00097327523409, 53.764541817504636], [-114.25861259978093, 53.59784489509606], [-114.13584427475395, 53.36992048697466], [-114.38989676533338, 53.203838302140895], [-114.2677329286827, 52.97667272282432], [-113.8945380553816, 52.91433575632049], [-113.77595393845444, 52.68669597383864], [-114.02756534797018, 52.522639031129], [-114.39673572382829, 52.58483451898196], [-114.64388743802023, 52.42004522876566], [-115.01149357349031, 52.480278996178335], [-115.25420372255817, 52.31480603985149], [-115.13045649654269, 52.09046099224059], [-115.36993691922135, 51.92569387701408], [-115.24687695940233, 51.70214543203744], [-115.48320755780851, 51.5381024014929], [-115.360834674748, 51.315363943495996], [-115.00476925255167, 51.25541808273937], [-114.88568025192303, 51.03225872177546], [-115.12003393792203, 50.870288051966384], [-115.00156599926136, 50.64796988431185], [-114.65133179645802, 50.5863967332191], [-114.53603343029673, 50.36371304638584], [-114.76839762303734, 50.203820514473655], [-114.65365934855143, 49.98200797315365], [-114.88308100153671, 49.822871321019356], [-115.22625355857438, 49.88422857406185], [-115.34347745827687, 50.10482729132627], [-115.11506642384026, 50.26528368557541], [-115.23291251177488, 50.48674818329474], [-115.58166458073227, 50.54652445282954], [-115.70266567371237, 50.767604195572986], [-116.05347897970243, 50.82566499888207], [-116.17768199158058, 51.046323025149654], [-116.53053251718347, 51.102640245377145], [-116.75550153569623, 50.938274766977834], [-116.62886241067486, 50.71888663448323], [-116.27966533145887, 50.6625935087565], [-116.15620962289094, 50.44276523150247], [-116.37955014793191, 50.28049309275641], [-116.25683813549249, 50.06150673839603], [-115.9131566801509, 50.003546458815705], [-115.7935215986862, 49.78417469939921], [-116.0152078068074, 49.6240017399203], [-115.89625270133331, 49.4055015422427], [-116.11521382134693, 49.24614788872201], [-116.45203934634544, 49.304018781160366], [-116.6672362440242, 49.14423058535891], [-116.5467312291928, 48.92783945351221], [-116.75933766137292, 48.7689058041336], [-117.09131925719909, 48.82511352532288], [-117.35416411319696, 48.67428297641674], [-117.68544704600146, 48.728864772820614], [-117.75542895323731, 48.93432662519706], [-118.0875124556405, 48.987333415167605], [-118.34803963459348, 48.83483962054941], [-118.27682953829049, 48.62964846557389], [-118.53567683477027, 48.47613087338997], [-118.86536060758264, 48.52750401467042], [-119.1221513075455, 48.37268018328901], [-119.45093755427126, 48.42247229852413], [-119.52452038603487, 48.627093360465075], [-119.26815228492313, 48.78221386976698], [-119.34166312394888, 48.98584676740513], [-119.67271169865025, 49.03406692389994], [-119.9286255534707, 48.87865171352414], [-119.85395283732197, 48.67531281885169], [-120.10818781727191, 48.51891771570029], [-120.03346117481675, 48.31459559858606], [-120.28603266614576, 48.15723683912207], [-120.21125796924822, 47.95193896913658], [-120.46218124375444, 47.79363314596141], [-120.38736420714956, 47.587367412880084], [-120.63665442062475, 47.42813147405326], [-120.56180060563707, 47.220906190997056], [-120.8094727964578, 47.060757438944236], [-120.73458761464295, 46.852581345146504], [-120.98065670250082, 46.69153743514635], [-120.90574541921144, 46.482419698332265], [-121.15022620397622, 46.320498636573085], [-121.07529394185276, 46.11044885493855], [-121.31820110256197, 45.9476689961366], [-121.63550294914609, 45.99467614854824], [-121.87630014482755, 45.830794506822095], [-121.80035362703275, 45.620168930047534], [-121.48460093891813, 45.57307724448611], [-121.40964153320937, 45.36119389708569], [-121.64944499525505, 45.19675288786826], [-121.57447915616281, 44.98396888658064], [-121.81275229793827, 44.81872620509191], [-121.73778461069527, 44.60505288134455], [-121.97454162012589, 44.4390282435814], [-121.89957654361558, 44.224477362735634], [-121.58881085079015, 44.17558851019705], [-121.51480117461566, 43.9598048235521], [-121.75060189161448, 43.79327597518032], [-121.6765887644535, 43.57663313227531], [-121.91090648285022, 43.409361330555626], [-121.8368942411443, 43.19187229299834], [-122.06974254043345, 43.02387844152024], [-122.37605398434988, 43.07311994762765], [-122.45098569333847, 43.29022858119685], [-122.75765031912316, 43.337999725315285], [-122.833505727167, 43.55388521074914], [-122.60179486431724, 43.72238441027065], [-122.29364016563022, 43.674746486954184], [-122.05987335425257, 43.84227457518354], [-122.13483148443464, 44.05769081450337], [-122.44448608544938, 44.10520335986894], [-122.52038854875359, 44.31938360268933], [-122.28570596443137, 44.486423368196036], [-122.36162587850153, 44.699732321138285], [-122.67316134063086, 44.7456292970604], [-122.7500352441389, 44.957687686276806], [-122.5144400459717, 45.124217924765944], [-122.20136939043377, 45.07843776721966], [-121.96365837959664, 45.24393747882059], [-122.03960044480245, 45.45546866708619], [-122.35421652324699, 45.50114029015375], [-122.43113418417177, 45.71141055399711], [-122.74612444382413, 45.75556557697091], [-122.82401677147152, 45.96456727845538], [-123.13935229111729, 46.0072026708798], [-123.3752116303507, 45.840957959605056], [-123.29638769678628, 45.632323092747264], [-123.53071236925733, 45.465305490261734], [-123.45193418957304, 45.255772213515534], [-123.68473920471378, 45.088000908869155], [-123.99565006541859, 45.129530108799386], [-124.22626748847213, 44.960792779244876], [-124.14666404604205, 44.75075935452023], [-124.37578841214977, 44.58130967221312], [-124.29625240032743, 44.370406328558374], [-124.52389846198851, 44.20026420120157], [-124.44443321037491, 43.98850280377806], [-124.67061556195907, 43.81768844061778], [-124.59122429492265, 43.60508127444498], [-124.81595737354957, 43.4336151804423], [-124.73664321302721, 43.22017494860987], [-124.95994129949435, 43.048077918162214], [-124.88070726772129, 42.83381773957247], [-125.10258448747611, 42.66111084978604], [-125.0234335096461, 42.44604425642131], [-124.72319196933994, 42.40325714128994], [-124.6449074819555, 42.18696496606403], [-124.86607730165721, 42.013891925852334], [-124.78786890091277, 41.79681472906454], [-124.48927683995134, 41.75237822634611], [-124.4119275133557, 41.534092509032604], [-124.63238363878042, 41.360680376890755], [-124.55510365419714, 41.14163236572882], [-124.77418376309977, 40.96767490819859], [-124.69697602163126, 40.74788000343434], [-124.91469331448418, 40.57339979766522], [-124.83756062715881, 40.35287379587484], [-124.54347153783121, 40.306376635214214], [-124.46717176607774, 40.0846782195405], [-124.17326843871058, 40.03677595711283], [-124.09780365262553, 39.81391660350934], [-124.31546964621408, 39.63941380504454], [-124.24006431413285, 39.41585846245441], [-123.94776426653729, 39.366351881455884], [-123.87318668359497, 39.141657484675356], [-124.09013770224851, 38.9669289072012], [-124.01561348359863, 38.74156595835931], [-123.72490833820859, 38.69047280975629], [-123.65120463884746, 38.463994111397476], [-123.36073442182243, 38.41153188848091], [-123.28785274815903, 38.183951048276256], [-123.50466090163894, 38.009293699010506], [-123.4318179724914, 37.781084168938314], [-123.14294568436274, 37.727071572689525], [-122.92558231649289, 37.90145823503743], [-122.6356513452956, 37.84628048792574], [-122.56441735732743, 37.61653827043709], [-122.78231434507096, 37.44242876357583], [-122.71110185543273, 37.21208095966396], [-122.42279046333437, 37.155388911506265], [-122.35239468278908, 36.92399489800792], [-122.0643971253323, 36.865976788359745], [-121.99481876336013, 36.63355254199253], [-122.21243132756388, 36.45960176318615], [-122.14286092564029, 36.22661635963602], [-121.85648247113387, 36.167127992775164], [-121.78772172255948, 35.93314171654347], [-121.50168811749197, 35.87235813222206], [-121.43373739567065, 35.63738827261322], [-121.65100803393285, 35.46365694763963], [-121.58305232280999, 35.22817305449294], [-121.29863590529094, 35.16596755972637], [-121.23148237636386, 34.929531606928784], [-120.94744014527498, 34.86606482661304], [-120.88108885484141, 34.62869539050724], [-121.09796290916724, 34.45524645322328], [-121.03159425761474, 34.217412703374265], [-120.74916594689846, 34.15257660522775], [-120.68359162842623, 33.91384299731191], [-120.40156520985614, 33.847782580886026], [-120.33678498217239, 33.608168941475846], [-120.05518000922368, 33.54089812923986], [-119.83716618338812, 33.713340438888544], [-119.55482083717087, 33.64496060217384], [-119.49167522928637, 33.404052852412676], [-119.71002916599119, 33.23195806305193], [-119.64683565251569, 32.990645757570555], [-119.36613100894392, 32.92099824559821], [-119.14745665039378, 33.09273970258256], [-119.20980258941962, 33.33448071699772], [-118.98990684109222, 33.505889191710324], [-119.05219352771262, 33.74721785597227], [-118.83106703017792, 33.91826626424624], [-118.5473605014824, 33.847633648977784], [-118.48595051692138, 33.605897794609334], [-118.7073656027897, 33.43520036690729], [-118.64588489813036, 33.19304434671564], [-118.86607547412665, 33.02199081229075], [-118.8045281400983, 32.779437996638734], [-118.52365685874781, 32.70752846216933], [-118.30319107072351, 32.87822159944062], [-118.36386713364277, 33.12118330016087], [-118.14218329336305, 33.291524433785085], [-117.85956971205106, 33.21854094243587], [-117.7997820659517, 32.975184535269996], [-117.51774209832527, 32.90105087042796], [-117.45876301840197, 32.65691745900798], [-117.68092554512387, 32.48730442177854], [-117.62185404947833, 32.242798179769295], [-117.34151462719936, 32.16752209968599], [-117.28324271797882, 31.922277868950847], [-117.00349756914048, 31.84589913997643], [-116.94602322803435, 31.5999403387237], [-116.6668891852647, 31.52247769275627], [-116.6102102333482, 31.275828147635615], [-116.33170377774834, 31.19730083050596], [-116.27581787915375, 30.94998476446712], [-115.99795513854454, 30.870412523967836], [-115.94285980417655, 30.622454543517122], [-115.66565655165284, 30.54185761676287], [-115.61134914294283, 30.293282698629444], [-115.83333119972816, 30.125655933876015], [-115.77889548153695, 29.87683434618738], [-115.50338727530762, 29.795293022900115], [-115.44973039489619, 29.54589750485724], [-115.17489780053677, 29.463385719904284], [-114.952720095002, 29.63019912570727], [-115.00546014702746, 29.87993157824001], [-115.2812985284235, 29.962515275987457], [-115.33482079572964, 30.21168179876189], [-115.11158086792025, 30.37859518470903], [-114.83473419040337, 30.295937033613395], [-114.61026369383177, 30.46211531428172], [-114.66270824786695, 30.711348132993468], [-114.43708086473018, 30.877166499911215], [-114.48937055178305, 31.126111181761416], [-114.76824100775524, 31.208926251222252], [-114.82133167169877, 31.457252617543375], [-114.5945950098829, 31.623070506002765], [-114.31470925042149, 31.54017277932122], [-114.26257929235827, 31.29154152241307], [-113.98345810515502, 31.207634220162838], [-113.7554687462528, 31.372262541886695], [-113.47614026921431, 31.287258315775478], [-113.42579109263444, 31.0377367580763], [-113.14727124870453, 30.95175526365385], [-113.09772426711712, 30.70165778655932], [-113.3257143947367, 30.537811692173815], [-113.2759844715808, 30.28742736888959], [-112.99924202089848, 30.200624364793786], [-112.9503043882636, 29.94970779778252], [-112.67438190487307, 29.86198532042344], [-112.62623249269265, 29.61056307938491], [-112.3511428648032, 29.521944677717602], [-112.3037774837266, 29.27004361638119], [-112.53052501386144, 29.10701253421917], [-112.48296466372874, 28.8549041102172], [-112.2096282995519, 28.76558061938441], [-111.98294756397033, 28.92820045412217], [-111.7095607887172, 28.83786233479296]], [[-118.72255664910996, 36.57970337716433], [-118.78610842399603, 36.816194727262875], [-118.55795615041568, 36.98516924027324], [-118.26595717573986, 36.91732953948063], [-118.20334188230022, 36.68046571193686], [-118.43178394628163, 36.51181252913805], [-118.72255664910996, 36.57970337716433]], [[-115.40455376525567, 44.26840315390883], [-115.72038246554925, 44.33484986519334], [-115.78267321210622, 44.555820839938875], [-115.52793717717715, 44.71059410512465], [-115.59005729555875, 44.93065017420072], [-115.9081179281183, 44.99568177369402], [-115.97127559085143, 45.214563787589675], [-115.71516358144233, 45.36866364359717], [-115.39573896810353, 45.30357523002493], [-115.1379419913129, 45.45637454301254], [-114.81808762585698, 45.389736130343586], [-114.75738193804487, 45.170371561791164], [-114.43848884392857, 45.10225888625967], [-114.17898052974118, 45.25342790821484], [-113.85976712798315, 45.18376129964879], [-113.80137126750763, 44.96301974068825], [-113.48318564879696, 44.891897002617085], [-113.42583573653694, 44.67001404922486], [-113.10869869280648, 44.59744855465514], [-112.84765721460018, 44.74665596688447], [-112.53035267811497, 44.67254255321576], [-112.47533090117112, 44.449343140825086], [-112.73632056208298, 44.300443207684786], [-113.052388899652, 44.374437481390196], [-113.31194178045166, 44.22419129508257], [-113.2553941937433, 44.000260048252635], [-113.51346778512047, 43.848993883772366], [-113.82809163347571, 43.92135439009324], [-114.08467902154537, 43.768781096232885], [-114.39903035887906, 43.83962749102121], [-114.65408871904044, 43.685767605238325], [-114.96810561725425, 43.755107663198366], [-115.02835306050883, 43.97837694272734], [-115.343286824815, 44.04627652967051], [-115.40455376525567, 44.26840315390883]], [[-108.22171676644493, 37.77067929732127], [-108.26368039454394, 38.012545299248615], [-108.01119447353082, 38.16092269828959], [-107.71708192312617, 38.067133229674106], [-107.46372458486528, 38.214262825456565], [-107.17000051123777, 38.11915701334008], [-106.91581664411027, 38.265025519640524], [-106.62253538903275, 38.168607171142774], [-106.58427940366003, 37.92657064984341], [-106.83805720562071, 37.780990213394105], [-106.79944435618994, 37.53823135978627], [-107.05203831048296, 37.39168743431712], [-107.3436379982598, 37.48761251506744], [-107.59542652455154, 37.3398311713233], [-107.88742117293117, 37.434466595653284], [-107.92849095306416, 37.67711480402642], [-108.22171676644493, 37.77067929732127]], [[-113.59870030870762, 45.333585474420325], [-113.65686868761328, 45.553383074824524], [-113.9773884975464, 45.62314848286046], [-114.23842794408571, 45.47301527696883], [-114.55864767420064, 45.54121299088456], [-114.61915201617427, 45.75963385146972], [-114.35816722486443, 45.910076346260375], [-114.03661769477975, 45.841786499933264], [-113.77403673430685, 45.990865996444185], [-113.83304012421492, 46.20854402689846], [-113.56890728821453, 46.356552330359534], [-113.24576712849027, 46.286568385779944], [-113.18807676462318, 46.06869117168692], [-113.45220794412441, 45.920994824177164], [-113.39427467891181, 45.7021521576558], [-113.07352090031347, 45.63081159158848], [-113.0166517046852, 45.41081650785426], [-113.27923168888456, 45.26235721436584], [-113.59870030870762, 45.333585474420325]], [[-106.07909396017304, 40.03698058647107], [-105.81886130796497, 40.1776911247861], [-105.5214479002661, 40.0799917164354], [-105.4850866649889, 39.841845928557156], [-105.74483071851357, 39.70140491035758], [-105.70807548383074, 39.46244529023206], [-105.96662045207565, 39.320934942861676], [-105.92947884064435, 39.08117887111559], [-106.18682750631226, 38.93861946475958], [-106.14930704266814, 38.698084786458566], [-106.40546232564279, 38.55449704734632], [-106.69957866308013, 38.651166111144356], [-106.95496562584005, 38.506287117367265], [-107.24954939323918, 38.60163247683879], [-107.28959972118153, 38.84209693725815], [-107.03380817414374, 38.98726182099358], [-107.07350419640626, 39.22696068036118], [-106.81648987374022, 39.37111096155252], [-106.85582417554339, 39.61002613177106], [-106.59758345750599, 39.75314089990495], [-106.30044330633571, 39.65705927810738], [-106.04142681306749, 39.7988425928873], [-106.07909396017304, 40.03698058647107]], [[-119.10783072965098, 37.99072151779368], [-119.3366640401314, 37.82167349938371], [-119.63030123645405, 37.88559263573737], [-119.69637722886525, 38.11848206860821], [-119.46789304083691, 38.28783512428846], [-119.17297828345458, 38.22399221427265], [-119.10783072965098, 37.99072151779368]], [[-109.71526216716137, 45.44963144071354], [-109.39699576937348, 45.36752867528968], [-109.34901606485126, 45.14455794209271], [-109.61791052158668, 45.003801744830724], [-109.93506349746576, 45.08571717939752], [-110.20277520441415, 44.94351199421162], [-110.52009189088461, 45.02386193167309], [-110.57083256755422, 45.24659022294727], [-110.30288802722511, 45.38909921620605], [-109.98443131137303, 45.30857366307617], [-109.71526216716137, 45.44963144071354]], [[-107.15345195706074, 39.7047465713973], [-107.41086919028315, 39.56031200719389], [-107.70892799577766, 39.6536670000818], [-107.75046201670949, 39.89168370441891], [-107.49266023992504, 40.036404510111566], [-107.19370621616793, 39.942819978141614], [-107.15345195706074, 39.7047465713973]], [[-109.78838725262649, 44.41307088095466], [-109.47364386929472, 44.32997064761064], [-109.42601802662685, 44.10402117767812], [-109.1125841604232, 44.01957213333332], [-109.06597988604743, 43.79257937924273], [-109.33145131085506, 43.65014083401513], [-109.64381741635992, 43.734400808821555], [-109.90816597497214, 43.590552985254575], [-109.85988280764396, 43.36274489173446], [-109.54858634801163, 43.27866887063159], [-109.50131073897762, 43.04983186005544], [-109.19129015158123, 42.96443858248179], [-109.14501396897468, 42.73458926706729], [-109.40743163854025, 42.59024104985176], [-109.71640441954096, 42.675448521347164], [-109.76400358930474, 42.905187598214184], [-110.07422875370136, 42.98908475648203], [-110.12282845448804, 43.21780262874878], [-110.43429124918993, 43.30037098971631], [-110.48389923999966, 43.52805119626237], [-110.22072368335935, 43.67329333085455], [-110.27002239596406, 43.900056357911], [-110.00542732533371, 44.044203572086005], [-110.05440870971833, 44.27003659281468], [-109.78838725262649, 44.41307088095466]], [[-110.20734730178414, 40.83994231193336], [-110.46300855570529, 40.69042258022558], [-110.41486587961269, 40.45543381999399], [-110.66919461873638, 40.30494126655424], [-110.9718514119956, 40.389134724182114], [-111.02123064919576, 40.62397563457566], [-110.76672042424691, 40.77477321813543], [-110.81582154874685, 41.00880313875171], [-110.55996400883626, 41.158626023369656], [-110.25519775711095, 41.07411352975439], [-110.20734730178414, 40.83994231193336]], [[-111.2986798181119, 29.4137143898727], [-111.52746938194596, 29.25227754069571], [-111.80174907969115, 29.34279669700283], [-111.84812925670278, 29.594933920144776], [-112.12328195175567, 29.684593335555412], [-112.17044729496168, 29.936260798415148], [-111.94146730771149, 30.098498690516113], [-111.6654057705698, 30.00866809817152], [-111.4353984145855, 30.170073789203656], [-111.1593324088573, 30.079186345543476], [-111.11417001592613, 29.827080303656704], [-111.34406341770107, 29.66607040437508], [-111.2986798181119, 29.4137143898727]]], [[[-122.56925235082302, 48.46238633642243], [-122.6493216659151, 48.66316073272389], [-122.40292698440645, 48.82374922282237], [-122.48301928147697, 49.0235509587414], [-122.81053230052483, 49.062431772004224], [-122.89167777105447, 49.2609249914004], [-123.21955862964363, 49.29823461550498], [-123.46457912519907, 49.137129675871286], [-123.791071381786, 49.172954236678024], [-124.03369534147127, 49.01071640021189], [-123.95057312389416, 48.81290310016277], [-123.62579144693922, 48.77698274290029], [-123.54369418997932, 48.57785621776026], [-123.78541407377031, 48.41499723110687], [-124.1084979640952, 48.4510227630683], [-124.19155155635721, 48.649800765931595], [-124.51488877029074, 48.68427411979032], [-124.59895263294472, 48.88173696400867], [-124.92251049198092, 48.91465888407654], [-125.16028121379581, 48.75024400982433], [-125.48229730432443, 48.78174940138371], [-125.5682636887062, 48.97753485567533], [-125.89042004359241, 49.007498205962804], [-126.1248726534279, 48.84182429780115], [-126.03804258933387, 48.646403646092644], [-125.7176152807495, 48.6162909512241], [-125.63176145585471, 48.41954889036026], [-125.31146086031313, 48.3879004623781], [-125.22658690307594, 48.189840209973596], [-124.90644556682787, 48.15665433660007], [-124.82255477102136, 47.95727952020348], [-125.05791785008323, 47.79145684480724], [-124.97411891742301, 47.59113746790318], [-124.6558431808366, 47.556273562167256], [-124.57301854665762, 47.354646408593695], [-124.80758272309374, 47.18825330996611], [-124.72484168490391, 46.98569278433785], [-124.4084220781316, 46.94915437821762], [-124.32664646588707, 46.74529401763315], [-124.56040436030527, 46.578346142452965], [-124.4787043573906, 46.3735648164121], [-124.16413111763471, 46.335356570830164], [-124.08338766517143, 46.1292845439009], [-124.31633245369302, 45.96179881213541], [-124.23565689600406, 45.754819473341136], [-124.46707568347266, 45.58658511418633], [-124.38647153673104, 45.37870875395827], [-124.07531750074844, 45.33868217061573], [-123.84319210929287, 45.50668754663641], [-123.9229199887586, 45.71494722361873], [-123.68927155771577, 45.882201357175354], [-123.7690562184723, 46.08955804987218], [-123.53386951621525, 46.25604196836755], [-123.61370717823291, 46.46248549978459], [-123.92964488056714, 46.50207491977767], [-124.01045259608605, 46.70722976423736], [-123.77440929460109, 46.873162293231395], [-123.8552775227166, 47.07739050379868], [-124.17310415983523, 47.11531963334057], [-124.25495178503256, 47.31824987638363], [-124.01805783389925, 47.483614609340194], [-124.09997375541711, 47.685605997742684], [-124.4197002435073, 47.72186970058073], [-124.50260491708916, 47.922555036739915], [-124.26486680787222, 48.08733684619828], [-123.94346796246656, 48.051196838594365], [-123.7033732074963, 48.21490811183433], [-123.38057493579306, 48.17733021936434], [-123.29954890974088, 47.9759344453891], [-122.97706815273811, 47.93680457899046], [-122.89705874280766, 47.734107037843586], [-123.13855407626966, 47.5708872468212], [-123.0585813107342, 47.36724004583735], [-123.29847583013084, 47.20317738685799], [-123.21854399041668, 46.998589021805486], [-122.89967527439434, 46.95770967000585], [-122.65912033897638, 47.121523815816445], [-122.33898926103997, 47.0792054231907], [-122.09621173525207, 47.24191714701698], [-122.17418392162593, 47.44720182582224], [-121.92979964946605, 47.60904605766893], [-122.00778035436818, 47.81337873623524], [-121.76177367578141, 47.97433806875938], [-121.83975804580585, 48.17771049369352], [-122.16478427398033, 48.2197916817475], [-122.24381155003066, 48.421867747116124], [-122.56925235082302, 48.46238633642243]]], [[[-94.01171957559329, 44.99115138306323], [-93.71575774745764, 44.86492942266976], [-93.71722799483832, 44.630763195187185], [-93.42417933062738, 44.5040035810884], [-93.1279459449774, 44.61030485086061], [-93.12335298910736, 44.8446546226159], [-92.82379405299427, 44.95078353545508], [-92.81753862563816, 45.18607316760666], [-93.11401953164496, 45.31507133634941], [-93.41503838651339, 45.20764656046172], [-93.71277004591816, 45.334974911967], [-94.0118092596389, 45.22606984290137], [-94.01171957559329, 44.99115138306323]]], [[[-116.47739996489169, 49.90004868409174], [-116.81950655368708, 49.95630142269059], [-117.03617687634532, 49.79440432462268], [-116.91194122700018, 49.577522109445], [-116.57327579145517, 49.521286201754414], [-116.35542778428041, 49.681916068664876], [-116.47739996489169, 49.90004868409174]]], [[[-100.1013912124295, 50.959144074844446], [-99.78536388795554, 51.09222584512642], [-99.82062913642086, 51.335780944605546], [-100.1759062460942, 51.445653227041895], [-100.49288516677568, 51.311060600149425], [-100.45364829803752, 51.06811353235453], [-100.1013912124295, 50.959144074844446]]], [[[-97.63513864717731, 19.041561931517005], [-97.87084676673085, 19.151332996777104], [-98.091819328661, 19.009613038317184], [-98.07643517359834, 18.758483368560267], [-97.84100500195167, 18.64932050378127], [-97.6206806735846, 18.790680922710525], [-97.63513864717731, 19.041561931517005]]], [[[-114.2603475339209, 44.438604667829026], [-114.20151899687112, 44.216009953555705], [-113.88589219011213, 44.14507809617047], [-113.62782116820097, 44.29665104271212], [-113.6854000870696, 44.51946049287201], [-114.00230504339346, 44.59048444673587], [-114.2603475339209, 44.438604667829026]]]]}}
